number,name,zipcode,area,location,lat,lng,category,note
1,神戸大学 保健管理センター深江分室,658-0022,東灘区,神戸市東灘区深江南町5-1-1,34.719177,135.289308,学校・園・児童館,対応不可
2,神戸新交通(株) 住吉駅,658-0051,東灘区,神戸市東灘区住吉本町1-2,34.719504,135.262343,公共交通機関,対応不可
3,生活協同組合コープこうべ シーア店,658-0051,東灘区,神戸市東灘区住吉本町1-2-1,34.720035,135.262529,商業施設,対応不可
4,生活協同組合コープこうべ 本部,658-0051,東灘区,神戸市東灘区住吉本町1-3-19,34.720082,135.260883,会社・事業所,対応不可
5,生活協同組合コープこうべ 生活文化センター,658-0081,東灘区,神戸市東灘区田中町5丁目3-20,34.721199,135.267181,体育施設・スポーツクラブ,対応不可
6,コナミスポーツクラブ 本山南,658-0014,東灘区,神戸市東灘区北青木2-10-5,34.720976,135.284062,体育施設・スポーツクラブ,対応不可
7,たかぎ歯科医院,658-0081,東灘区,神戸市東灘区田中町1-11-19,34.725901,135.276882,医療関連施設,対応不可
8,東急スポーツオアシス住吉,658-0051,東灘区,神戸市東灘区住吉本町1-1-2住吉NKビル3F,34.720148,135.263439,体育施設・スポーツクラブ,対応不可
9,東灘区民センター,658-0052,東灘区,神戸市東灘区住吉東町5丁目1-16,34.719203,135.263192,集会場・ホール,対応不可
10,東灘区役所,658-0052,東灘区,神戸市東灘区住吉東町5丁目2-1,34.72012,135.265547,官公庁,24時間利用可
11,神戸市立 東灘図書館,658-0052,東灘区,神戸市東灘区住吉東町2丁目3-40,34.719444,135.266443,公園・文教施設,対応不可
12,神戸市立 東灘体育館,658-0025,東灘区,神戸市東灘区魚崎南町6丁目5-11,34.714821,135.278127,体育施設・スポーツクラブ,対応不可
13,神戸市立 魚崎中学校,658-0025,東灘区,神戸市東灘区魚崎南町1-2-1,34.713565,135.279923,学校・園・児童館,対応不可
14,神戸市立 渦が森小学校,658-0066,東灘区,神戸市東灘区渦森台1-12-1,34.738766,135.250876,学校・園・児童館,対応不可
15,神戸市立 住吉中学校,658-0063,東灘区,神戸市東灘区住吉山手1-11-1,34.725595,135.259048,学校・園・児童館,対応不可
16,神戸市立 福池小学校,658-0015,東灘区,神戸市東灘区本山南町4-4-28,34.721342,135.279532,学校・園・児童館,対応不可
17,神戸市立 本庄中学校,658-0027,東灘区,神戸市東灘区青木4-4-2,34.720049,135.287978,学校・園・児童館,対応不可
18,神戸市立 御影中学校,658-0054,東灘区,神戸市東灘区御影中町5-1-1,34.715768,135.253816,学校・園・児童館,対応不可
19,神戸市立 本山第二小学校,658-0073,東灘区,神戸市東灘区西岡本1-3-1,34.724985,135.270147,学校・園・児童館,対応不可
20,神戸市立 本山中学校,658-0072,東灘区,神戸市東灘区岡本3-3-1,34.725279,135.271352,学校・園・児童館,対応不可
21,神戸市立 本山南中学校,658-0081,東灘区,神戸市東灘区田中町4-12-1,34.723213,135.271277,学校・園・児童館,対応不可
22,神戸市立 友生支援学校住吉分校,658-0052,東灘区,神戸市東灘区住吉東町4-1-58,34.717191,135.265659,学校・園・児童館,対応不可
23,神戸ファッションマート,658-0032,東灘区,神戸市東灘区向洋町中6丁目9番地,34.689297,135.268638,商業施設,24時間利用可
24,(株)兵食 六甲アイランド冷蔵庫,658-0033,東灘区,神戸市東灘区向洋町西2丁目,34.692977,135.256811,会社・事業所,対応不可
25,神戸市立 向洋小学校,658-0032,東灘区,神戸市東灘区向洋町中6,34.687729,135.264483,学校・園・児童館,対応不可
26,神戸市立 向洋中学校,658-0032,東灘区,神戸市東灘区向洋町中2,34.689972,135.274235,学校・園・児童館,対応不可
27,六甲アイランド高校,658-0032,東灘区,神戸市東灘区向洋町中4-4,34.684799,135.271681,学校・園・児童館,対応不可
29,ケイヒン(株)六甲冷蔵流通センター,658-0033,東灘区,神戸市東灘区向洋町西2丁目1,34.691446,135.255647,会社・事業所,対応不可
30,ハイテック神戸訪問介(看)護サービス-1,658-0051,東灘区,神戸市東灘区住吉本町2-4-11,34.719666,135.259492,福祉施設,対応不可
31,阪神御影駅,658-0046,東灘区,神戸市東灘区御影本町4-12-4,34.714844,135.255793,公共交通機関,対応不可
32,株式会社 兵食 東部冷蔵庫,658-0023,東灘区,神戸市東灘区深江浜町10番地,34.710607,135.293275,会社・事業所,対応不可
33,財団法人兵庫県予防医学協会,658-0046,東灘区,神戸市東灘区御影本町6-5-2,34.712488,135.255689,医療関連施設,対応不可
34,山御影ゴルフセンター,658-0065,東灘区,神戸市東灘区御影山手4-12-1,34.725424,135.245931,体育施設・スポーツクラブ,対応不可
35,白鶴酒造株式会社,658-0041,東灘区,神戸市東灘区住吉南町4-5-5,34.710291,135.260942,会社・事業所,対応不可
36,白鶴酒造株式会社 旭蔵工場,658-0041,東灘区,神戸市東灘区住吉南町5-10-12,34.712909,135.259905,会社・事業所,対応不可
37,ハイテック神戸訪問介(看)護サービス-2,658-0054,東灘区,神戸市東灘区御影中町6-4-23,34.718746,135.252848,福祉施設,対応不可
38,エスジーエム・オペレーション株式会社,658-0032,東灘区,神戸市東灘区向洋町中5-13,34.691426,135.26794,会社・事業所,対応不可
39,神戸信用金庫 東灘支店,658-0084,東灘区,神戸市東灘区甲南町2丁目7-10,34.722612,135.275313,商業施設,対応不可
40,(株)ドンク 事務所,658-0081,東灘区,神戸市東灘区田中町3丁目19-14,34.724845,135.272741,会社・事業所,対応不可
41,(株)ドンク 六甲アイランド工場,658-0033,東灘区,神戸市東灘区向洋町西5丁目4,34.69145,135.261657,会社・事業所,対応不可
42,神戸市立東灘小学校,658-0013,東灘区,神戸市東灘区深江北町2丁目4-1,34.72454,135.294792,学校・園・児童館,対応不可
43,神戸市立本庄小学校,658-0027,東灘区,神戸市東灘区青木4丁目4-1,34.720742,135.288724,学校・園・児童館,対応不可
44,神戸市立本山南小学校,658-0015,東灘区,神戸市東灘区本山南町8丁目2-1,34.723343,135.282394,学校・園・児童館,対応不可
45,神戸市立魚崎小学校,658-0083,東灘区,神戸市東灘区魚崎中町4丁目10-8,34.71511,135.271647,学校・園・児童館,対応不可
46,神戸市立本山第一小学校,658-0003,東灘区,神戸市東灘区本山北町3丁目10-1,34.728725,135.279346,学校・園・児童館,対応不可
47,神戸市立本山第三小学校,658-0016,東灘区,神戸市東灘区本山中町1丁目2-35,34.727701,135.286848,学校・園・児童館,対応不可
48,神戸市立住吉小学校,658-0052,東灘区,神戸市東灘区住吉東町4丁目1-31,34.716723,135.26503,学校・園・児童館,対応不可
49,神戸市立御影小学校,658-0045,東灘区,神戸市東灘区御影石町3丁目1-1,34.714528,135.251779,学校・園・児童館,対応不可
50,神戸市立御影北小学校,658-0065,東灘区,神戸市東灘区御影山手1丁目12-1,34.72441,135.249357,学校・園・児童館,対応不可
51,神戸市立六甲アイランド小学校,658-0032,東灘区,神戸市東灘区向洋町中2丁目7,34.688376,135.27406,学校・園・児童館,対応不可
52,播州信用金庫 本山支店,658-0081,東灘区,神戸市東灘区田中町1丁目13-8,34.725427,135.275839,商業施設,対応不可
53,播州信用金庫 東灘支店,658-0016,東灘区,神戸市東灘区本山中町3丁目2-3,34.725383,135.282755,商業施設,対応不可
54,口分田玄瑞診療所,658-0003,東灘区,神戸市東灘区本山北町2丁目6-5,34.72853,135.281073,医療関連施設,対応不可
55,小林クリニック,658-0048,東灘区,神戸市東灘区御影郡家1-30-17,34.720531,135.254076,医療関連施設,対応不可
56,やまぐち内科医院,658-0025,東灘区,神戸市東灘区魚崎南町5丁目13-1,34.710404,135.269839,医療関連施設,対応不可
57,医療法人社団 西尾耳鼻咽喉科,658-0013,東灘区,神戸市東灘区深江北町3丁目4-23,34.724062,135.292534,医療関連施設,対応不可
58,吉田小児科医院,658-0064,東灘区,神戸市東灘区鴨子ケ原3丁目28-33,34.733654,135.248057,医療関連施設,対応不可
59,堀本医院,658-0072,東灘区,神戸市東灘区岡本4丁目4-23,34.725911,135.269868,医療関連施設,対応不可
60,吉田循環器内科,658-0047,東灘区,東灘区御影2-10-31,34.721609,135.252026,医療関連施設,対応不可
61,医療法人社団 山村内科循環器科,658-0046,東灘区,神戸市東灘区御影本町2丁目15-2,34.714073,135.257412,医療関連施設,対応不可
62,モンセーヌ住吉川公園管理組合,658-0026,東灘区,神戸市東灘区魚崎西町2丁目2,34.709541,135.26655,集合住宅,対応不可
63,中島クリニック,658-0072,東灘区,神戸市東灘区岡本1丁目13-7-202,34.728764,135.276357,医療関連施設,対応不可
64,川島クリニック,658-0022,東灘区,神戸市東灘区深江南町1丁目12-13,34.723138,135.29963,医療関連施設,対応不可
65,神戸健康共和会 東神戸病院,658-0051,東灘区,神戸市東灘区住吉本町1丁目24-13,34.722067,135.260255,医療関連施設,対応不可
66,岡本商店街振興組合 コトブキ岡本店,658-0072,東灘区,神戸市東灘区岡本1丁目4-26,34.727508,135.275877,商業施設,対応不可
67,長坂医院,658-0072,東灘区,神戸市東灘区岡本2丁目4-11,34.726492,135.273554,医療関連施設,対応不可
68,医療法人社団 四葉会 瀧口クリニック,658-0027,東灘区,神戸市東灘区青木5丁目2-17,34.717452,135.283312,医療関連施設,対応不可
69,SMBC阪急御影コンサルティングオフィス,658-0047,東灘区,神戸市東灘区御影2-2-1,34.724462,135.253297,会社・事業所,対応不可
70,株式会社 三井住友銀行 甲南支店,658-0084,東灘区,神戸市東灘区甲南町3-9-24,34.721929,135.272955,商業施設,対応不可
71,株式会社 三井住友銀行 六甲アイランド支店,658-0032,東灘区,神戸市東灘区向洋町中6-9,34.689301,135.268635,商業施設,対応不可
72,株式会社 三井住友銀行 岡本支店,658-0072,東灘区,神戸市東灘区岡本1-3-25,34.726874,135.275785,商業施設,対応不可
73,株式会社 三井住友銀行 御影支店,658-0046,東灘区,神戸市東灘区御影本町4-10-4,34.714349,135.25575,商業施設,対応不可
74,株式会社 三井住友銀行 住吉支店,658-0051,東灘区,神戸市東灘区住吉本町1-2-1,34.719898,135.262437,商業施設,対応不可
75,サンシャインワーフ神戸管理事務所,658-0027,東灘区,神戸市東灘区青木1-2-34,34.715101,135.286408,商業施設,対応不可
76,岡野耳鼻咽喉科,658-0048,東灘区,神戸市東灘区御影郡家2丁目16-16,34.72439,135.254408,医療関連施設,対応不可
77,学校法人甲南学園 正門,658-0072,東灘区,神戸市東灘区岡本8丁目9-1,34.728845,135.268692,学校・園・児童館,対応不可
78,学校法人甲南学園 3号館1階医務室,658-0072,東灘区,神戸市東灘区岡本8丁目9-1,34.729725,135.26826,学校・園・児童館,対応不可
79,学校法人甲南学園 5号館3階サイバーライブラリー,658-0072,東灘区,神戸市東灘区岡本8丁目9-1,34.729784,135.269318,学校・園・児童館,対応不可
80,学校法人甲南学園 図書館1階カウンター,658-0072,東灘区,神戸市東灘区岡本8丁目9-1,34.728919,135.267894,学校・園・児童館,対応不可
81,学校法人甲南学園 13号館管理人室,658-0073,東灘区,神戸市東灘区西岡本6丁目1-1,34.730142,135.264689,学校・園・児童館,対応不可
82,学校法人甲南学園 7号館管理人室,658-0072,東灘区,神戸市東灘区岡本字十文字山1200,34.730949,135.264707,学校・園・児童館,対応不可
83,学校法人甲南学園 六アイ体育館医務室,658-0032,東灘区,神戸市東灘区向洋中町8-2,34.68322,135.267812,学校・園・児童館,対応不可
84,学校法人甲南学園 六アイ南グラウンド,658-0032,東灘区,神戸市東灘区向洋町中9-4,34.682146,135.267291,学校・園・児童館,対応不可
85,神戸市建設局水環境センター,658-0025,東灘区,神戸市東灘区魚崎南町2丁目1番23号,34.710584,135.27923,官公庁,対応不可
86,灘中学校灘高等学校,658-0082,東灘区,神戸市東灘区魚崎北町8丁目5-1,34.718512,135.268787,学校・園・児童館,対応不可
87,モロゾフ株式会社,658-0033,東灘区,神戸市東灘区向洋町西5丁目3番地,34.691925,135.261672,会社・事業所,対応不可
88,シンコーケミカル・ターミナル(株),658-0042,東灘区,神戸市東灘区住吉浜町18番地,34.702203,135.266983,会社・事業所,24時間利用可
90,財団法人住吉学園,658-0051,東灘区,神戸市東灘区住吉本町3丁目3-4,34.724763,135.260496,,利用不可
91,社団法人兵庫県自動車整備振興会,658-0024,東灘区,,34.707476,135.280964,神戸市東灘区魚崎浜町33,利用不可
92,日東物流株式会社,658-0033,東灘区,神戸市東灘区向洋町西6-4,34.681313,135.25966,会社・事業所,対応不可
93,神戸ファッションプラザ,658-0032,東灘区,神戸市東灘区向洋町中2-9-1,34.688216,135.27076,商業施設,24時間利用可
94,特別養護老人ホーム 友愛苑,658-0064,東灘区,神戸市東灘区鴨子ヶ原2丁目14-17,34.734231,135.250561,福祉施設,対応不可
95,キコーナ青木店,658-0014,東灘区,神戸市東灘区北青木3丁目5-15,34.717894,135.281231,商業施設,対応不可
96,株式会社 タウンライト(キコーナタウン),658-0044,東灘区,神戸市東灘区御影塚町3丁目4-6,34.70914,135.247274,商業施設,対応不可
97,阪神興業有限会社(深江プラザ),658-0013,東灘区,神戸市東灘区深江北町4丁目7-12,34.723573,135.29132,商業施設,対応不可
98,阪神興業有限会社(阪神会館),658-0046,東灘区,神戸市東灘区御影本町2丁目15-22,34.714316,135.256718,商業施設,対応不可
99,株式会社 ガイア(ガイア深江店),658-0021,東灘区,神戸市東灘区深江本町3丁目8-18,34.722781,135.292439,商業施設,対応不可
100,豊栄興産株式会社(Dino),658-0027,東灘区,神戸市東灘区青木6丁目7-16,34.716896,135.281104,商業施設,対応不可
102,株式会社タツミコーポレーション(ガイア住吉店),658-0053,東灘区,神戸市東灘区住吉宮町4丁目4-1-B1,34.718665,135.261447,商業施設,対応不可
103,新国際観光株式会社(甲南グランド),658-0084,東灘区,神戸市東灘区甲南町3丁目7-11,34.721463,135.273795,商業施設,対応不可
104,株式会社 オオシマ・コーポレーション(WING21),658-0013,東灘区,神戸市東灘区深江北町4丁目10-11,34.723555,135.291492,商業施設,対応不可
105,一商会 有限会社(ハーバー43),658-0027,東灘区,神戸市東灘区青木3丁目6-18,34.715422,135.282091,商業施設,対応不可
106,株式会社NSKホールディングス(ライオンズ),658-0013,東灘区,神戸市東灘区深江北町3丁目9-11,34.724052,135.291802,商業施設,対応不可
107,株式会社NSKホールディングス(ライオンズII),658-0027,東灘区,神戸市東灘区青木6丁目4-17,34.716942,135.281886,商業施設,対応不可
108,株式会社BSエンタープライズ(ニュージャンボ),658-0013,東灘区,神戸市東灘区深江北町4丁目11-34,34.724086,135.291234,商業施設,対応不可
109,ミカドホール,658-0046,東灘区,神戸市東灘区御影本町2丁目18-5,34.714338,135.257734,商業施設,対応不可
110,神戸市環境局東クリーンセンター,658-0024,東灘区,神戸市東灘区魚崎浜町1-7,34.705672,135.275978,官公庁,対応不可
111,国土交通省神戸運輸監理部兵庫陸運部,658-0024,東灘区,神戸市東灘区魚崎浜町34-2,34.706984,135.281606,官公庁,対応不可
112,菊正宗酒造(株) 嘉宝蔵,658-0026,東灘区,神戸市東灘区魚崎西町1丁目8-6,34.708459,135.267185,会社・事業所,対応不可
113,神戸市環境局東灘事業所,658-0026,東灘区,神戸市東灘区魚崎西町3丁目5-3,34.711427,135.266654,官公庁,対応不可
114,ファミール東灘壱番館管理組合,658-0012,東灘区,神戸市東灘区本庄町2丁目5-12,34.726166,135.290754,集合住宅,24時間利用可
115,菊正宗酒造(株) 本社,658-0046,東灘区,神戸市東灘区御影本町1丁目7-15,34.710176,135.258233,会社・事業所,対応不可
116,YKK六甲株式会社,658-0033,東灘区,神戸市東灘区向洋町西4丁目2,34.689625,135.260123,会社・事業所,対応不可
117,有限会社 中尾新聞販売(ASA深江),658-0012,東灘区,神戸市東灘区本庄町2丁目8番39号,34.726712,135.292808,商業施設,対応不可
118,本庄地域福祉センター,658-0012,東灘区,神戸市東灘区本庄町2丁目5-1,34.726143,135.291545,小集会場・公民館・地域福祉センター,対応不可
119,本山地域福祉センター,658-0072,東灘区,神戸市東灘区岡本1丁目7-3,34.72811,135.276818,小集会場・公民館・地域福祉センター,対応不可
120,向洋地域福祉センター,658-0032,東灘区,神戸市東灘区向洋町中6丁目3-2,34.688253,135.264032,小集会場・公民館・地域福祉センター,対応不可
121,渦が森地域福祉センター,658-0066,東灘区,神戸市東灘区渦森台1丁目2番1号,34.738258,135.252195,小集会場・公民館・地域福祉センター,対応不可
122,KiLaLa住吉管理組合,658-0053,東灘区,神戸市東灘区住吉宮町4丁目4-1,34.718603,135.261032,集合住宅,対応不可
123,(株)小松製作所六甲アイランド工場,658-0033,東灘区,神戸市東灘区向洋町西4丁目6,34.689111,135.255583,会社・事業所,対応不可
124,剣菱酒造株式会社 No1,658-0046,東灘区,神戸市東灘区御影本町3丁目12-5,34.710132,135.256731,会社・事業所,対応不可
125,剣菱酒造株式会社 No2,658-0023,東灘区,神戸市東灘区深江浜町53番地,34.710941,135.3027,会社・事業所,対応不可
126,剣菱酒造株式会社 No3,658-0023,東灘区,神戸市東灘区深江浜町53番地,34.710608,135.303043,会社・事業所,対応不可
127,NPO大東ネットワーク事業團,658-0084,東灘区,神戸市東灘区甲南町4丁目6-10,34.720362,135.269661,会社・事業所,利用不可
128,ラ・フル-ル本山管理組合,658-0015,東灘区,神戸市東灘区本山南町5丁目3-1,34.719429,135.277182,集合住宅,対応不可
129,神戸市立田中保育所,658-0081,東灘区,神戸市東灘区田中町4丁目11-22,34.722764,135.270048,学校・園・児童館,対応不可
130,神戸市立魚崎保育所,658-0025,東灘区,神戸市東灘区魚崎南町2丁目11-11,34.712212,135.277026,学校・園・児童館,対応不可
131,神戸市立瀬戸保育所,658-0025,東灘区,神戸市東灘区魚崎南町6丁目5-26,34.715154,135.278413,学校・園・児童館,対応不可
132,エレガーノ甲南,658-0015,東灘区,神戸市東灘区本山南町3丁目3-1,34.721267,135.283023,福祉施設,対応不可
133,神戸市立浜御影保育所,658-0046,東灘区,神戸市東灘区御影本町6丁目5-7,34.712656,135.255384,学校・園・児童館,対応不可
134,神戸市立向洋児童館,658-0032,東灘区,神戸市東灘区向洋町中6丁目3-2,34.688179,135.264029,学校・園・児童館,対応不可
135,神戸市立御影保育所,658-0054,東灘区,神戸市東灘区御影中町4丁目1-8,34.717472,135.254894,学校・園・児童館,対応不可
136,神戸市立渦森台保育所,658-0066,東灘区,神戸市東灘区渦森台1丁目13-1,34.739342,135.251345,学校・園・児童館,対応不可
137,神戸市立本山保育所,658-0072,東灘区,神戸市東灘区岡本1丁目7-6,34.728077,135.276569,学校・園・児童館,対応不可
138,神戸市立住吉公園保育所,658-0053,東灘区,神戸市東灘区住吉宮町3丁目4-23,34.716318,135.261513,学校・園・児童館,対応不可
139,神戸市立東灘本庄保育所,658-0027,東灘区,神戸市東灘区青木4丁目1番32号,34.72024,135.289055,学校・園・児童館,対応不可
140,本山東児童館,658-0011,東灘区,神戸市東灘区森南町2丁目8-25,34.729239,135.290107,学校・園・児童館,対応不可
141,六甲アイランド学童保育コーナー,658-0032,東灘区,神戸市東灘区向洋町中3丁目1ー6,34.686741,135.273279,学校・園・児童館,対応不可
142,ケアハウスゆうあい,658-0064,東灘区,神戸市東灘区鴨子ヶ原2丁目14-19,34.733941,135.250726,福祉施設,対応不可
143,神戸市立住之江児童館,658-0053,東灘区,神戸市東灘区住吉宮町1丁目2-15,34.712818,135.264638,学校・園・児童館,対応不可
144,神戸市立浜御影児童館,658-0046,東灘区,神戸市東灘区御影本町6-5-8,34.712458,135.255349,学校・園・児童館,対応不可
145,神戸市立北青木児童館,658-0014,東灘区,神戸市東灘区北青木4丁目6-31,34.717435,135.278969,学校・園・児童館,対応不可
146,コミュニティ・サポートセンター神戸,658-0052,東灘区,神戸市東灘区住吉東町5丁目2?2,34.719685,135.26479,小集会場・公民館・地域福祉センター,対応不可
147,神戸市立中野保育所,658-0015,東灘区,神戸市東灘区本山南町1丁目3-3,34.723865,135.28844,学校・園・児童館,対応不可
148,福池地域福祉センター,658-0015,東灘区,神戸市東灘区本山南町5丁目4-11,34.720724,135.277371,小集会場・公民館・地域福祉センター,対応不可
149,神戸市立田中児童館,658-0081,東灘区,神戸市東灘区田中町4丁目11-24,34.722642,135.270119,学校・園・児童館,対応不可
150,神戸市立魚崎児童館,658-0083,東灘区,神戸市東灘区魚崎中町4丁目3-16,34.713867,135.271427,学校・園・児童館,対応不可
152,介護付有料老人ホームはぴね神戸魚崎,658-0042,東灘区,神戸市東灘区魚崎南町5丁目5-21,34.707494,135.26997,福祉施設,24時間利用可
153,介護付有料老人ホームはぴね神戸魚崎二番館,658-0025,東灘区,神戸市東灘区魚崎南町8丁目10-7,34.712946,135.271409,福祉施設,24時間利用可
154,日清製粉(株)東灘工場,658-0024,東灘区,神戸市東灘区魚崎浜町14,34.704275,135.279842,会社・事業所,対応不可
155,神戸ベイシェラトンホテル&タワーズ,658-0032,東灘区,神戸市東灘区向洋町中2-13,34.689783,135.27022,宿泊施設,24時間利用可
156,エルヴェール神戸本山アーバンライフ,658-0015,東灘区,神戸市東灘区本山南町3丁目ー6-16,34.721786,135.281143,集合住宅,24時間利用可
157,(株)ダイヤモンドフェリー(ターミナル),658-0031,東灘区,神戸市東灘区向洋町東3丁目1,34.697008,135.282627,公共交通機関,対応不可
158,(株)ダイヤモンドフェリー(さんふらわあ ごーるど),658-0031,東灘区,神戸市東灘区向洋町東3丁目21番 神戸六甲RF-1岸壁,34.69602,135.282555,公共交通機関,対応不可
159,(株)ダイヤモンドフェリー(さんふらわあ ぱーる),658-0031,東灘区,神戸市東灘区向洋町東3丁目21番 神戸六甲RF-1岸壁,34.69602,135.282555,公共交通機関,対応不可
160,阪九フェリー,658-0031,東灘区,神戸市東灘区向洋町東3丁目2-1,34.696681,135.284968,公共交通機関,対応不可
161,阪神高速トール神戸(株) 深江浜営業所,658-0023,東灘区,神戸市東灘区深江浜町57番,34.715036,135.297323,会社・事業所,対応不可
162,住吉山手コモンズ マンション管理組合,658-0063,東灘区,神戸市東灘区住吉山手7丁目2-3,34.733394,135.254835,集合住宅,対応不可
163,神戸市立御影幼稚園,658-0045,東灘区,神戸市東灘区御影石町3丁目13-1,34.715646,135.251519,学校・園・児童館,対応不可
164,神戸市立遊喜幼稚園,658-0053,東灘区,神戸市東灘区住吉宮町1丁目8-8,34.712939,135.263278,学校・園・児童館,対応不可
165,神戸市立東灘のぞみ幼稚園,658-0013,東灘区,神戸市東灘区深江北町3-11-3,34.725348,135.292831,学校・園・児童館,対応不可
166,神戸市立住吉幼稚園,658-0053,東灘区,神戸市東灘区住吉宮町7丁目2-6,34.718538,135.258681,学校・園・児童館,対応不可
167,神戸市立魚崎幼稚園,658-0083,東灘区,神戸市東灘区魚崎中町4丁目10-39,34.715023,135.269829,学校・園・児童館,対応不可
168,本山東地域福祉センター,658-0011,東灘区,神戸市東灘区森南町2丁目8-28,34.729309,135.290275,小集会場・公民館・地域福祉センター,対応不可
169,六甲アイランド地域福祉センター,658-0032,東灘区,神戸市東灘区向洋町中3丁目1-6,34.687738,135.274514,小集会場・公民館・地域福祉センター,対応不可
170,魚崎南地域福祉センター,658-0025,東灘区,神戸市東灘区魚崎南町2丁目9-4,34.71148,135.27702,小集会場・公民館・地域福祉センター,対応不可
172,生活協同組合コープこうべ コープリビング甲南,658-0084,東灘区,神戸市東灘区甲南町2丁目1番20号,34.722224,135.276351,商業施設,対応不可
173,生活協同組合コープこうべ コープ甲南,658-0084,東灘区,神戸市東灘区甲南町3丁目1番18号,34.720642,135.274338,商業施設,対応不可
174,生活協同組合コープこうべ 生産事業部(六甲アイランド食品工場),658-0033,東灘区,神戸市東灘区向洋町西2丁目1,34.691932,135.256764,会社・事業所,24時間利用可
175,生活協同組合コープこうべ 健保会館,658-0052,東灘区,神戸市東灘区住吉東町4丁目6-5,34.718505,135.26405,集会場・ホール,対応不可
176,生活協同組合コープこうべ コープ深江,658-0013,東灘区,神戸市東灘区深江北町3町目9番15号,34.724294,135.291845,商業施設,対応不可
177,阪急電鉄(株) 御影駅,658-0047,東灘区,神戸市東灘区御影2丁目1番1号,34.724667,135.252873,公共交通機関,対応不可
178,阪急電鉄(株) 岡本駅,658-0072,東灘区,神戸市東灘区岡本5丁目1番1号,34.729119,135.276086,公共交通機関,対応不可
179,白鶴酒造株式会社 灘魚崎工場,658-0024,東灘区,神戸市東灘区魚崎浜町13番地,34.704782,135.277802,会社・事業所,対応不可
180,甲南女子大学,658-0001,東灘区,神戸市東灘区森北町6-2-23,34.734614,135.287826,学校・園・児童館,対応不可
181,コープこうべ コープ渦森台,658-0066,東灘区,神戸市東灘区渦森台2丁目14番,34.735791,135.250003,商業施設,対応不可
182,兵庫県東灘警察署,658-0054,東灘区,神戸市東灘区御影中町2丁目3番2号,34.717796,135.25587,官公庁,24時間利用可
183,日通商事株式会社,658-0046,東灘区,神戸市東灘区御影本町3-1-4,34.708225,135.258006,会社・事業所,対応不可
184,(株)J-オイルミルズ 神戸工場,658-0023,東灘区,神戸市東灘区深江浜町49,34.70621,135.301774,会社・事業所,対応不可
185,水道局東部センター,658-0081,東灘区,神戸市東灘区田中町5-3-23,34.721102,135.26668,官公庁,24時間利用可
186,全農サイロ(株)神戸支店,658-0042,東灘区,神戸市東灘区住吉浜町,34.702226,135.265553,会社・事業所,24時間利用可
187,株式会社ダイヘン六甲事務所,658-0033,東灘区,神戸市東灘区向洋町西4丁目1番,34.690815,135.258557,会社・事業所,対応不可
188,株式会社コープエイシス,658-0081,東灘区,神戸市東灘区田中町5-2-1,34.721064,135.267974,会社・事業所,対応不可
189,Konan Clover House,658-0084,東灘区,神戸市東灘区甲南町1丁目3-14,34.723047,135.27687,集合住宅,24時間利用可
190,グランダ御影山手弐番館,658-0065,東灘区,神戸市東灘区御影山手1丁目2-31,34.725297,135.255215,福祉施設,24時間利用可
191,コープこうべ コープミニ深江南,658-0022,東灘区,神戸市東灘区深江南町2丁目12番8号,34.72166,135.297964,商業施設,対応不可
192,コープこうべ コープミニ魚崎,658-0083,東灘区,神戸市東灘区魚崎中町4丁目8-1,34.712859,135.269319,商業施設,対応不可
193,コープこうべ コープミニ住吉台,658-0062,東灘区,神戸市東灘区住吉台3番1号,34.734494,135.257647,商業施設,対応不可
194,コープこうべ コープミニ甲南山手,658-0001,東灘区,神戸市東灘区森北町1丁目6番7号,34.73105,135.291388,商業施設,対応不可
195,コープこうべ コープミニ御影北,658-0047,東灘区,神戸市東灘区御影3丁目8番33号,34.721296,135.247242,商業施設,対応不可
196,コープこうべ 協同購入センター東灘,658-0024,東灘区,神戸市東灘区魚崎浜町1-1,34.704371,135.272449,会社・事業所,対応不可
197,コープこうべ 協同購入センター六甲,658-0043,東灘区,神戸市東灘区御影浜町3番2号,34.706993,135.254894,会社・事業所,対応不可
198,グランダ御影山手,658-0065,東灘区,神戸市東灘区御影山手1丁目2-26,34.725538,135.254677,福祉施設,24時間利用可
199,ザ・本山プレミアム管理組合,658-0084,東灘区,神戸市東灘区甲南町1丁目3-7,34.722685,135.276966,集合住宅,24時間利用可
200,神戸老人ホーム,658-0051,東灘区,神戸市東灘区住吉本町3丁目7-41,34.724112,135.25924,福祉施設,対応不可
201,ティーエムターミナル,658-0043,東灘区,神戸市東灘区御影浜町6番,34.702751,135.257987,会社・事業所,24時間利用可
202,特別養護老人ホーム セ・ラ・ヴィ,658-0053,東灘区,神戸市東灘区住吉宮町3丁目4-17,34.716229,135.261627,福祉施設,24時間利用可
203,神戸スポーツアートCocoro専門学校,658-0032,東灘区,神戸市東灘区向洋町中1丁目15番地,34.690473,135.270938,学校・園・児童館,対応不可
204,神戸市産業振興局中央卸売市場,658-0023,東灘区,神戸市東灘区深江浜町1-1,34.714821,135.296273,会社・事業所,24時間利用可
205,甲南山手保育園,658-0012,東灘区,神戸市東灘区本庄町1丁目10番2号,34.727884,135.294429,学校・園・児童館,対応不可
206,ザ・ガーデンプレイス蘇州園,658-0063,東灘区,神戸市東灘区住吉山手4丁目7-28,34.727381,135.254301,商業施設,対応不可
207,みかげ倶楽部,658-0063,東灘区,神戸市東灘区住吉山手2丁目11-26,34.727127,135.256462,福祉施設,24時間利用可
208,神戸税関六甲アイランド出張所,658-0033,東灘区,神戸市東灘区向洋町西1丁目,34.694516,135.265463,官公庁,対応不可
209,甲南保育園,658-0011,東灘区,神戸市東灘区森南町3丁目1番4号,34.727643,135.289359,学校・園・児童館,対応不可
210,魚崎学童保育コーナー,658-0025,東灘区,神戸市東灘区魚崎南町3丁目17-10,34.712048,135.275252,学校・園・児童館,対応不可
211,本山児童館,658-0003,東灘区,神戸市東灘区本山北町3丁目10番2号,34.728482,135.279491,学校・園・児童館,対応不可
212,本庄児童館,658-0012,東灘区,神戸市東灘区本庄町2丁目5番1号,34.726206,135.291535,学校・園・児童館,対応不可
213,本山南学童保育コーナー,658-0015,東灘区,神戸市東灘区本山南町1丁目1-1,34.7232,135.289299,学校・園・児童館,対応不可
214,リハビリホーム グランダ摂津本山,658-0015,東灘区,神戸市東灘区本山南町5-2-12,34.720402,135.278004,福祉施設,24時間利用可
215,株式会社 神東,658-0024,東灘区,神戸市東灘区魚崎浜町17-6,34.705494,135.277092,会社・事業所,対応不可
216,社会福祉法人 信愛学園 御影のどか保育園,658-0047,東灘区,神戸市東灘区御影3丁目28-1,34.722907,135.245827,学校・園・児童館,対応不可
217,浜御影地域福祉センター,658-0046,東灘区,神戸市東灘区御影本町6-2-14,34.71214,135.255575,小集会場・公民館・地域福祉センター,対応不可
218,社会福祉法人 児童養護施設 信愛学園,658-0047,東灘区,神戸市東灘区御影3丁目28-1,34.722907,135.245827,福祉施設,24時間利用可
219,社会福祉法人 信愛学園 御影乳児院,658-0047,東灘区,神戸市東灘区御影3丁目28,34.722274,135.246151,福祉施設,24時間利用可
220,渦森台児童館,658-0066,東灘区,神戸市東灘区渦森台1丁目2-1,34.738206,135.25233,学校・園・児童館,対応不可
221,本山西地域福祉センター,658-0073,東灘区,神戸市東灘区西岡本4丁目8-12,34.726294,135.264045,小集会場・公民館・地域福祉センター,対応不可
222,御影北児童館,658-0047,東灘区,神戸市東灘区御影2丁目20-10,34.723365,135.250148,学校・園・児童館,対応不可
223,甲南介護老人保健施設,658-0032,東灘区,神戸市東灘区向洋町3丁目2-5,34.68676,135.27149,福祉施設,24時間利用可
224,兵庫県立御影高等学校,658-0045,東灘区,神戸市東灘区御影石町4丁目1-1,34.717049,135.250895,学校・園・児童館,対応不可
225,社会福祉法人 鶯園 特別養護老人ホーム ロングステージKOBE岡本,658-0073,東灘区,神戸市東灘区西岡本2丁目25-4-101,34.724106,135.265037,福祉施設,24時間利用可
226,阪神水道企業団,658-0073,東灘区,神戸市東灘区西岡本3丁目20-1,34.724427,135.263696,会社・事業所,対応不可
227,社会福祉法人 千種会 特別養護老人ホーム おおぎの郷,658-0014,東灘区,神戸市東灘区北青木1丁目1-3,34.721541,135.286427,福祉施設,24時間利用可
228,御影北地域福祉センター,658-0047,東灘区,神戸市東灘区御影2丁目28-13,34.722513,135.250157,小集会場・公民館・地域福祉センター,対応不可
229,特別養護老人ホーム 協同の苑六甲アイランド,658-0032,東灘区,神戸市東灘区向洋町中3丁目1-2,34.68751,135.275115,福祉施設,24時間利用可
230,特別養護老人ホーム 協同の苑六甲アイランド にじの家,658-0032,東灘区,神戸市東灘区向洋町中3丁目2-6,34.687183,135.271521,福祉施設,24時間利用可
231,社会福祉法人 千種会 メディカルケアハウス甲南山手,658-0012,東灘区,神戸市東灘区本庄町2丁目8-36,34.726936,135.292679,福祉施設,24時間利用可
232,社会福祉法人 夢工房 夢保育園,658-0053,東灘区,神戸市東灘区住吉宮町1-2-27,34.71277,135.265082,学校・園・児童館,対応不可
233,社会福祉法人 夢工房 夢保育園遊喜分園,658-0053,東灘区,神戸市東灘区住吉宮町1-8-8,34.713006,135.263499,学校・園・児童館,対応不可
234,社会福祉法人 千種会 特別養護老人ホーム甲南山手,658-0012,東灘区,神戸市東灘区本庄町2丁目10-2,34.727921,135.294101,福祉施設,24時間利用可
235,株式会社 神戸サンソ,658-0025,東灘区,神戸市東灘区魚崎南町3丁目2-2,34.708266,135.274601,会社・事業所,対応不可
236,社会福祉法人 千種会 メディカルグループホーム甲南山手,658-0016,東灘区,神戸市東灘区本山中町1丁目15-7,34.728617,135.287425,福祉施設,24時間利用可
237,サンライフ住吉川,658-0052,東灘区,神戸市東灘区住吉東町1丁目3-17-3,34.715384,135.267329,福祉施設,24時間利用可
238,神戸国際大学,658-0032,東灘区,神戸市東灘区向洋町9丁目1-6,34.680651,135.269286,学校・園・児童館,24時間利用可
239,兵庫県立東灘高等学校,658-0023,東灘区,神戸市東灘区深江浜町50,34.709534,135.300731,学校・園・児童館,対応不可
240,神戸薬科大学,658-0003,東灘区,神戸市東灘区本山北町4丁目19-1,34.732003,135.283636,学校・園・児童館,24時間利用可
241,学校法人甲南学園 甲南小学校,658-0051,東灘区,神戸市東灘区住吉本町1丁目12-1,34.722011,135.264268,学校・園・児童館,対応不可
242,学校法人甲南学園 甲南幼稚園,658-0051,東灘区,神戸市東灘区住吉本町1丁目12-1,34.722643,135.263723,学校・園・児童館,対応不可
243,兵庫県警東灘警察署 田中交番,658-0084,東灘区,神戸市東灘区甲南町2丁目8-8,34.722503,135.274595,官公庁,24時間利用可
244,神戸地方法務局東神戸出張所,658-0021,東灘区,神戸市東灘区深江本町4丁目4-1,34.721444,135.290062,官公庁,対応不可
245,北青木会館,658-0014,東灘区,神戸市東灘区北青木4-6-32,34.717316,135.279034,小集会場・公民館・地域福祉センター,対応不可
246,グランダ甲南山手,658-0013,東灘区,神戸市東灘区深江北町1丁目15-4,34.727351,135.297026,福祉施設,24時間利用可
247,(株)ベネッセスタイルケア メディカルホームグランダ深江南,658-0022,東灘区,神戸市東灘区深江南町2丁目8-25,34.72206,135.299818,福祉施設,24時間利用可
248,御影クラッセ,658-0054,東灘区,神戸市東灘区御影中町3丁目2-1,34.715617,135.254806,商業施設,対応不可
249,本住吉神社,658-0053,東灘区,神戸市東灘区住吉宮町7-1-2,34.71873,135.259912,その他,対応不可
250,頌栄短期大学B棟,658-0063,東灘区,神戸市東灘区住吉山手1丁目18-1,34.727129,135.248729,学校・園・児童館,対応不可
251,頌栄短期大学D棟,658-0064,東灘区,神戸市東灘区鴨子ヶ原3丁目32-20,34.728142,135.248832,学校・園・児童館,対応不可
252,頌栄幼稚園,658-0063,東灘区,神戸市東灘区住吉山手1丁目18-1,34.727005,135.249616,学校・園・児童館,対応不可
253,日本年金機構 東灘年金事務所,658-0053,東灘区,神戸市東灘区住吉宮町1丁目11-17,34.713318,135.265391,官公庁,対応不可
254,神戸市立もとやま園,658-0073,東灘区,神戸市東灘区西岡本4丁目17-1,34.725953,135.262606,福祉施設,対応不可
255,三菱倉庫(株)神戸支店六甲営業所,658-0033,東灘区,神戸市東灘区向洋町西2丁目7,34.695381,135.26312,会社・事業所,24時間利用可
256,本山北町あすの保育園,658-0003,東灘区,神戸市東灘区本山北町3丁目2-28,34.72773,135.280591,学校・園・児童館,対応不可
257,介護老人保健施設 すばる魚崎の郷,658-0026,東灘区,神戸市東灘区魚崎西町2丁目3-19,34.710336,135.266411,福祉施設,24時間利用可
258,学校法人甲南学園 甲南大学三木瀧蔵記念体育館,658-0032,東灘区,神戸市東灘区向洋町中9丁目4,34.682354,135.267766,学校・園・児童館,対応不可
259,神戸レディースフットボールセンター,658-0032,東灘区,神戸市東灘区向洋町中7丁目1-1,34.686055,135.269197,体育施設・スポーツクラブ,対応不可
260,社会福祉法人こすもす ケアハウスこすもぴあ,658-0025,東灘区,神戸市東灘区魚崎南町4丁目13-11,34.711216,135.271827,福祉施設,24時間利用可
261,ABCみかげ保育園,658-0046,東灘区,神戸市東灘区御影本町6-1-15,34.711366,135.255217,学校・園・児童館,対応不可
262,三菱倉庫(株)神戸支店六甲営業所E号倉庫事務所,658-0031,東灘区,神戸市東灘区向洋町東4丁目7番,34.687985,135.280487,会社・事業所,24時間利用可
263,社会福祉法人 神戸福生会 グランドビュー甲南,658-0001,東灘区,神戸市東灘区森北町6丁目1-3,34.735485,135.289258,福祉施設,24時間利用可
264,社会福祉法人 神戸福生会 ケアハウスこうべ甲南,658-0001,東灘区,神戸市東灘区森北町6丁目1-2,34.735727,135.289155,福祉施設,24時間利用可
265,社会福祉法人 神戸福生会 高齢者ケアセンター甲南,658-0001,東灘区,神戸市東灘区森北町6丁目1-1,34.735846,135.288836,福祉施設,24時間利用可
266,甲南女子中高等学校,658-0001,東灘区,神戸市東灘区森北町5丁目6-1,34.734746,135.291433,学校・園・児童館,
267,東神戸センタービル,6580015,東灘区,神戸市東灘区本山南町8丁目6-26,34.724241,135.281759,商業施設,
268,社会福祉法人 鶯園 特別養護老人ホームロングステージ御影,658-0045,東灘区,神戸市東灘区御影石町1-2-18,34.709073,135.25199,福祉施設,24時間利用可
269,神戸市建設局東水環境センター(東部スラッジセンター),6580031,東灘区,神戸市東灘区向洋町東2丁目1-1,34.695064,135.275066,会社・事業所,
270,青木南地域福祉センター,658-0014,東灘区,神戸市東灘区青木2-3-21-909,34.718914,135.28655,小集会場・公民館・地域福祉センター,対応不可
271,ウエストコート4番街団地管理組合,658-0032,東灘区,神戸市東灘区向洋町中5丁目1,34.69086,135.26567,集合住宅,24時間利用可
272,ろっこう医療生活協同組合うはらハウス,658-0082,東灘区,神戸市東灘区魚崎北町6丁目9-18,34.719589,135.274073,集合住宅,24時間利用可
273,深江会館,658-0021,東灘区,神戸市東灘区深江本町3丁目5-7,34.7224,135.292458,小集会場・公民館・地域福祉センター,対応不可
274,深江南地域福祉センター,658-0022,東灘区,神戸市東灘区深江南町3丁目4番24号,34.721931,135.296105,小集会場・公民館・地域福祉センター,対応不可
275,グッドタイムリビング御影,658-0054,東灘区,神戸市東灘区御影中町3丁目2-3,34.716186,135.255231,福祉施設,対応不可
1,学校法人 六甲学院,657-0015,灘区,神戸市灘区篠原伯母野山町2丁目4番1号,34.727989,135.227345,学校・園・児童館,対応不可
2,松蔭中学校・高等学校,657-0805,灘区,神戸市灘区青谷町3-4-47,34.713929,135.210562,学校・園・児童館,対応不可
3,神戸市灘区医師会,657-0831,灘区,神戸市灘区水道筋1-24,34.714474,135.227481,医療関連施設,対応不可
4,(株)神戸製鋼所 灘浜ガーデンバーデン,657-0864,灘区,神戸市灘区新在家南町2丁目25-6,34.706264,135.23974,入浴施設,対応不可
5,神戸大学 保健管理センター,657-0013,灘区,神戸市灘区六甲台町1番1号,34.726346,135.235587,学校・園・児童館,対応不可
6,セントラルウェルネスクラブ六甲道,657-0036,灘区,神戸市灘区桜口町5丁目1-1-111 ウェルブ六甲道5番街1番館,34.712197,135.23889,体育施設・スポーツクラブ,対応不可
7,神戸市建設局 王子動物園,657-0838,灘区,神戸市灘区王子町3丁目,34.709202,135.215072,公園・文教施設,対応不可
8,ダイブサポートセンター ビエント,657-0028,灘区,神戸市灘区森後町1-3-19,34.717362,135.239433,商業施設,対応不可
9,神戸市灘区役所,657-0036,灘区,神戸市灘区桜口町4丁目2番1号,34.712321,135.239662,官公庁,24時間利用可
11,神戸市立王子スポーツセンター,657-0805,灘区,神戸市灘区青谷町1丁目1番1号,34.711386,135.212922,体育施設・スポーツクラブ,対応不可
12,六甲山YMCA,657-0101,灘区,神戸市灘区六甲山町北六甲875,34.75439,135.223307,公園・文教施設,対応不可
14,オテル・ド・摩耶,657-0105,灘区,神戸市灘区摩耶山町2-8,34.737537,135.206253,宿泊施設,24時間利用可
16,神戸市立灘図書館,657-0027,灘区,神戸市灘区永手町4丁目2-1,34.715805,135.238559,公園・文教施設,対応不可
17,神戸市立上野中学校,657-0816,灘区,神戸市灘区国玉通1-1-1,34.719592,135.223732,学校・園・児童館,対応不可
18,神戸市立烏帽子中学校,657-0042,灘区,神戸市灘区烏帽子町1-2-1,34.710754,135.237571,学校・園・児童館,対応不可
19,神戸市立青陽東養護学校,657-0846,灘区,神戸市灘区岩屋北町6-1-1,34.705881,135.217975,学校・園・児童館,対応不可
20,神戸市立鷹匠中学校,657-0025,灘区,神戸市灘区高徳町2-2-19,34.720017,135.244435,学校・園・児童館,対応不可
21,神戸市立長峰中学校,657-0811,灘区,神戸市灘区長峰台2-2-1,34.724521,135.223019,学校・園・児童館,対応不可
22,神戸市立原田中学校,657-0842,灘区,神戸市灘区船寺通2-4-1,34.707794,135.229266,学校・園・児童館,対応不可
23,神戸市立六甲山牧場,657-0101,灘区,神戸市灘区六甲山町中一里山1の1,34.748062,135.209489,公園・文教施設,対応不可
24,社団法人 日本自動車連盟兵庫支部,657-0044,灘区,神戸市灘区鹿ノ下通2丁目4番13,34.709407,135.233221,会社・事業所,対応不可
25,神戸大学 発達科学部(体育館),657-0011,灘区,神戸市灘区鶴甲3丁目11,34.734191,135.234751,学校・園・児童館,対応不可
26,神戸大学 国際文化学部(鶴甲第1キャンパス 門衛所),657-0011,灘区,神戸市灘区鶴甲1丁目2-1,34.73189,135.237417,学校・園・児童館,対応不可
27,神戸大学 総務部人事課(本部棟),657-0013,灘区,神戸市灘区六甲台町1番1号,34.725098,135.234462,学校・園・児童館,対応不可
28,神戸市立六甲道勤労市民センター,657-0038,灘区,神戸市灘区深田町4丁目I-39メイン六甲,34.714472,135.239058,集会場・ホール,対応不可
29,(株)サザンモール六甲,657-0864,灘区,神戸市灘区新在家南町1丁目2-1,34.708913,135.241703,商業施設,対応不可
30,神戸市立自然の家,657-0101,灘区,神戸市灘区六甲山町中一里山1-1,34.743584,135.213517,公園・文教施設,対応不可
31,神戸信用金庫 西灘支店,657-0831,灘区,神戸市灘区水道筋4丁目2-1,34.71277,135.22329,商業施設,対応不可
33,神戸市立灘区民ホール,657-0832,灘区,神戸市灘区岸地通1丁目1-1,34.713542,135.2283,集会場・ホール,対応不可
34,稗田わくわくクラブ,657-0832,灘区,神戸市灘区岸地通4丁目2-1,34.711451,135.22267,体育施設・スポーツクラブ,対応不可
35,阿部医院,657-0024,灘区,神戸市灘区楠丘町5丁目2-16,34.719442,135.240114,医療関連施設,対応不可
36,安藤医院,657-0041,灘区,神戸市灘区琵琶町2丁目3-13,34.711672,135.235899,医療関連施設,対応不可
37,大林医院,657-0033,灘区,神戸市灘区徳井町3丁目3-2,34.715262,135.245964,医療関連施設,対応不可
38,渡辺内科小児科クリニック,657-0024,灘区,神戸市灘区楠丘町2丁目2-24,34.72127,135.243861,医療関連施設,対応不可
39,船曳医院,657-0028,灘区,神戸市灘区森後町3丁目5-41,34.716472,135.237249,医療関連施設,対応不可
40,ろっこう医療生協 六甲道診療所,657-0036,灘区,神戸市灘区桜口町4丁目5-12,34.712939,135.23991,医療関連施設,対応不可
41,本庄医院,657-0836,灘区,神戸市灘区城内通2丁目5-14,34.709036,135.218368,医療関連施設,対応不可
42,神戸大学 発達科学部(A棟),657-0011,灘区,神戸市灘区鶴甲3丁目11,34.733403,135.234736,学校・園・児童館,対応不可
43,神戸大学 教育推進機構(K棟),657-0011,灘区,神戸市灘区鶴甲1丁目2-1,34.730767,135.236788,学校・園・児童館,対応不可
44,神戸大学 六甲台第3学舎,657-0013,灘区,神戸市灘区六甲台町2番1号,34.728547,135.234648,学校・園・児童館,対応不可
45,神戸大学 理学部 B棟,657-0013,灘区,神戸市灘区六甲台町1番1号,34.725067,135.235521,学校・園・児童館,対応不可
46,神戸大学 工学部(工学研究棟 門衛所),657-0013,灘区,神戸市灘区六甲台町1番1号,34.727233,135.237376,学校・園・児童館,対応不可
47,神戸大学 都市安全研究センター,657-0013,灘区,神戸市灘区六甲台町1番1号,34.728139,135.237709,学校・園・児童館,対応不可
48,神戸市立成徳小学校,657-0037,灘区,神戸市灘区備後町1丁目3-1,34.715357,135.242481,学校・園・児童館,対応不可
49,神戸市立高羽小学校,657-0023,灘区,神戸市灘区高羽町3丁目11番11号,34.723062,135.23911,学校・園・児童館,対応不可
50,神戸市立鶴甲小学校,657-0011,灘区,神戸市灘区鶴甲2丁目10番1号,34.733283,135.236773,学校・園・児童館,対応不可
51,神戸市立六甲山小学校,657-0101,灘区,神戸市灘区六甲山町北六甲4512-42,34.757399,135.2325,学校・園・児童館,対応不可
52,神戸市立西郷小学校,657-0043,灘区,神戸市灘区大石東町6丁目2番1号,34.706632,135.233135,学校・園・児童館,対応不可
53,神戸市立六甲小学校,657-0051,灘区,神戸市灘区八幡町4丁目4番1号,34.717422,135.23391,学校・園・児童館,対応不可
54,神戸市立灘小学校,657-0056,灘区,神戸市灘区千旦通1丁目5-1,34.713145,135.232866,学校・園・児童館,対応不可
55,神戸市立西灘小学校,657-0842,灘区,神戸市灘区船寺通3丁目4番1号,34.707564,135.228164,学校・園・児童館,対応不可
56,神戸市立稗田小学校,657-0832,灘区,神戸市灘区岸地通4丁目2-1,34.711132,135.222858,学校・園・児童館,対応不可
57,神戸市立美野丘小学校,657-0812,灘区,神戸市灘区箕岡通1丁目3-17,34.722618,135.221373,学校・園・児童館,対応不可
58,神戸市立摩耶小学校,657-0822,灘区,神戸市灘区畑原通4丁目1番1号,34.715591,135.220955,学校・園・児童館,対応不可
59,神戸市立福住小学校,657-0824,灘区,神戸市灘区福住通7丁目1番1号,34.71283,135.218787,学校・園・児童館,対応不可
60,播州信用金庫六甲道支店,657-0035,灘区,神戸市灘区友田町2丁目7番22号,34.71293,135.242725,商業施設,対応不可
61,播州信用金庫 灘支店,657-0831,灘区,神戸市灘区水道筋1丁目6-3,34.713863,135.227147,商業施設,対応不可
62,グランド六甲ビル,657-0035,灘区,神戸市灘区友田町5丁目2番2号,34.711475,135.239084,商業施設,対応不可
63,三井住友銀行 六甲支店,657-0065,灘区,神戸市灘区宮山町2丁目6-8,34.720547,135.234107,商業施設,対応不可
64,六甲摩耶鉄道山上駅,657-0101,灘区,神戸市灘区六甲山町一ヶ谷1番32号,34.751921,135.236918,公共交通機関,対応不可
65,六甲摩耶鉄道ケーブル下駅,657-0001,灘区,神戸市灘区高羽字西山8番の2,34.73727,135.233403,公共交通機関,対応不可
66,三井住友銀行 灘支店,657-0037,灘区,神戸市灘区備後町5丁目3-1-102,34.713762,135.238092,商業施設,対応不可
67,ゆうとぴ庵神戸石屋川,657-0034,灘区,神戸市灘区記田町1丁目3-7,34.714265,135.248496,福祉施設,対応不可
68,兵庫県立神戸高校,657-0804,灘区,神戸市灘区城の下通1丁目5-I,34.718058,135.214645,学校・園・児童館,対応不可
69,六甲山ホテル,657-0101,灘区,神戸市灘区六甲山町南六甲1034番地,34.75579,135.22642,宿泊施設,24時間利用可
70,(株)神鋼エンジニアリング&メンテナンス,657-0846,灘区,神戸市灘区岩屋北町4丁目5-22,34.704727,135.218977,会社・事業所,対応不可
71,(株)みなと銀行 水道筋支店,657-0831,灘区,神戸市灘区水道筋3-10-1,34.712977,135.22459,商業施設,対応不可
72,(株)みなと銀行 六甲道支店,657-0038,灘区,神戸市灘区深田町4丁目1-39,34.714532,135.239227,商業施設,対応不可
73,神戸信用金庫 石屋川支店,657-0034,灘区,神戸市灘区記田町2-3-19,34.714606,135.247619,商業施設,対応不可
74,かたの歯科医院,657-0815,灘区,神戸市灘区薬師通1-1-10,34.719893,135.222672,医療関連施設,対応不可
75,大西歯科,657-0064,灘区,神戸市灘区山田町2-1-1,34.721431,135.235465,医療関連施設,対応不可
76,さわだ歯科,657-0051,灘区,神戸市灘区八幡町4-5-8-1F,34.717918,135.234168,医療関連施設,対応不可
77,本庄歯科医院,657-0836,灘区,神戸市灘区城内通2丁目5-14本庄ビル2F,34.709164,135.218348,医療関連施設,対応不可
78,まえだファミリー歯科,657-0025,灘区,神戸市灘区高徳町4丁目1-1,34.718823,135.242606,医療関連施設,対応不可
80,フタニ歯科医院,657-0027,灘区,神戸市灘区永手町4丁目2-1フォレスタ六甲44,34.715605,135.238125,医療関連施設,対応不可
81,久保田歯科,657-0824,灘区,神戸市灘区福住通5-3-10,34.713743,135.220286,医療関連施設,対応不可
82,くずはら整形外科,657-0034,灘区,神戸市灘区記田町2丁目2-15,34.714216,135.247601,医療関連施設,対応不可
83,李内科クリニック,657-0053,灘区,神戸市灘区六甲町1-6-19,34.71618,135.235659,医療関連施設,対応不可
84,春日井クリニック,657-0028,灘区,神戸市灘区森後町3丁目3-21,34.715726,135.236561,医療関連施設,対応不可
86,鈴田内科・眼科医院,657-0059,灘区,神戸市灘区篠原南町3-7-13,34.717061,135.22958,医療関連施設,対応不可
87,山中眼科医院,657-0023,灘区,神戸市灘区高羽町2-10-13,34.723613,135.241101,医療関連施設,対応不可
88,おがわ内科クリニック,657-0835,灘区,神戸市灘区灘北通10-1-3-101,34.70632,135.217045,医療関連施設,対応不可
89,前田耳鼻咽喉科,657-0838,灘区,神戸市灘区王子町1-1-14前納ビル1F,34.710318,135.219203,医療関連施設,対応不可
91,いまにし泌尿器科,657-0846,灘区,神戸市灘区岩屋北町2-3-13,34.705463,135.220945,医療関連施設,対応不可
92,森クリニック,657-0846,灘区,神戸市灘区岩屋北町3-2-16,34.704789,135.219634,医療関連施設,対応不可
93,中井病院,657-0834,灘区,神戸市灘区泉通6-3-8,34.709734,135.222164,医療関連施設,対応不可
94,谷眼科医院,657-0028,灘区,神戸市灘区森後町3-1-7嶋田ビル1F,34.715518,135.237151,医療関連施設,対応不可
96,灘診療所,657-0831,灘区,神戸市灘区水道筋6-6-3,34.711074,135.220133,医療関連施設,対応不可
97,奥本医院,657-0043,灘区,神戸市灘区大石東町4丁目5-18,34.708573,135.23535,医療関連施設,対応不可
98,村山医院,657-0059,灘区,神戸市灘区篠原南町5-5-13,34.715686,135.227896,医療関連施設,対応不可
99,関本クリニック,657-0051,灘区,神戸市灘区八幡町3-4-5,34.718438,135.235726,医療関連施設,対応不可
100,廣海内科クリニック,657-0054,灘区,神戸市灘区稗原町1-3-23北嶋ビル1階,34.714313,135.236853,医療関連施設,対応不可
101,大田整形外科クリニック,657-0846,灘区,神戸市灘区岩屋北町5-1-31,34.704067,135.21676,医療関連施設,対応不可
102,辻本内科,657-0027,灘区,神戸市灘区永手町5-8-19,34.715446,135.237685,医療関連施設,対応不可
103,井原クリニック,657-0833,灘区,神戸市灘区大内通2-9-5,34.711832,135.227185,医療関連施設,対応不可
104,片野眼科,657-0036,灘区,神戸市灘区桜口町3-2-4,34.713142,135.2405,医療関連施設,対応不可
105,うすき医院,657-0035,灘区,神戸市灘区友田町4-4-7,34.711748,135.239752,医療関連施設,対応不可
107,うすき診療所,657-0027,灘区,神戸市灘区永手町5-3-25,34.715019,135.237872,医療関連施設,対応不可
108,竹内内科,657-0051,灘区,神戸市灘区八幡町2-1-29,34.718135,135.237816,医療関連施設,対応不可
109,岡田整形外科医院,657-0843,灘区,神戸市灘区大石北町7-22,34.706606,135.231577,医療関連施設,対応不可
110,陰下循環器内科,657-0065,灘区,神戸市灘区宮山町3-3-1,34.720192,135.233875,医療関連施設,対応不可
111,中林整形外科クリニック,657-0831,灘区,神戸市灘区水道筋4-3-14,34.712908,135.222842,医療関連施設,対応不可
112,内科クリニック岡田,657-0825,灘区,神戸市灘区中原通2-1-3,34.714164,135.223908,医療関連施設,対応不可
114,瀬戸本医院,657-0834,灘区,神戸市灘区泉通5-1-8,34.709982,135.223991,医療関連施設,対応不可
115,中迫医院,657-0063,灘区,神戸市灘区曽和町2-1-5,34.72192,135.234743,医療関連施設,対応不可
116,飯尾整形外科クリニック,657-0067,灘区,神戸市灘区篠原本町1-7-19-1F,34.721617,135.231834,医療関連施設,対応不可
117,松本医院,657-0059,灘区,神戸市灘区篠原南町2-4-5,34.717687,135.231141,医療関連施設,対応不可
118,黒木医院,657-0033,灘区,神戸市灘区徳井町5-1-7,34.713865,135.244014,医療関連施設,対応不可
120,たかやすクリニック,657-0038,灘区,神戸市灘区深田町4-1-1-301,34.713937,135.238777,医療関連施設,対応不可
121,川岸医院,657-0821,灘区,神戸市灘区赤坂通1-1-15,34.718273,135.224446,医療関連施設,対応不可
122,門田外科医院,657-0825,灘区,神戸市灘区中原通6-3-15,34.712903,135.220526,医療関連施設,対応不可
123,やまだ小児科,657-0831,灘区,神戸市灘区水道筋6-2-18,34.711871,135.221221,医療関連施設,対応不可
124,東和医院,657-0846,灘区,神戸市灘区岩屋北町4-3-5,34.704551,135.217612,医療関連施設,対応不可
125,梶山小児科,657-0822,灘区,神戸市灘区畑原通3-1-17,34.716461,135.223,医療関連施設,対応不可
126,川口クリニック,657-0831,灘区,神戸市灘区水道筋5-2-17,34.712583,135.22238,医療関連施設,対応不可
127,はたに内科,657-0028,灘区,神戸市灘区森後町2-2-22,34.716478,135.238308,医療関連施設,対応不可
129,郡山内科,657-0067,灘区,神戸市灘区篠原本町1-1-1,34.720553,135.232196,医療関連施設,対応不可
130,灘ひかり薬局,657-0817,灘区,神戸市灘区上野通4-4-19,34.717607,135.219887,医療関連施設,対応不可
131,灘薬剤師会,657-0038,灘区,神戸市灘区深田町4-1-1,34.714079,135.238922,医療関連施設,対応不可
132,光和調剤薬局,657-0043,灘区,神戸市灘区大石東町4-5-18,34.708543,135.235194,医療関連施設,対応不可
133,上田歯科医院,657-0846,灘区,神戸市灘区岩屋北町3-3-12,34.705368,135.219281,医療関連施設,対応不可
134,渡邊クリニック,657-0038,灘区,神戸市灘区深田町2-2-19,34.715453,135.241432,医療関連施設,対応不可
135,さわだ歯科クリニック,657-0051,灘区,兵庫県神戸市灘区八幡町4-5-8-1F,34.717918,135.234241,医療関連施設,対応不可
136,高塚クリニック,657-0051,灘区,神戸市灘区八幡町2-8-7-2F,34.719295,135.236694,医療関連施設,対応不可
137,槙村医院,657-0059,灘区,神戸市灘区篠原南町1-1-13,34.71677,135.232266,医療関連施設,対応不可
138,坪井医院,657-0023,灘区,神戸市灘区高羽町5-4-28,34.72198,135.238287,医療関連施設,対応不可
139,田中医院,657-0051,灘区,神戸市灘区八幡町1-8-15,34.719982,135.237206,医療関連施設,対応不可
140,石黒歯科医院,657-0838,灘区,神戸市灘区王子町1-3-14-2F,34.710587,135.21912,医療関連施設,対応不可
141,いわくら耳鼻咽喉科,657-0037,灘区,神戸市灘区備後町5-3-1,34.71348,135.237553,医療関連施設,対応不可
142,小田泌尿器科,657-0028,灘区,神戸市灘区森後町3-5-30,34.716456,135.236665,医療関連施設,対応不可
143,辻整形外科医院,657-0834,灘区,神戸市灘区泉通1-2-5,34.711459,135.228583,医療関連施設,対応不可
144,六甲八幡神社,657-0051,灘区,神戸市灘区八幡町3-6-5,34.719174,135.235283,その他,24時間利用可
145,神戸市環境局 灘事業所,657-0041,灘区,神戸市灘区琵琶町2-1-2,34.711346,135.236581,官公庁,対応不可
146,メイン六甲Aビル 管理組合,657-0038,灘区,神戸市灘区深田町4-1-39,34.71501,135.23917,集合住宅,対応不可
147,神戸市環境局自動車管理事務所 東部車庫,657-0041,灘区,神戸市灘区琵琶町2-1-2,34.71124,135.236425,官公庁,対応不可
148,メッチャライト館,657-0831,灘区,神戸市灘区水道筋4-1-16,34.712097,135.22275,商業施設,対応不可
149,財団法人 神戸市開発管理事業団 鶴甲会館,657-0011,灘区,神戸市灘区鶴甲5丁目1番6号,34.736925,135.237452,集会場・ホール,対応不可
150,六甲山郵便局,657-0101,灘区,神戸市灘区六甲山町南六甲1034-144,34.756159,135.228085,商業施設,対応不可
152,パチンコ ジョイタイム,657-0036,灘区,神戸市灘区桜口町4-5-11,34.71313,135.240019,商業施設,対応不可
153,パチンコパーラー大洋,657-0027,灘区,神戸市灘区永手町4-2-1,34.71552,135.238004,商業施設,対応不可
154,メッチャはんくら,657-0831,灘区,神戸市灘区水道筋2-16-3,34.713154,135.224902,商業施設,対応不可
155,神戸市立王子地域福祉センター,657-0825,灘区,神戸市灘区中原通7-5-1,34.711399,135.219004,小集会場・公民館・地域福祉センター,対応不可
156,神戸市立岩屋地域福祉センター,657-0846,灘区,神戸市灘区岩屋北町2-5-3,34.706203,135.221077,小集会場・公民館・地域福祉センター,対応不可
157,神戸市立なぎさ地域福祉センター,657-0855,灘区,神戸市灘区摩耶海岸通2-3-4,34.702123,135.220998,小集会場・公民館・地域福祉センター,対応不可
158,神戸市立篠原地域福祉センター,657-0068,灘区,神戸市灘区篠原北町2-2-37,34.722504,135.228399,小集会場・公民館・地域福祉センター,対応不可
159,神戸市立六甲地域福祉センター,657-0051,灘区,神戸市灘区八幡町4丁目8-28,34.718692,135.233589,小集会場・公民館・地域福祉センター,対応不可
160,神戸市立西灘保育所,657-0846,灘区,神戸市灘区岩屋北町2丁目5-29,34.706523,135.221162,学校・園・児童館,対応不可
161,パチンコBAGUZY,657-0038,灘区,神戸市灘区深田町4丁目1-45,34.714021,135.239653,商業施設,対応不可
162,神戸市立六甲道児童館,657-0038,灘区,神戸市灘区深田町4丁目1-39-401,34.714534,135.239,学校・園・児童館,対応不可
163,神戸市立石屋川保育所,657-0031,灘区,神戸市灘区大和町4丁目4-18,34.717043,135.244421,学校・園・児童館,対応不可
164,プレミオ岩屋店,657-0845,灘区,神戸市灘区岩屋中町1-2-1,34.703926,135.223622,商業施設,対応不可
165,フェニックス新在家店,657-0861,灘区,神戸市灘区新在家北町1丁目1-30,34.710305,135.240301,商業施設,対応不可
166,フェニックスプラザ摩耶,657-0851,灘区,神戸市灘区味泥町6-1,34.704045,135.228535,商業施設,対応不可
167,神戸市立倉石保育所,657-0826,灘区,神戸市灘区倉石通4丁目1-10,34.712754,135.221747,学校・園・児童館,対応不可
168,日清鋼業株式会社,657-0846,灘区,神戸市灘区岩屋北町4-4-1,34.705095,135.218986,会社・事業所,対応不可
169,神戸市立やはた桜保育所,657-0051,灘区,神戸市灘区八幡町2-1-1,34.717918,135.237653,学校・園・児童館,対応不可
171,株式会社協邦グループMETORO,657-0035,灘区,神戸市灘区友田町4-4-3,34.712057,135.240203,商業施設,対応不可
172,神戸市立河原児童館,657-0055,灘区,神戸市灘区上河原通4-1-1,34.711304,135.230759,学校・園・児童館,対応不可
173,神戸市桜ヶ丘保育所:鶴甲分室,657-0011,灘区,神戸市灘区鶴甲1丁目3-13,34.732053,135.238924,学校・園・児童館,対応不可
174,神戸市立原田児童館,657-0838,灘区,神戸市灘区王子町2-3-1,34.711198,135.218524,学校・園・児童館,対応不可
175,神戸市立上野児童館,657-0821,灘区,神戸市灘区赤坂通6-1-18,34.715224,135.218266,学校・園・児童館,対応不可
176,神戸市立灘保育所,657-0864,灘区,神戸市灘区新在家南町5丁目13番15号,34.705094,135.233492,学校・園・児童館,対応不可
177,神戸市立灘児童館,657-0864,灘区,神戸市灘区新在家南町5丁目13-15,34.705148,135.233443,学校・園・児童館,対応不可
178,神戸市立鶴甲児童館,657-0011,灘区,神戸市灘区鶴甲5-1-37,34.736457,135.237849,学校・園・児童館,対応不可
179,神戸市立都児童館,657-0052,灘区,神戸市灘区神前町2-3-12,34.716453,135.233735,学校・園・児童館,対応不可
180,神戸市立稗田学童保育コーナー,657-0833,灘区,神戸市灘区大内通5丁目1-8,34.710665,135.223572,学校・園・児童館,対応不可
181,神戸市立成徳学童保育コーナー,657-0032,灘区,神戸市灘区中郷町3丁目1-12,34.715762,135.245586,学校・園・児童館,対応不可
182,神戸市立成徳地域福祉センター,657-0037,灘区,神戸市灘区備後町1丁目3,34.715711,135.242546,小集会場・公民館・地域福祉センター,対応不可
183,神戸市立新在家地域福祉センター,657-0864,灘区,神戸市灘区新在家南町3丁目2-25,34.70566,135.236598,小集会場・公民館・地域福祉センター,対応不可
184,神戸市立高羽地域福祉センター,657-0024,灘区,神戸市灘区楠丘町4丁目1-16,34.720373,135.241066,小集会場・公民館・地域福祉センター,対応不可
185,神戸市立摩耶地域福祉センター,657-0823,灘区,神戸市灘区天城通3丁目3-7,34.715152,135.221761,小集会場・公民館・地域福祉センター,対応不可
186,神戸市立鶴甲地域福祉センター,657-0011,灘区,神戸市灘区鶴甲2丁目10-1,34.73344,135.236162,小集会場・公民館・地域福祉センター,対応不可
187,神戸市立灘地域福祉センター,657-0056,灘区,神戸市灘区千旦通1丁目5-2,34.713302,135.232098,小集会場・公民館・地域福祉センター,対応不可
188,神戸市立西郷地域福祉センター,657-0843,灘区,神戸市灘区大石北町8-1,34.706924,135.231562,小集会場・公民館・地域福祉センター,対応不可
189,神戸市立六甲山地域福祉センター,657-0101,灘区,神戸市灘区六甲山町西谷山 1878-133,34.753978,135.237325,小集会場・公民館・地域福祉センター,対応不可
190,神戸市立篠原児童館,657-0068,灘区,神戸市灘区篠原北町2丁目2-37,34.722406,135.228521,学校・園・児童館,対応不可
191,神戸海星女子学院小学校,657-0805,灘区,神戸市灘区青谷町2丁目7-1,34.712232,135.211968,学校・園・児童館,対応不可
192,神戸海星女子学院中学校・高等学校,657-0805,灘区,神戸市灘区青谷町2丁目7-1,34.712076,135.211624,学校・園・児童館,対応不可
193,なかはら保育園,657-0825,灘区,神戸市灘区中原通6丁目4-5,34.712407,135.219662,学校・園・児童館,対応不可
194,はっと保育園,657-0855,灘区,神戸市灘区摩耶海岸通2-3-14,34.701632,135.222514,学校・園・児童館,対応不可
195,六甲幼稚園,657-0065,灘区,神戸市灘区宮山町3-3-5,34.71995,135.233225,学校・園・児童館,対応不可
196,神戸市立八幡児童館,657-0051,灘区,神戸市灘区八幡町2-4-11,34.718765,135.237558,学校・園・児童館,対応不可
197,めばえの園保育園,657-0841,灘区,神戸市灘区灘南通4-4-2,34.708513,135.225668,学校・園・児童館,対応不可
198,神戸海星女子学院大学,657-0805,灘区,神戸市灘区青谷町2-7-1,34.712059,135.211318,学校・園・児童館,対応不可
199,ケアハウスきしろ長寿の里,657-0011,灘区,神戸市灘区鶴甲5-1-50,34.738427,135.235282,福祉施設,対応不可
200,養護老人ホーム六甲台ビラ,657-0011,灘区,神戸市灘区鶴甲5-1-50,34.738079,135.235286,福祉施設,対応不可
201,灘公共職業安定所,657-0833,灘区,神戸市灘区大内通5-2-2,34.710356,135.222607,官公庁,対応不可
202,神戸市立高羽児童館,657-0023,灘区,神戸市灘区高羽町3-12-14,34.723017,135.240158,学校・園・児童館,対応不可
203,神戸市立稗田地域福祉センター,657-0826,灘区,神戸市灘区倉石通4-1-10,34.712871,135.221855,小集会場・公民館・地域福祉センター,対応不可
204,親和女子中学校・高等学校(管理棟),657-0022,灘区,神戸市灘区土山町6-1,34.726723,135.241808,学校・園・児童館,対応不可
205,親和女子中学校・高等学校(体育職員室),657-0022,灘区,神戸市灘区土山町6-1,34.727184,135.241923,学校・園・児童館,対応不可
206,親和女子中学校・高等学校(保健室),657-0022,灘区,神戸市灘区土山町6-1,34.726575,135.242226,学校・園・児童館,対応不可
207,神戸松蔭女子学院大学(守衛室),657-0015,灘区,神戸市灘区篠原伯母野山町1-2-1,34.726801,135.22964,学校・園・児童館,対応不可
208,神戸松蔭女子学院大学(体育館),657-0015,灘区,神戸市灘区篠原伯母野山町1-2-1,34.728605,135.229704,学校・園・児童館,対応不可
209,神戸松蔭女子学院大学(6号館),657-0015,灘区,神戸市灘区篠原伯母野山町1-2-1,34.727634,135.230832,学校・園・児童館,対応不可
210,神戸市立灘すずかけ幼稚園,657-0043,灘区,神戸市灘区大石東町6-2-2,34.706911,135.233866,学校・園・児童館,対応不可
211,兵庫県立美術館 王子分館,657-0837,灘区,神戸市灘区原田通3-8-30,34.708659,135.214262,公園・文教施設,対応不可
212,大石保育園,657-0843,灘区,神戸市灘区大石北町3-12,34.705506,135.229699,学校・園・児童館,対応不可
213,ゆりか保育園,657-0057,灘区,神戸市灘区神ノ木通2-2-9,34.713642,135.231162,学校・園・児童館,対応不可
214,ホザナ幼稚園,657-0053,灘区,神戸市灘区六甲町5-7-8,34.71457,135.231741,学校・園・児童館,対応不可
215,神戸市立東部在宅障害者福祉センター,657-0846,灘区,神戸市灘区岩屋北町6-1-4,34.705641,135.21694,福祉施設,対応不可
216,神戸市立王子スポーツセンター,657-0805,灘区,神戸市灘区青谷町1-1-1,34.710215,135.217359,体育施設・スポーツクラブ,対応不可
217,神戸市立王子スポーツセンター,657-0805,灘区,神戸市灘区青谷町1-1-1,34.712754,135.214168,体育施設・スポーツクラブ,対応不可
218,特別養護老人ホーム ロングステージKOBE大石,657-0852,灘区,神戸市灘区大石南町2-4-22,34.703158,135.231998,福祉施設,対応不可
219,特別養護老人ホームきしろ荘,657-0011,灘区,神戸市灘区鶴甲5-1-50,34.738427,135.23557,福祉施設,対応不可
220,児童養護施設 双葉学園,657-0011,灘区,神戸市灘区鶴甲1-5-1,34.733096,135.239954,福祉施設,対応不可
221,神戸市公園緑化協会 動物園事業部(王子動物園),657-0838,灘区,神戸市灘区王子町3-1-1,34.709235,135.214947,公園・文教施設,対応不可
222,コープ六甲,657-0028,灘区,神戸市灘区森後町3丁目5番38号,34.716559,135.236837,商業施設,対応不可
223,灘センター街振興組合,657-0826,灘区,神戸市灘区倉石通3-1-1,34.713207,135.223162,商業施設,24時間利用可
224,水道筋協同組合,657-0831,灘区,神戸市灘区水道筋4丁目2?6,34.712653,135.223103,商業施設,24時間利用可
225,ライフケア神戸,657-0058,灘区,神戸市灘区将軍通2-1-6,34.714953,135.230546,医療関連施設,対応不可
226,日笠工業株式会社,657-0852,灘区,神戸市灘区大石南町3-3-1,34.703372,135.230785,会社・事業所,対応不可
227,西日本旅客鉄道株式会社 六甲道駅,657-0027,灘区,神戸市灘区永手町4-1-1,34.714942,135.238688,公共交通機関,対応不可
228,西日本旅客鉄道株式会社 灘駅,657-0846,灘区,神戸市灘区岩屋北町7-3-1,34.705698,135.216059,公共交通機関,対応不可
229,阪急電鉄(株) 六甲駅,657-0065,灘区,神戸市灘区宮山町3-1,34.719992,135.234447,公共交通機関,対応不可
230,阪急電鉄(株) 王子公園駅,657-0838,灘区,神戸市灘区王子町1-4-20,34.70967,135.217913,公共交通機関,対応不可
231,株式会社ワイ・ケイ・アソシエ まるちゃんクラブ,657-0831,灘区,神戸市灘区水道筋4-2-2,34.712762,135.22317,商業施設,対応不可
232,橋本商事株式会社 王子広場,657-0831,灘区,神戸市灘区水道筋6-3-1,34.711663,135.220799,商業施設,対応不可
233,オルゴールミュージアム ホール・オブ・ホールズ六甲,657-0101,灘区,神戸市灘区六甲山町4512-145,34.761697,135.238491,商業施設,対応不可
234,阪神総合レジャー株式会社 六甲ガーデンテラス,657-0101,灘区,神戸市灘区六甲山町五介山1877-9,34.764439,135.247547,商業施設,対応不可
235,株式会社 阪神観光 メチャスロ,657-0831,灘区,神戸市灘区水道筋3-3,34.713028,135.224104,商業施設,対応不可
236,六甲山フィールドアスレチック,657-0101,灘区,神戸市灘区六甲山町北六甲4512-98,34.767946,135.247654,体育施設・スポーツクラブ,対応不可
237,六甲山スノーパーク,657-0101,灘区,神戸市灘区六甲山町北六甲4512-98,34.7671,135.242004,体育施設・スポーツクラブ,対応不可
238,ウェルブ六甲道1番街,657-0037,灘区,神戸市灘区備後町5丁目3-1,34.713951,135.238005,集合住宅,24時間利用可
239,T-PLUS,657-0038,灘区,神戸市灘区深田町4-1-39,34.715028,135.239153,商業施設,対応不可
240,株式会社フィルケア グランフォレスト神戸六甲,657-0032,灘区,神戸市灘区中郷町3-3-7,34.716569,135.24517,福祉施設,24時間利用可
241,神戸大学大学 教育推進機構体育館,657-0011,灘区,神戸市灘区鶴甲1-2-1,34.732021,135.237883,学校・園・児童館,対応不可
242,神戸大学 社会科学系図書館,657-0013,灘区,神戸市灘区六甲台町1-1,34.729176,135.234191,学校・園・児童館,対応不可
243,神戸大学 百年記念館,657-0013,灘区,神戸市灘区六甲台町1-1,34.724627,135.2361,学校・園・児童館,対応不可
244,神戸大学 人文学研究科棟A棟,657-0013,灘区,神戸市灘区六甲台町1-1,34.724635,135.235064,学校・園・児童館,対応不可
245,神戸大学 学生会館センター,657-0013,灘区,神戸市灘区六甲台町1-1,34.729268,135.236292,学校・園・児童館,対応不可
246,神戸大学 六甲台1団地第1共用施設,657-0013,灘区,神戸市灘区六甲台町1-1,34.724968,135.236748,学校・園・児童館,対応不可
247,神戸大学 農学研究科A棟,657-0013,灘区,神戸市灘区六甲台町1-1,34.724672,135.233511,学校・園・児童館,対応不可
248,神戸大学 自然科学系先端融合研究環1号館,657-0013,灘区,神戸市灘区六甲台町1-1,34.726064,135.234486,学校・園・児童館,対応不可
249,神戸大学 法学研究科六甲台第二学舎,657-0013,灘区,神戸市灘区六甲台町1-1,34.729046,135.2334,学校・園・児童館,24時間利用可
250,神戸大学 高井記念学生スポーツ会館,657-0011,灘区,神戸市灘区鶴甲3-11,34.730755,135.237389,学校・園・児童館,対応不可
251,神戸大学 人間発達環境学研究科,657-0011,灘区,神戸市灘区鶴甲3-11,34.733466,135.234586,学校・園・児童館,対応不可
252,グランダ御影西,657-0034,灘区,神戸市灘区記田町2-1-11,34.713478,135.247794,福祉施設,対応不可
253,神戸製鋼所 神戸製鉄所総合事務所,657-0863,灘区,神戸市灘区灘浜東町2,34.707621,135.245674,会社・事業所,対応不可
254,神戸製鋼所 神戸製鉄所更衣室棟,657-0863,灘区,神戸市灘区灘浜東町2,34.707543,135.244932,会社・事業所,対応不可
255,神戸製鋼所 神戸製鉄所保全センター,657-0863,灘区,神戸市灘区灘浜東町2,34.707535,135.245776,会社・事業所,対応不可
256,神戸製鋼所 神鋼神戸発電所内タービン棟,657-0863,灘区,神戸市灘区灘浜東町3,34.703728,135.240576,会社・事業所,対応不可
257,特別養護老人ホームうみのほし,657-0068,灘区,神戸市灘区篠原北町3-11-15,34.724328,135.225041,福祉施設,対応不可
258,介護老人保健施設ケアホームすばる,657-0031,灘区,神戸市灘区大和町1-2-1,34.717655,135.247879,福祉施設,対応不可
259,コンフォートヒルズ六甲,657-0068,灘区,神戸市灘区篠原北町3-11-14,34.724206,135.225286,福祉施設,対応不可
260,摩耶シーサイドプレイスイースト管理組合,657-0855,灘区,神戸市灘区摩耶海岸通1丁目1番,34.700046,135.222223,集合住宅,24時間利用可
261,GRAND HOTEL 六甲スカイウ ゙ィラ,657-0101,灘区,神戸市灘区六甲山町西谷山 1878-86,34.757966,135.243358,宿泊施設,対応不可
262,サンクタス六甲VIEWS管理組合,657-0014,灘区,神戸市灘区大土平町1-4-11,34.725974,135.231985,集合住宅,対応不可
263,エレガーノ摩耶,657-0855,灘区,神戸市灘区摩耶海岸通1-3-10,34.699626,135.220542,福祉施設,24時間利用可
264,阪神電鉄 新在家駅,657-0861,灘区,神戸市灘区新在家北町1丁目4-1,34.710643,135.240839,公共交通機関,対応不可
265,阪神電鉄 大石駅,657-0842,灘区,神戸市灘区船寺通1丁目4-2,34.707696,135.231137,公共交通機関,対応不可
266,阪神電鉄 西灘駅,657-0844,灘区,神戸市灘区都通5丁目5-1,34.705953,135.224797,公共交通機関,対応不可
267,リベール灘アベリア管理組合,657-0841,灘区,神戸市灘区灘南通6-3-1,34.707659,135.223074,集合住宅,24時間利用可
268,上野ハイツ,657-0817,灘区,神戸市灘区上野通1丁目2-35,34.71855,135.223724,集合住宅,24時間利用可
269,コープこうべ コープ篠原,657-0068,灘区,神戸市灘区篠原北町2丁目2番14号,34.722382,135.227315,商業施設,対応不可
270,ジークレフ六甲の丘,657-0015,灘区,神戸市灘区篠原伯母野山町2丁目3-1,34.726455,135.228394,集合住宅,24時間利用可
271,ハーバーハイウェイ摩耶埠頭料金所事務所,657-0854,灘区,神戸市灘区摩耶埠頭 摩耶埠頭料金所事務所,34.697477,135.227233,会社・事業所,24時間利用可
272,ハーバーハイウェイ摩耶大橋料金所,657-0854,灘区,神戸市灘区摩耶埠頭 摩耶大橋料金所,34.69592,135.219736,会社・事業所,対応不可
273,コープこうべ コープミニ高羽,657-0023,灘区,神戸市灘区高羽町3丁目14番10号,34.723929,135.239933,商業施設,対応不可
274,コープこうべ コープミニ摩耶,657-0817,灘区,神戸市灘区上野通2丁目4-10,34.71879,135.222646,商業施設,対応不可
275,コープこうべ コープミニ水道筋,657-0831,灘区,神戸市灘区水道筋6丁目7番3号,34.710976,135.219519,商業施設,対応不可
276,コープこうべ コープミニやまと,657-0031,灘区,神戸市灘区大和町4丁目1-14,34.716931,135.244516,商業施設,対応不可
277,神戸税関摩耶埠頭出張所,657-0854,灘区,神戸市灘区摩耶埠頭,34.696361,135.22667,官公庁,対応不可
278,(有)神戸清掃舎,657-0851,灘区,神戸市灘区味泥町7番32号,34.704664,135.229735,会社・事業所,対応不可
279,兵庫県警灘警察署,657-0831,灘区,神戸市灘区灘浜東町11番,34.714098,135.22787,官公庁,24時間利用可
280,兵庫県警灘警察琵琶町交番,657-0041,灘区,神戸市灘区琵琶町3丁目1-6,34.71072,135.235288,官公庁,24時間利用可
281,シマブンオフィスタワーBB PLAZA,657-0845,灘区,神戸市灘区岩屋中町4丁目2-7,34.703096,135.217619,会社・事業所,対応不可
282,社会福祉法人神戸婦人同情会青谷愛児園,657-0805,灘区,神戸市灘区青谷町2丁目1-9,34.713212,135.213946,福祉施設,対応不可
283,高羽COCORO保育園,657-0025,灘区,神戸市灘区高徳町5丁目2-3,34.71827,135.240773,学校・園・児童館,対応不可
284,社会福祉法人 鶯園 六甲道COCORO保育園,657-0041,灘区,神戸市灘区琵琶町2丁目-1-27,34.711728,135.236802,学校・園・児童館,対応不可
285,トラストグレイス御影,657-0022,灘区,神戸市灘区土山町16-1,34.731902,135.24252,福祉施設,対応不可
286,社会福祉法人 桜谷福祉会 神戸さくら保育園,657-0862,灘区,神戸市灘区浜田町2丁目2-15,34.710519,135.242797,学校・園・児童館,対応不可
287,学校法人 小倉育英会 西灘幼稚園,657-0846,灘区,神戸市灘区岩屋北町3丁目2-14,34.704849,135.219345,学校・園・児童館,対応不可
288,六甲ゆりかご保育園,657-0035,灘区,神戸市灘区友田町2丁目5-1,34.71239,135.242945,学校・園・児童館,対応不可
289,日新信用金庫 六甲支店,657-0036,灘区,神戸市灘区桜口町3丁目1-1-107,34.71273,135.24058,商業施設,対応不可
290,学校法人 若草学園 若草幼稚園,657-0022,灘区,神戸市灘区土山町1-5,34.724016,135.242625,学校・園・児童館,対応不可
291,日新信用金庫 西灘支店,657-0832,灘区,神戸市灘区岸地通4丁目4-15,34.712049,135.223433,会社・事業所,対応不可
292,学校法人 染矢学園 微笑幼稚園,657-0068,灘区,神戸市灘区篠原北町3丁目6-7,34.724095,135.228159,学校・園・児童館,対応不可
293,博光福祉会 花音つばさ保育園,657-0836,灘区,神戸市灘区城内通1丁目6-32,34.709448,135.220185,学校・園・児童館,対応不可
294,学校法人 八幡学園 認定こども園 八幡幼稚園,657-0038,灘区,神戸市灘区深田町1丁目1-3,34.715973,135.242252,学校・園・児童館,対応不可
295,株式会社 ケーエスケー 神戸支店,657-0845,灘区,神戸市灘区岩屋中町2-2-1,34.703551,135.221575,会社・事業所,対応不可
296,養護盲老人ホーム 千山荘,657-0011,灘区,神戸市灘区鶴甲5丁目1-50,34.738342,135.236121,福祉施設,24時間利用可
297,ローソン神戸徳井町4丁目店,657-0033,灘区,神戸市灘区徳井町4丁目1-2,34.71449,135.245714,商業施設,24時間利用可
1,神戸高速鉄道(株) 高速神戸駅,650-0015,中央区,神戸市中央区多聞通3-3-13,34.67995,135.175414,公共交通機関,対応不可
2,神戸高速鉄道(株) 西元町駅,650-0022,中央区,神戸市中央区元町通6-7-11,34.683792,135.179614,公共交通機関,対応不可
3,神戸高速鉄道(株) 花隈駅,650-0012,中央区,神戸市中央区北長狭通6-3-5,34.686178,135.181324,公共交通機関,対応不可
4,神戸高速鉄道(株) 本社,650-0015,中央区,神戸市中央区多聞通3丁目3番9号,34.680154,135.176472,会社・事業所,対応不可
5,神戸市営地下鉄 三宮駅,650-0012,中央区,神戸市中央区北長狭通1,34.693858,135.192296,公共交通機関,対応不可
6,神戸新交通(株) 三宮駅,651-0096,中央区,神戸市中央区雲井通8丁目,34.694681,135.195312,公共交通機関,対応不可
7,二宮地域福祉センター,651-0093,中央区,神戸市中央区二宮町3-12,34.700106,135.195694,小集会場・公民館・地域福祉センター,対応不可
8,神戸信用金庫 本店,650-0035,中央区,神戸市中央区浪花町61,34.689902,135.192933,商業施設,対応不可
9,コナミスポーツクラブ 神戸店,650-0044,中央区,神戸市中央区東川崎町1-7-7 キャナルガーデン6F,34.68051,135.182988,体育施設・スポーツクラブ,対応不可
10,コナミスポーツクラブ 三宮店,651-0087,中央区,神戸市中央区御幸通5丁目1-21,34.693391,135.198925,体育施設・スポーツクラブ,対応不可
11,(独)国際協力機構兵庫国際センター,651-0073,中央区,神戸市中央区脇浜海岸通1-5-2,34.698935,135.216151,官公庁,対応不可
12,三宮ターミナルホテル,651-0096,中央区,神戸市中央区雲井通8丁目1番2号,34.694204,135.194723,宿泊施設,24時間利用可
13,ディエヌ建物管理(株)(ダイヤニッセイビル),650-0044,中央区,神戸市中央区東川崎町1丁目7-4,34.679502,135.181609,商業施設,対応不可
14,神戸地下街(株) さんちか(神戸交通センタービル),650-0021,中央区,神戸市中央区三宮町1丁目10番1号,34.693381,135.194004,商業施設,対応不可
15,神戸地下街(株) デュオこうべ浜の手(防災センター),650-0021,中央区,神戸市中央区東川崎町1-2-3,34.679697,135.178713,商業施設,24時間利用可
16,(株)大丸神戸店,650-0037,中央区,神戸市中央区明石町40番地,34.688811,135.190443,商業施設,対応不可
17,旧居留地連絡協議会((株)大丸カーポート),650-0036,中央区,神戸市中央区播磨町29番1号,34.687721,135.191457,商業施設,対応不可
18,神戸文化ホール,650-0017,中央区,神戸市中央区楠町4丁目2-2,34.683736,135.173042,集会場・ホール,対応不可
20,(財)神戸市体育協会,651-0083,中央区,神戸市中央区浜辺通5丁目1番14号,34.688315,135.199716,官公庁,対応不可
21,兵庫県災害対策センター,650-0011,中央区,神戸市中央区中山手通5丁目2,34.691622,135.182243,官公庁,対応不可
22,神戸市立 こうべ市民福祉交流センター,651-0086,中央区,神戸市中央区磯上通3丁目1番32号,34.692916,135.201685,官公庁,対応不可
24,神戸元町商店街 (株)丸太や,650-0022,中央区,神戸市中央区元町通1-7-2,34.688938,135.189182,商業施設,対応不可
25,神戸元町商店街 (株)神戸風月堂,650-0022,中央区,神戸市中央区元町通3丁目3?10,34.687793,135.186066,商業施設,対応不可
26,神戸市立総合福祉センター,650-0016,中央区,神戸市中央区橘通3丁目4番1号,34.681282,135.174562,集会場・ホール,対応不可
27,中央区役所,651-0096,中央区,神戸市中央区雲井通5丁目1番1号,34.69502,135.197926,官公庁,24時間利用可
28,(株)神戸サンセンタープラザ,650-0021,中央区,神戸市中央区三宮町2丁目11番1-604号,34.691208,135.191166,商業施設,対応不可
29,神戸市生涯学習センター(コミスタこうべ),651-0076,中央区,神戸市中央区吾妻通4丁目1番6号,34.698142,135.204746,集会場・ホール,対応不可
30,神戸市総合児童センター(こべっこランド),650-0044,中央区,神戸市中央区東川崎町1-3-1,34.678707,135.181246,学校・園・児童館,対応不可
31,神戸市男女共同参画センター(あすてっぷKOBE),650-0016,中央区,神戸市中央区橘通3丁目4番3号,34.681728,135.174227,集会場・ホール,対応不可
32,神戸国際会館,651-0087,中央区,神戸市中央区御幸通8丁目1番6号,34.692393,135.195982,商業施設,対応不可
33,ANAクラウンプラザホテル神戸,650-0001,中央区,神戸市中央区加納町1丁目3番2,34.704678,135.195306,宿泊施設,24時間利用可
35,神戸YMCA,650-0001,中央区,神戸市中央区加納町2-7-5,34.700887,135.193658,体育施設・スポーツクラブ,対応不可
36,神戸市立博物館,650-0034,中央区,神戸市中央区京町24番地,34.687262,135.192979,公園・文教施設,対応不可
37,(株)神戸商工貿易センター,651-0083,中央区,神戸市中央区浜辺通5丁目1番14号,34.688318,135.199799,商業施設,対応不可
38,阪急電鉄株式会社 三宮駅,650-0001,中央区,神戸市中央区加納町4丁目2番1号,34.693424,135.193266,公共交通機関,対応不可
39,兵庫信用金庫 神戸中央支店,650-0004,中央区,神戸市中央区中山手通2丁目4番1号,34.694362,135.18826,商業施設,対応不可
40,生田文化会館,650-0004,中央区,神戸市中央区中山手通6丁目1番40号,34.691032,135.181074,集会場・ホール,対応不可
41,葺合文化センター,651-0068,中央区,神戸市中央区旗塚通4丁目4番1号,34.704508,135.202006,集会場・ホール,対応不可
42,神戸市営地下鉄 新神戸駅,650-0001,中央区,神戸市中央区加納町1丁目,34.704394,135.195521,公共交通機関,対応不可
43,神戸市営地下鉄 県庁前駅,650-0011,中央区,神戸市中央区下山手通5丁目,34.690815,135.183865,公共交通機関,対応不可
44,神戸市営地下鉄 大倉山駅,650-0017,中央区,神戸市中央区楠町3丁目,34.684301,135.174291,公共交通機関,対応不可
45,神戸市営地下鉄 三宮・花時計駅,651-0087,中央区,神戸市中央区御幸通8丁目,34.691825,135.196149,公共交通機関,対応不可
46,神戸市営地下鉄 ハーバーランド駅,650-0044,中央区,神戸市中央区東川崎町1丁目,34.678204,135.178566,公共交通機関,対応不可
47,阪神電気鉄道株式会社 神戸三宮駅,651-0088,中央区,神戸市中央区小野柄通8丁目1-8,34.693653,135.19534,公共交通機関,対応不可
48,神戸市総合教育センター,650-0044,中央区,神戸市中央区東川崎町1丁目3番2号,34.678213,135.180961,集会場・ホール,対応不可
49,(株)ノリス神戸三宮店,650-0001,中央区,神戸市中央区加納町6-6-2 ハニービル1F,34.691097,135.194932,商業施設,対応不可
50,株式会社 タクト(神戸ハーバーランド モザイク),650-0044,中央区,神戸市中央区東川崎町1丁目6番1号,34.6799,135.184432,商業施設,対応不可
51,神戸市立中央図書館,650-0017,中央区,神戸市中央区楠町7丁目2-1,34.685705,135.174,公園・文教施設,対応不可
52,三宮ビル管理株式会社(三宮ビル南館),651-0087,中央区,神戸市中央区御幸通7丁目1番15号,34.692599,135.196597,会社・事業所,対応不可
53,神戸市立三宮図書館,651-0096,中央区,神戸市中央区雲井通5-1-2,34.694755,135.197389,公園・文教施設,対応不可
54,神戸市役所本庁舎(1号館),650-0001,中央区,神戸市中央区加納町6丁目5番1号,34.689485,135.1959,官公庁,対応不可
55,神戸市立中央体育館,650-0017,中央区,神戸市中央区楠町4-1-1,34.682983,135.17453,体育施設・スポーツクラブ,対応不可
56,東町、江戸町ビル管理組合,650-0033,中央区,神戸市中央区江戸町98-1,34.689318,135.194567,会社・事業所,対応不可
57,神戸市環境局中央事業所,651-0072,中央区,神戸市中央区脇浜町3-2-30,34.700099,135.211389,官公庁,対応不可
58,神戸市立生田川児童館,651-0081,中央区,神戸市中央区真砂通2-1-1,34.695012,135.204624,学校・園・児童館,対応不可
59,神戸市立神戸諏訪山児童館,650-0012,中央区,神戸市中央区北長狭通4-9-5 元町北会館2階,34.690735,135.185808,学校・園・児童館,対応不可
60,神戸市立清風児童館,650-0017,中央区,神戸市中央区楠町8丁目10-3,34.686396,135.174391,学校・園・児童館,対応不可
61,たちばな児童館,650-0016,中央区,神戸市中央区橘通3-4-1,34.681515,135.174394,学校・園・児童館,対応不可
62,神戸市立八雲児童館,651-0078,中央区,神戸市中央区八雲通1-1-7,34.700918,135.206894,学校・園・児童館,対応不可
69,こうべまちづくりセンター,650-0022,中央区,神戸市中央区元町通4-2-14,34.686097,135.182962,集会場・ホール,対応不可
70,神戸市勤労会館,651-0096,中央区,神戸市中央区雲井通5-1-2,34.694746,135.197367,集会場・ホール,対応不可
71,株式会社 そごう神戸店,651-0088,中央区,神戸市中央区小野柄通8丁目1番8号,34.693204,135.195649,商業施設,対応不可
72,神戸市産業振興センター,650-0044,中央区,神戸市中央区東川崎町1-8-4,34.680587,135.181736,官公庁,対応不可
73,JR神戸駅,650-0025,中央区,神戸市中央区相生町3-1-1,34.680011,135.178289,公共交通機関,24時間利用可
74,JR新神戸駅,650-0001,中央区,神戸市中央区加納町1-3-1,34.706218,135.195336,公共交通機関,対応不可
75,JR三ノ宮駅,651-0097,中央区,神戸市中央区布引町4-1-1,34.694456,135.194566,公共交通機関,対応不可
77,神戸市営地下鉄 旧居留地・大丸前駅,650-0021,中央区,神戸市中央区三宮町2丁目,34.689326,135.190142,公共交通機関,対応不可
78,神戸市営地下鉄 みなと元町駅,650-0023,中央区,神戸市中央区栄町通4丁目,34.685997,135.184111,公共交通機関,対応不可
80,日本放送協会神戸放送局,650-0004,中央区,神戸市中央区中山手通2丁目24番7号,34.695376,135.188431,会社・事業所,対応不可
81,上筒井小学校,651-0054,中央区,神戸市中央区野崎通1丁目1番2号,34.710642,135.211454,学校・園・児童館,対応不可
82,なぎさ小学校,651-0073,中央区,神戸市中央区脇浜海岸通2-4-1,34.697887,135.211199,学校・園・児童館,対応不可
83,宮本小学校,651-0063,中央区,神戸市中央区宮本通2-1-36,34.706719,135.211771,学校・園・児童館,対応不可
84,春日野小学校,651-0063,中央区,神戸市中央区宮本通7-1-6,34.705416,135.206632,学校・園・児童館,対応不可
85,雲中小学校,651-0056,中央区,神戸市中央区熊内町3-1-7,34.705894,135.199983,学校・園・児童館,対応不可
86,こうべ小学校,650-0004,中央区,神戸市中央区中山手通4-23-2,34.693605,135.182657,学校・園・児童館,対応不可
87,山の手小学校,650-0004,中央区,神戸市中央区中山手通7-31-1,34.690518,135.175504,学校・園・児童館,対応不可
88,湊小学校,650-0044,中央区,神戸市中央区東川崎町1-4-1,34.677025,135.180855,学校・園・児童館,対応不可
89,(株)フィリップスエレクトロニクスジャパン,651-0083,中央区,神戸市中央区浜辺通2-1-30,34.691716,135.201388,会社・事業所,対応不可
90,神戸市立中央小学校,651-0067,中央区,神戸市中央区神若通り7-1-1,34.701552,135.199823,学校・園・児童館,対応不可
92,神戸市立筒井台中学校,651-0054,中央区,神戸市中央区野崎通り1-1-3,34.709296,135.209975,学校・園・児童館,対応不可
93,神戸市立渚中学校,651-0073,中央区,神戸市中央区脇浜海岸通2-1-1,34.700674,135.216726,学校・園・児童館,対応不可
94,神戸市立葺合中学校,651-0056,中央区,神戸市中央区熊内町1-4-28,34.706877,135.203449,学校・園・児童館,対応不可
95,神戸市立布引中学校,651-0056,中央区,神戸市中央区熊内町6-7-1,34.709429,135.199172,学校・園・児童館,対応不可
96,神戸市立神戸生田中学校,650-0012,中央区,神戸市中央区北長狭通り4-10-1,34.689929,135.185538,学校・園・児童館,対応不可
98,神戸市立葺合高等学校,651-0054,中央区,神戸市中央区野崎通り1-1-1,34.711088,135.210521,学校・園・児童館,対応不可
99,神戸市立科学技術高等学校,651-0072,中央区,神戸市中央区脇浜町1-4-70,34.70419,135.213589,学校・園・児童館,対応不可
100,神戸市立摩耶兵庫高等学校,650-0044,中央区,神戸市中央区東川崎町1-3-8,34.676731,135.179182,学校・園・児童館,対応不可
101,神戸市立盲学校,650-0044,中央区,神戸市中央区東川崎町1-4-2,34.677408,135.180228,学校・園・児童館,対応不可
102,神港ビルヂング株式会社,650-0024,中央区,神戸市中央区海岸通り8番,34.686831,135.192273,商業施設,対応不可
103,播州信用金庫三宮支店,650-0021,中央区,神戸市中央区三宮町1-1-3,34.690834,135.194152,商業施設,対応不可
104,播州信用金庫三宮北支店,650-0001,中央区,神戸市中央区加納町2-6-1,34.700525,135.193859,商業施設,対応不可
105,三井住友銀行 神戸営業部,650-0035,中央区,神戸市中央区浪花町56,34.688586,135.192224,商業施設,対応不可
106,三井住友銀行 兵庫県庁出張所,650-0011,中央区,神戸市中央区下山手通5-10-1,34.691152,135.183102,商業施設,対応不可
107,三井住友銀行 神戸市役所出張所,650-0001,中央区,神戸市中央区加納町6-5-1,34.690416,135.195373,商業施設,対応不可
108,三井住友銀行 神戸駅前支店,650-0015,中央区,神戸市中央区多聞通3-3-9,34.679998,135.176506,商業施設,対応不可
110,三井住友銀行 三宮支店,650-0021,中央区,神戸市中央区三宮町1-5-1,34.691843,135.194652,商業施設,対応不可
111,ドンク三宮本店,650-0021,中央区,神戸市中央区三宮町2-10-19,34.690548,135.190421,商業施設,対応不可
112,三宮国際ビルディング,651-0083,中央区,神戸市中央区浜辺通2-1-30,34.691888,135.201584,商業施設,対応不可
113,三宮グランドビルディング,651-0086,中央区,神戸市中央区磯上通2-2-21,34.693929,135.202218,商業施設,対応不可
114,三宮中央ビル,651-0087,中央区,神戸市中央区御幸通4-2-20,34.694128,135.199511,商業施設,対応不可
115,三宮ビル東館,651-0087,中央区,神戸市中央区御幸通6-1-12,34.693141,135.197893,商業施設,対応不可
116,神港学園神港高等学校,650-0003,中央区,神戸市中央区山本通4-19-20,34.694324,135.183179,学校・園・児童館,対応不可
117,貿易ビル,650-0031,中央区,神戸市中央区東町123-1,34.68751,135.19543,商業施設,対応不可
119,富国生命保険相互会社,650-0024,中央区,神戸市中央区海岸通1-2-31,34.68654,135.189503,会社・事業所,対応不可
120,シンセーシステム(株)神戸ユニオンホテル,651-0087,中央区,神戸市中央区御幸通2-1-10,34.694398,135.201536,宿泊施設,24時間利用可
121,(株)みなと銀行 本部営業部,650-0021,中央区,神戸市中央区三宮町2-1-1,34.689894,135.192063,商業施設,対応不可
122,(株)みなと銀行 春日野支店,651-0071,中央区,神戸市中央区筒井町3-12-14,34.702683,135.207284,商業施設,対応不可
123,(株)みなと銀行 三宮支店,650-0021,中央区,神戸市中央区三宮町1-10-1,34.693287,135.194092,商業施設,対応不可
124,部落解放同盟兵庫県連合会(兵庫人権会館),650-0003,中央区,神戸市中央区山本通4-22-25,34.69457,135.180777,会社・事業所,対応不可
125,神戸地下街株式会社,650-0021,中央区,神戸市中央区三宮町1-10-1,34.691885,135.195068,商業施設,対応不可
126,神戸信用金庫 春日野支店,651-0079,中央区,神戸市中央区東雲通1-1-18,34.701928,135.207271,商業施設,対応不可
127,雲中地域福祉センター,651-0068,中央区,神戸市中央区旗塚通4-4-20,34.70456626,135.2016795,小集会場・公民館・地域福祉センター,対応不可
128,大神ビル,650-0031,中央区,神戸市中央区東町113,34.68927483,135.1951818,商業施設,対応不可
129,諏訪山地域福祉センター,650-0012,中央区,神戸市中央区北長狭通4-9-5,34.690921,135.185768,小集会場・公民館・地域福祉センター,対応不可
130,若菜地域福祉センター,651-0067,中央区,神戸市中央区神若通2-3-7,34.703973,135.204007,小集会場・公民館・地域福祉センター,対応不可
131,(株)大沢観光 ホテルサンルートソプラ,651-0084,中央区,神戸市中央区磯辺通1-1-22,34.690773,135.199912,宿泊施設,対応不可
132,三輪運輸工業株式会社,651-0072,中央区,神戸市中央区脇浜町2-1-16,34.701897,135.216744,会社・事業所,対応不可
133,シオノギ総合サービス株式会社,651-0086,中央区,神戸市中央区磯上通4-1-6,34.692162,135.200477,会社・事業所,対応不可
134,ライオンズマンション神戸栄町通,650-0023,中央区,神戸市中央区栄町通2-3-3,34.68719,135.188065,集合住宅,対応不可
135,サンパル,651-0096,中央区,神戸市中央区雲井通5-3,34.69575,135.197507,商業施設,対応不可
136,(株)神戸プラザホテル,650-0022,中央区,神戸市中央区元町通1-13-12,34.68945,135.188601,宿泊施設,24時間利用可
137,海外移住と文化の交流センター,650-0003,中央区,神戸市中央区山本通3-19-8,34.697466,135.184741,集会場・ホール,対応不可
138,神戸市立葺合保育所,651-0078,中央区,神戸市中央区八雲通1-1-6,34.701377,135.207144,学校・園・児童館,対応不可
139,神戸市立古湊保育所,650-0026,中央区,神戸市中央区古湊通2-3-23,34.678134,135.175032,学校・園・児童館,対応不可
140,神戸市立二宮保育所,651-0093,中央区,神戸市中央区二宮町1-5-2-101,34.699471,135.198871,学校・園・児童館,対応不可
141,神戸婦人同情会籠池児童館,651-0053,中央区,神戸市中央区籠池通2-1-19,34.711438,135.210241,学校・園・児童館,対応不可
142,神戸市立神若保育所,651-0067,中央区,神戸市中央区神若通2-3-7,34.703949,135.203747,学校・園・児童館,対応不可
143,神戸市立宮本保育所,651-0063,中央区,神戸市中央区宮本通1-5-21,34.707615,135.212553,学校・園・児童館,対応不可
144,神戸市立生田保育所,650-0017,中央区,神戸市中央区楠町8-10-2,34.686218,135.174786,学校・園・児童館,対応不可
145,社会福祉法人イエス団二宮児童館,651-0093,中央区,神戸市中央区二宮町1-3-2,34.699808,135.199164,学校・園・児童館,対応不可
146,神戸市役所本庁舎4号館{危機管理センター},650-0033,中央区,神戸市中央区江戸町92番地,34.689664,135.19447,官公庁,対応不可
147,フレグラント野崎,651-0054,中央区,神戸市中央区野崎通2-5-15,34.710373,135.208221,集合住宅,対応不可
148,サザン神戸品川,650-0025,中央区,神戸市中央区相生町4-2-24,34.677293,135.177377,集合住宅,対応不可
149,神戸ヤクルト販売株式会社,651-0056,中央区,神戸市中央区熊内町5-3-8,34.708088,135.200651,会社・事業所,対応不可
150,兵庫県私学総連合会,650-0012,中央区,神戸市中央区北長狭通4丁目3-13,34.690926,135.187508,会社・事業所,対応不可
151,兵庫県土地家屋調査士会,650-0017,中央区,神戸市中央区楠町2-1-1,34.68351,135.176394,会社・事業所,対応不可
152,兵庫県農業共済組合連合会,650-0011,中央区,神戸市中央区下山手通4-15-3,34.692102,135.185857,会社・事業所,対応不可
153,神戸市総合児童センター,650-0044,中央区,神戸市中央区東川崎町1丁目3-1,34.678707,135.181247,学校・園・児童館,対応不可
154,神戸市立東川崎児童館,650-0044,中央区,神戸市中央区東川崎町7丁目4-11,34.675185,135.179456,学校・園・児童館,対応不可
155,神戸地方検察庁,650-0016,中央区,神戸市中央区橘通1-4-1,34.683301,135.177412,官公庁,対応不可
157,神戸市立旗塚児童館,651-0068,中央区,神戸市中央区旗塚通4-4-20,34.70469,135.201989,学校・園・児童館,対応不可
158,神戸海洋気象台,651-0073,中央区,神戸市中央区脇浜海岸通1-4-3,34.697416,135.212783,官公庁,対応不可
159,東急スポーツオアシス,650-0012,中央区,神戸市中央区北長狭通3-1-15,34.691513,135.189605,体育施設・スポーツクラブ,対応不可
160,真澄寺別院真如苑神戸支部,651-0092,中央区,神戸市中央区生田町4-5-14,34.701376,135.195739,その他,対応不可
161,中兵庫信用金庫三宮支店,650-0004,中央区,神戸市中央区中山手通1-25-5,34.696756,135.191266,商業施設,対応不可
162,介護保健施設プリエール,651-0053,中央区,神戸市中央区籠池通5-1-2,34.710076,135.206203,福祉施設,対応不可
163,社会福祉法人種の会なぎさ児童館,651-0073,中央区,神戸市中央区脇浜海岸通3-1-5,34.697006,135.209974,学校・園・児童館,対応不可
164,特別養護老人ホーム山手さくら苑,650-0011,中央区,神戸市中央区下山手通7丁目1-16,34.688252,135.179001,福祉施設,対応不可
166,ホテル北野プラザ六甲荘,650-0002,中央区,神戸市中央区北野町1丁目1-14,34.700304,135.19309,宿泊施設,対応不可
167,神戸東急イン,651-0096,中央区,神戸市中央区雲井通6丁目1-5,34.694636,135.196823,宿泊施設,24時間利用可
168,兵庫県薬剤師会,650-0011,中央区,神戸市中央区下山手通6-4-3,34.689103,135.179267,会社・事業所,対応不可
169,あづま幼稚園,651-0076,中央区,神戸市中央区吾妻通4丁目1-6,34.698134,135.204647,学校・園・児童館,対応不可
170,パレス神戸,650-0011,中央区,神戸市中央区下山手通5-1-16,34.690109,135.184544,宿泊施設,対応不可
171,神戸市立清風幼稚園,650-0004,中央区,神戸市中央区中山手通7丁目25-24,34.688773,135.174152,学校・園・児童館,対応不可
172,神戸市立神戸幼稚園,650-0012,中央区,神戸市中央区北長狭通4-9-17,34.690928,135.185758,学校・園・児童館,対応不可
173,神戸北野ホテル,650-0003,中央区,神戸市中央区山本通3丁目3-20,34.697105,135.18721,宿泊施設,対応不可
174,オリエンタルホテル,650-0034,中央区,神戸市中央区京町25番,34.687901,135.193184,宿泊施設,24時間利用可
175,サンシティビル,651-0096,中央区,神戸市中央区雲井通6-1-15,34.695004,135.196836,商業施設,対応不可
178,ダイワロイネットホテル神戸三宮,651-0087,中央区,神戸市中央区御幸通5-1-6,34.693118,135.198581,宿泊施設,24時間利用可
179,株式会社イナハラ,651-0086,中央区,神戸市中央区磯上通4-1-26,34.692697,135.200635,会社・事業所,対応不可
180,ホテルモントレ神戸,650-0011,中央区,神戸市中央区下山手通2-11-13,34.693543,135.189905,宿泊施設,24時間利用可
182,兵庫県住宅供給公社,650-0011,中央区,神戸市中央区下山手通4-18-2,34.692572,135.183876,官公庁,対応不可
183,KTC中央学院株式会社 神戸キャンパス,650-0002,中央区,神戸市中央区北野町2-6-5,34.699929,135.191552,学校・園・児童館,対応不可
184,ザ・ビー神戸,650-0011,中央区,神戸市中央区下山手通2-11-5,34.693436,135.190074,宿泊施設,24時間利用可
185,阪急電鉄株式会社 春日野道駅,651-0066,中央区,神戸市中央区国香通1-25-6,34.703438,135.206286,公共交通機関,対応不可
186,ライオンズタワー神戸元町,650-0023,中央区,神戸市中央区栄町通3-6-27,34.687032,135.185631,集合住宅,対応不可
187,東横イン神戸三ノ宮I,651-0087,中央区,神戸市中央区御幸通2-2-2,34.694968,135.202045,宿泊施設,24時間利用可
188,東横イン神戸三ノ宮II,651-0096,中央区,神戸市中央区雲井通5-2-2,34.695342,135.197752,宿泊施設,24時間利用可
189,神戸第一高等学校,651-0058,中央区,神戸市中央区葺合町寺ヶ谷1番地,34.709858,135.196708,学校・園・児童館,対応不可
190,株式会社国際健康開発センタービル,651-0073,中央区,神戸市中央区脇浜海岸通1丁目5番1号,34.698919,135.216686,会社・事業所,対応不可
191,新神戸地下街(株) デュオこうべ山の手,650-0025,中央区,神戸市中央区相生町3丁目2番1号,34.679698,135.177237,商業施設,対応不可
192,ワールド三宮ビル,651-0084,中央区,神戸市中央区磯辺通3丁目2-17,34.689952,135.198191,商業施設,対応不可
193,G-SPORTS STUDIO 神戸ハーバー店,650-0044,中央区,神戸市中央区東川崎町1丁目5番1号,34.678263,135.183092,体育施設・スポーツクラブ,対応不可
194,神戸高齢者総合ケアセンター,651-0077,中央区,神戸市中央区日暮通5丁目5-8,34.698304,135.203061,福祉施設,対応不可
195,神戸市役所2号館守衛室,650-8570,中央区,神戸市中央区加納町6丁目5-1,34.690517,135.195263,官公庁,24時間利用可
196,神戸市水道局中部センター,650-0016,中央区,神戸市中央区橘通3丁目4-2,34.681516,135.174013,官公庁,対応不可
197,Dino-Joy(豊栄興産株式会社),650-0021,中央区,神戸市中央区三宮町1丁目7番17号,34.692657,135.194009,商業施設,対応不可
198,コープこうべコープミニ青谷,651-0052,中央区,神戸市中央区中島通2丁目1?14,34.712894,135.20955,商業施設,対応不可
199,コープこうべコープミニ春日野,651-0079,中央区,神戸市中央区東雲通1-6-10,34.703074,135.206656,商業施設,対応不可
200,コープこうべコープミニ熊内,651-0056,中央区,神戸市中央区熊内町3丁目6?8,34.707516,135.199945,商業施設,対応不可
201,エレガリオ神戸,650-0024,中央区,神戸市中央区海岸通6丁目2-14,34.682923,135.182398,福祉施設,対応不可
203,ローソン神戸市役所西店,650-0033,中央区,神戸市中央区江戸町96,34.690111,135.194792,商業施設,24時間利用可
204,兵庫県警葺合警察署,651-0082,中央区,神戸市中央区小野浜町6番,34.689418,135.207615,官公庁,24時間利用可
205,兵庫県警葺合警察署 三宮センター交番,651-0096,中央区,神戸市中央区雲井通8丁目1-3,34.6936,135.194648,官公庁,24時間利用可
206,兵庫県警生田警察署,650-0004,中央区,神戸市中央区中山手通2丁目2-25,34.694877,135.18942,官公庁,24時間利用可
207,兵庫県警生田警察署 元町駅交番,650-0014,中央区,神戸市中央区元町高架通1-100,34.690079,135.188686,官公庁,24時間利用可
208,エルグレース神戸三宮タワーステージ管理組合,651-0086,中央区,神戸市中央区磯上通3丁目1-13,34.692616,135.201148,集合住宅,24時間利用可
209,公益社団法人 兵庫県看護協会,650-0011,中央区,神戸市中央区下山手通5丁目6-24,34.689975,135.182938,医療関連施設,対応不可
210,神戸サンセンタープラザ,650-0021,中央区,神戸市中央区三宮町1丁目9-1,34.691449,135.19208,商業施設,対応不可
211,神戸クリスタルタワー 株式会社カワサキライフコーポレーション,650-0044,中央区,神戸市中央区東川崎町1丁目1-3,34.680724,135.179701,商業施設,対応不可
212,ミント神戸,651-0096,中央区,神戸市中央区雲井通7丁目1-1,34.694372,135.196253,商業施設,24時間利用可
213,神戸サウナビル,650-0011,中央区,神戸市中央区下山手通2丁目2-10,34.692874,135.190476,商業施設,24時間利用可
214,大丸カーポート,650-0036,中央区,兵庫県神戸市中央区明石町30?2,34.687809,135.191456,商業施設,対応不可
215,ミント神戸 献血ルーム,651-0096,中央区,神戸市中央区雲井通7-1-1,34.694477,135.196201,医療関連施設,対応不可
216,三宮センタープラザ 献血ルーム,650-0021,中央区,神戸市中央区三宮町2-11-1 センタープラザ西館3階,34.691199,135.191204,医療関連施設,対応不可
217,神戸市歯科医師会附属歯科診療所,650-0021,中央区,神戸市中央区三宮町2-11-1 センタープラザ―西館5階509号室,34.691199,135.191204,医療関連施設,対応不可
218,ジークレフ新神戸タワー,651-0056,中央区,神戸市中央区熊内町7丁目6-1,34.706032,135.197038,集合住宅,24時間利用可
219,神戸市立たちばな保育所,6500017,中央区,神戸市中央区楠町1丁目12-1,34.685461,135.176016,学校・園・児童館,
220,社会福祉法人成晃会 神戸海岸特養ケアセンター,651-0084,中央区,神戸市中央区磯辺通1-1-28,34.69087,135.200314,福祉施設,
221,株式会社 朝日ビルディング神戸支店,650-0035,中央区,神戸市中央区浪花町59,34.689419,135.192467,商業施設,
222,つるてん西店(有限会社 赤野),6500022,中央区,神戸市中央区元町通5丁目7-12,34.685578,135.181596,商業施設,
223,株式会社ラウンドワン三宮駅前店,651-0088,中央区,神戸市中央区小野柄通6-1-17,34.693933,135.197375,商業施設,
224,プロメナ神戸,650-0044,中央区,神戸市中央区東川崎町1丁目8-1,34.679748,135.181002,商業施設,24時間利用可
225,元町六丁目商店街振興組合,6500022,中央区,神戸市中央区元町通6丁目7-2,34.6839,135.179949,商業施設,24時間利用可
226,ファミリーマート加納町4丁目店,650-0001,中央区,神戸市中央区加納町4丁目6-5,34.69535,135.19284,商業施設,24時間利用可
227,神鋼不動産 株式会社,651-0072,中央区,神戸市中央区脇浜町2丁目8-20,34.701346,135.212152,会社・事業所,対応不可
228,神戸市立相楽園,650-0004,中央区,神戸市中央区中山手通5-3-1,34.692536,135.182567,公園・文教施設,対応不可
1,神戸高速鉄道(株) 大開駅,652-0802,兵庫区,神戸市兵庫区水木通7丁目,34.671757,135.162539,公共交通機関,対応不可
2,神戸高速鉄道(株) 新開地駅,652-0811,兵庫区,神戸市兵庫区新開地2丁目,34.676067,135.169451,公共交通機関,対応不可
3,神戸信用金庫 中央支店,652-0802,兵庫区,神戸市兵庫区水木通1-1-8,34.67656,135.169525,商業施設,対応不可
4,神戸ウイングスタジアム(株),652-0855,兵庫区,神戸市兵庫区御崎町1-2-2,34.657063,135.169576,体育施設・スポーツクラブ,対応不可
5,寄神建設(株),652-0831,兵庫区,神戸市兵庫区七宮町2丁目1番1号,34.670361,135.175774,会社・事業所,対応不可
6,兵庫県柔道整復師会館,652-0804,兵庫区,神戸市兵庫区塚本通2丁目2-25,34.673594,135.168097,集会場・ホール,対応可能
7,神戸市営地下鉄 湊川公園駅,652-0047,兵庫区,神戸市兵庫区下沢通1丁目,34.679091,135.16679,公共交通機関,対応不可
8,神戸市営地下鉄 上沢駅,652-0047,兵庫区,神戸市兵庫区下沢通8丁目,34.673478,135.158792,公共交通機関,対応不可
9,神戸市営地下鉄 御崎公園駅,652-0875,兵庫区,神戸市兵庫区浜中町1丁目,34.654575,135.164921,公共交通機関,対応不可
10,兵庫区役所,652-0032,兵庫区,神戸市兵庫区荒田町1丁目21-1,34.680691,135.165363,官公庁,24時間利用可
11,神戸市立兵庫図書館,652-0897,兵庫区,神戸市兵庫区駅南通5丁目1番1号,34.668104,135.16566,公園・文教施設,対応不可
12,楠高校,652-0045,兵庫区,神戸市兵庫区松本通1-1-1,34.679601,135.165076,学校・園・児童館,対応不可
13,神港高校,652-0043,兵庫区,神戸市兵庫区会下山町3丁目16?1,34.67545,135.157138,学校・園・児童館,対応不可
14,須佐野中学校,652-0881,兵庫区,神戸市兵庫区松原通1-1-44,34.664056,135.169487,学校・園・児童館,対応不可
15,兵庫中学校,652-0816,兵庫区,神戸市兵庫区永沢町4-3-36,34.673377,135.170123,学校・園・児童館,対応不可
16,兵庫中学校北分校,652-0816,兵庫区,神戸市兵庫区永沢町4-3-18,34.6731,135.169435,学校・園・児童館,対応不可
17,湊川中学校,652-0045,兵庫区,神戸市兵庫区松本通1-1-1,34.679647,135.165022,学校・園・児童館,対応不可
19,夢野中学校,652-0057,兵庫区,神戸市兵庫区鵯越町10番1号,34.681976,135.153295,学校・園・児童館,対応不可
20,吉田中学校,652-0872,兵庫区,神戸市兵庫区吉田町1-5-1,34.652363,135.170818,学校・園・児童館,対応不可
21,A-TIME本店,652-0811,兵庫区,神戸市兵庫区新開地3-4-17,34.676768,135.171302,商業施設,対応不可
22,A-TIME新開地店,652-0811,兵庫区,神戸市兵庫区新開地2-6-8,34.678075,135.169665,商業施設,対応不可
23,兵庫勤労市民センター,652-0805,兵庫区,神戸市兵庫区羽坂通4-1-1,34.669058,135.165032,集会場・ホール,対応不可
24,(株)東販神戸営業所,652-0896,兵庫区,神戸市兵庫区須佐野通1-2-3,34.665049,135.169553,その他,対応不可
25,神戸市営地下鉄 和田岬駅,652-0862,兵庫区,神戸市兵庫区上庄通2丁目,34.658269,135.176351,公共交通機関,対応不可
26,神戸市営地下鉄 中央市場前駅,652-0844,兵庫区,神戸市兵庫区中之島1丁目,34.666058,135.175854,公共交通機関,対応不可
27,ゴールドラッシュ,652-0042,兵庫区,神戸市兵庫区東山町2丁目3-18,34.681915,135.163763,商業施設,対応不可
28,株式会社 ヒョウベイ,652-0852,兵庫区,神戸市兵庫区御崎本町4丁目2-7,34.659849,135.168468,会社・事業所,対応不可
32,神戸市立小河保育所,652-0895,兵庫区,神戸市兵庫区小河通3丁目2-14,34.665745,135.168111,学校・園・児童館,対応不可
33,神戸市立平野保育所,652-0015,兵庫区,神戸市兵庫区下祇園町6?22,34.68782,135.169719,学校・園・児童館,対応不可
34,夢野の丘小学校,652-0042,兵庫区,神戸市兵庫区東山町4丁目20,34.681847,135.160904,学校・園・児童館,対応不可
35,神戸市立夢野児童館,652-0041,兵庫区,神戸市兵庫区湊川町7丁目6-5,34.683057,135.158648,学校・園・児童館,対応不可
36,会下山小学校,652-0046,兵庫区,神戸市兵庫区上沢通1丁目3-26,34.679363,135.165458,学校・園・児童館,対応不可
37,兵庫大開小学校,652-0803,兵庫区,神戸市兵庫区大開通4丁目1-39,34.673267,135.167097,学校・園・児童館,対応不可
38,水木小学校,652-0802,兵庫区,神戸市兵庫区水木通9丁目1-8,34.67061,135.159707,学校・園・児童館,対応不可
39,和田岬小学校,652-0863,兵庫区,神戸市兵庫区和田宮通6丁目1-18,34.655059,135.175606,学校・園・児童館,対応不可
40,明親小学校,652-0896,兵庫区,神戸市兵庫区須佐野通4丁目1-19,34.665139,135.165918,学校・園・児童館,対応不可
41,浜山小学校,652-0851,兵庫区,神戸市兵庫区材木町4丁目2,34.657814,135.166974,学校・園・児童館,対応不可
42,山幸興業 三菱電機詰所,652-0854,兵庫区,神戸市兵庫区和田崎町1丁目1-2,34.651115,135.178434,会社・事業所,対応不可
43,山幸興業 三菱重工詰所,652-0854,兵庫区,神戸市兵庫区和田崎町1丁目1-1,34.656641,135.178027,会社・事業所,対応不可
44,播州信用金庫兵庫支店,652-0801,兵庫区,神戸市兵庫区中道通5丁目2番7号,34.674363,135.163367,商業施設,対応不可
45,播州信用金庫平野支店,652-0008,兵庫区,神戸市兵庫区上祇園町3番1号,34.691022,135.168343,商業施設,対応不可
46,三井住友銀行兵庫支店,652-0812,兵庫区,神戸市兵庫区湊町4-2-10,34.676014,135.170584,商業施設,対応不可
47,三井住友銀行湊川支店,652-0042,兵庫区,神戸市兵庫区東山町2-2-6,34.68154,135.163775,商業施設,対応不可
49,神戸新開地ビル,652-0811,兵庫区,神戸市兵庫区新開地4丁目6-19,34.676345,135.172738,商業施設,対応不可
51,西日本旅客鉄道(株)兵庫駅,652-0897,兵庫区,神戸市兵庫区駅南通5丁目3-7,34.668445,135.164784,公共交通機関,対応不可
53,川崎重工業兵庫工場,652-0884,兵庫区,神戸市兵庫区和田山通2丁目1-18,34.659065,135.161114,会社・事業所,対応不可
54,神戸電鉄 湊川駅,652-0032,兵庫区,神戸市兵庫区荒田町1丁目20-3,34.679537,135.165997,公共交通機関,対応不可
55,社会福祉法人 光有会,652-0063,兵庫区,神戸市兵庫区夢野町4丁目3-13,34.683903,135.156264,福祉施設,対応不可
56,神戸信用金庫 兵庫支店,652-0806,兵庫区,神戸市兵庫区西柳原町5-7,34.669028,135.168349,商業施設,対応不可
57,神戸信用金庫 御崎支店,652-0875,兵庫区,神戸市兵庫区浜中町1丁目6-2,34.655124,135.165165,商業施設,対応不可
58,浜山地域福祉センター,652-0855,兵庫区,神戸市兵庫区御崎町1丁目2-4,34.655661,135.16813,小集会場・公民館・地域福祉センター,対応不可
59,医療法人社団 せんだん会 みどり苑,652-0803,兵庫区,神戸市兵庫区大開通2丁目2-1,34.674989,135.16924,福祉施設,対応不可
60,ライオンズヴィアーレ,652-0047,兵庫区,神戸市兵庫区下沢通5丁目4-14,34.675212,135.161698,集合住宅,対応不可
61,川池地域福祉センター,652-0045,兵庫区,神戸市兵庫区松本通5丁目2-6,34.676956,135.160589,小集会場・公民館・地域福祉センター,対応不可
62,ひよどり地域福祉センター,652-0058,兵庫区,神戸市兵庫区菊水町10丁目12-1,34.680995,135.153459,小集会場・公民館・地域福祉センター,対応不可
63,三菱電機 神戸製作所,652-0854,兵庫区,神戸市兵庫区和田崎町1丁目1-2,34.651166,135.178439,会社・事業所,対応不可
64,神戸市環境局 兵庫事業所,652-0807,兵庫区,神戸市兵庫区浜崎通2-23,34.66779,135.166779,官公庁,対応不可
66,新開地まちづくりNPO,652-0811,兵庫区,神戸市兵庫区新開地3丁目3-11,34.677109,135.171465,会社・事業所,対応不可
68,カトリック兵庫教会,652-0804,兵庫区,神戸市兵庫区塚本通4丁目4-4,34.672189,135.166639,集会場・ホール,対応不可
69,湊山地域福祉センター,652-0062,兵庫区,神戸市兵庫区大同町2丁目2-8,34.687585,135.162771,小集会場・公民館・地域福祉センター,対応不可
71,神戸市立羽坂保育所,652-0805,兵庫区,神戸市兵庫区羽坂通4丁目1-1,34.669285,135.165637,学校・園・児童館,対応不可
72,社会福祉法人 海光園,652-0058,兵庫区,神戸市兵庫区菊水町10丁目40,34.679845,135.154502,福祉施設,対応不可
73,神戸市立松原児童館,652-0881,兵庫区,神戸市兵庫区松原通4丁目2-27,34.664513,135.16622,学校・園・児童館,対応不可
74,神戸市立中道児童館,652-0801,兵庫区,神戸市兵庫区中道通4丁目2番9号,34.67482,135.1641,学校・園・児童館,対応不可
75,神戸市立兵庫児童館,652-0898,兵庫区,神戸市兵庫区駅前通4丁目3-6,34.66744,135.159171,学校・園・児童館,対応不可
76,神戸市立湊川児童館,652-0042,兵庫区,神戸市兵庫区東山町4丁目-20-1,34.68185,135.162356,学校・園・児童館,対応不可
77,神戸市建設局中部建設事務所,652-0041,兵庫区,神戸市兵庫区湊川町2丁目1-12,34.684157,135.163605,官公庁,対応不可
78,神戸福生会 高齢者ケアセンターひょうご,652-0051,兵庫区,神戸市兵庫区里山町1-48,34.692522,135.141078,福祉施設,対応不可
79,浄土真宗本願寺派西法尊光寺,652-0016,兵庫区,神戸市兵庫区馬場町10-1,34.688221,135.171926,その他,対応不可
80,神戸市立兵庫くすのき幼稚園,652-0816,兵庫区,神戸市兵庫区永沢町3丁目7-12,34.67404,135.170924,学校・園・児童館,対応不可
82,明親地域福祉センター,652-0896,兵庫区,神戸市兵庫区須佐野通4-1-42,34.6648,135.166232,小集会場・公民館・地域福祉センター,対応不可
83,株式会社 神戸マツダ,652-0892,兵庫区,神戸市兵庫区東柳原町3-10,34.668638,135.170333,会社・事業所,対応不可
84,神戸市立中部在宅障害者福祉センター,652-0897,兵庫区,神戸市兵庫区駅南通5丁目1-1,34.668159,135.165871,福祉施設,対応不可
85,神戸市中央卸売市場,652-0844,兵庫区,神戸市兵庫区中之島1丁目1-4,34.665704,135.176149,会社・事業所,対応不可
86,生活協同組合コープこうべ コープ兵庫,652-0897,兵庫区,神戸市兵庫区駅南通5丁目1-2-100,34.667289,135.164572,商業施設,対応不可
87,神戸市立雪御所児童館,652-0031,兵庫区,神戸市兵庫区雪御所町1-8,34.689401,135.165734,学校・園・児童館,対応不可
88,大同保育園,652-0062,兵庫区,神戸市兵庫区大同町2丁目2-16,34.687889,135.162832,学校・園・児童館,対応不可
89,健康ライフプラザ,652-0897,兵庫区,神戸市兵庫区駅南通5丁目1-2-300,34.667211,135.164158,医療関連施設,対応不可
90,東横イン 神戸湊川公園,652-0036,兵庫区,神戸市兵庫区福原町32-13,34.680822,135.16956,宿泊施設,24時間利用可
92,みなと幼稚園,652-0032,兵庫区,神戸市兵庫区荒田町3丁目20-4,34.684493,135.167484,学校・園・児童館,対応不可
93,運南保育所,652-0875,兵庫区,神戸市兵庫区浜中町1丁目17-11,34.656196,135.164827,学校・園・児童館,対応不可
94,宗教法人光明寺 ルンビニー愛児園,652-0801,兵庫区,神戸市兵庫区中道通9丁目1-8,34.671033,135.158996,学校・園・児童館,対応不可
95,社会福祉法人兵庫保育園,652-0823,兵庫区,神戸市兵庫区東出町2丁目12-9,34.673922,135.180262,学校・園・児童館,対応不可
96,パーマリィイン千鳥山荘,652-0022,兵庫区,神戸市兵庫区千鳥町3-5-1,34.691003,135.160695,福祉施設,対応不可
97,水道局技術部奥平野浄水場,652-0004,兵庫区,神戸市兵庫区楠谷町37番1号,34.693635,135.173772,官公庁,対応不可
98,熊野地域福祉センター,652-0064,兵庫区,神戸市兵庫区熊野町3丁目12-18,34.686516,135.158346,小集会場・公民館・地域福祉センター,対応不可
99,エクセルスカイ御崎公園,652-0872,兵庫区,神戸市兵庫区吉田町2丁目35番6号,34.65447,135.168246,集合住宅,対応不可
100,関西電力 神戸電力所,652-0894,兵庫区,神戸市兵庫区入江通1丁目2-15,34.667169,135.169314,会社・事業所,対応不可
101,神戸アートビレッジセンター,652-0811,兵庫区,神戸市兵庫区新開地5-3-14,34.676116,135.173701,公園・文教施設,対応不可
102,キャナルビスタ アーバンコンフォート,652-0846,兵庫区,神戸市兵庫区出在家町2丁目6番30号,34.662889,135.173481,集合住宅,24時間利用可
103,神戸市道路公社 天王谷料金所 (トールウェイ(株)),652-0002,兵庫区,神戸市兵庫区平野町天王谷字西服山354-19,34.699411,135.165575,会社・事業所,対応不可
104,ものづくり復興工場,652-0884,兵庫区,神戸市兵庫区和田山通1丁目2-25,34.659047,135.163564,会社・事業所,24時間利用可
105,日通トランスポート(株)神戸支店,652-0874,兵庫区,神戸市兵庫区高松町2-32,34.651952,135.160182,会社・事業所,対応不可
106,荒田地域福祉センター,652-0032,兵庫区,神戸市兵庫区荒田町2丁目19番1号,34.681575,135.166875,小集会場・公民館・地域福祉センター,対応不可
107,大鉄工業(株)神戸出張所,652-0897,兵庫区,神戸市兵庫区駅南通5丁目5番2号,34.664975,135.159919,会社・事業所,対応不可
108,不二製油株式会社,652-0875,兵庫区,神戸市兵庫区浜中町2丁目18-24,34.654448,135.161449,会社・事業所,24時間利用可
109,アサヒカプセル&サウナ,652-0811,兵庫区,神戸市兵庫区新開地3丁目4-11,34.676536,135.171,入浴施設,対応不可
110,中央水環境センター・鈴蘭台処理場,652-0001,兵庫区,神戸市兵庫区烏原町譲原,34.698402,135.148438,官公庁,対応不可
111,株式会社ラウンドワン,652-0811,兵庫区,神戸市兵庫区新開地2-3-4,34.67721,135.170317,商業施設,対応不可
112,神戸市立松原保育所,652-0881,兵庫区,神戸市兵庫区松原通4丁目2-27,34.664513,135.166224,学校・園・児童館,対応不可
113,神戸市立友生支援学校,652-0063,兵庫区,神戸市兵庫区夢野町1丁目1,34.686281,135.160669,学校・園・児童館,対応不可
114,社会福祉法人 愛信学園,652-0016,兵庫区,神戸市兵庫区馬場町7番14号,34.688516,135.171097,福祉施設,24時間利用可
115,株式会社 築港,652-0866,兵庫区,神戸市兵庫区遠矢浜町5-27,34.65075,135.170078,会社・事業所,対応不可
116,神戸少年鑑別所,652-0015,兵庫区,神戸市兵庫区下祇園町40-7,34.688032,135.169404,官公庁,24時間利用可
117,奥平野財産区管理会 平野会館,652-0006,兵庫区,神戸市兵庫区神田町11番10号,34.691087,135.170551,小集会場・公民館・地域福祉センター,対応不可
118,兵庫県立兵庫工業高校,652-0863,兵庫区,神戸市兵庫区和田宮通2丁目1-63,34.660401,135.17355,学校・園・児童館,対応不可
119,コープこうべ コープミニ荒田店,652-0032,兵庫区,神戸市兵庫区荒田町3丁目28番3号,34.684015,135.166848,商業施設,対応不可
120,コープこうべ コープミニ石井店,652-0061,兵庫区,神戸市兵庫区石井町8丁目2番1号,34.688582,135.160369,商業施設,対応不可
121,コープこうべ コープミニ御崎店,652-0875,兵庫区,神戸市兵庫区浜中町1丁目1-1,34.655101,135.166251,商業施設,対応不可
122,兵庫県立神戸工業高等学校,652-0863,兵庫区,神戸市兵庫区和田宮通2-1-63,34.660226,135.173369,学校・園・児童館,対応不可
123,社会福祉法人宝地院福祉会 宝地院保育園,652-0032,兵庫区,神戸市兵庫区荒田町3丁目17-1,34.684657,135.168052,学校・園・児童館,対応不可
124,中道地域福祉センター,652-0801,兵庫区,神戸市兵庫区中道通4丁目2番8号,34.674909,135.164165,小集会場・公民館・地域福祉センター,対応不可
125,菊水地域福祉センター,652-0058,兵庫区,神戸市兵庫区菊水町2丁目1-2,34.685787,135.163652,小集会場・公民館・地域福祉センター,対応不可
126,市立御崎児童館,652-0855,兵庫区,神戸市兵庫区御崎町1丁目3-2,34.657636,135.167668,学校・園・児童館,対応不可
127,岡工務店,652-0802,兵庫区,神戸市兵庫区水木通4丁目1-1,34.674202,135.16569,会社・事業所,対応不可
128,松村石油株式会社神戸工場,652-0883,兵庫区,神戸市兵庫区明和通2丁目2番31号,34.6622,135.166983,会社・事業所,24時間利用可
129,福原自治会館,652-0036,兵庫区,神戸市兵庫区福原町24-9,34.679626,135.168957,小集会場・公民館・地域福祉センター,対応不可
130,兵庫大開地域福祉センター,652-0816,兵庫区,神戸市兵庫区永沢町4丁目4-28,34.674261,135.169968,小集会場・公民館・地域福祉センター,対応不可
131,ゆりかご保育園,652-0054,兵庫区,神戸市兵庫区氷室町2丁目14番1号,34.686713,135.157291,学校・園・児童館,対応不可
132,たちえ幼稚園,652-0058,兵庫区,神戸市兵庫区菊水町10-39-25,34.680746,135.15323,学校・園・児童館,対応不可
134,兵庫県立健康生活科学研究所 健康科学研究センター,652-0032,兵庫区,神戸市兵庫区荒田町2丁目1-29,34.683393,135.170146,医療関連施設,対応不可
135,神戸市立心身障害福祉センター,652-0802,兵庫区,神戸市兵庫区水木通2-1-10,34.675188,135.167116,福祉施設,対応不可
136,神戸学院大学附属高等学校,652-0043,兵庫区,神戸市兵庫区会下山町1丁目7-1,34.679582,135.160118,学校・園・児童館,対応不可
137,入江地域福祉センター,652-0822,兵庫区,神戸市兵庫区西出町1丁目19-3号,34.672654,135.17771,小集会場・公民館・地域福祉センター,対応不可
138,石井幼稚園,652-0023,兵庫区,神戸市兵庫区都由乃町1丁目1-11,34.690839,135.162279,学校・園・児童館,対応不可
139,公益財団法人 兵庫県健康財団 保健検診センター,652-0032,兵庫区,神戸市兵庫区荒田町2丁目1-12,34.683372,135.169504,医療関連施設,対応不可
140,学校法人米田学園 神港みどり幼稚園,652-0043,兵庫区,神戸市兵庫区会下山町2丁目5-32,34.677326,135.160028,学校・園・児童館,対応不可
141,グループホーム たのしい家湊川,652-0041,兵庫区,神戸市兵庫区湊川町9丁目12-7,34.681561,135.157335,福祉施設,24時間利用可
142,水木地域福祉センター,652-0898,兵庫区,神戸市兵庫区駅前通3丁目2-26 駅前住宅内,34.668222,135.160427,小集会場・公民館・地域福祉センター,対応不可
143,念法眞教 神戸念法寺,652-0898,兵庫区,神戸市兵庫区駅前通4丁目1-78,34.666883,135.161256,その他,対応不可
144,西橘自治会館,652-0034,兵庫区,神戸市兵庫区西橘通1丁目3-11,34.680429,135.171766,小集会場・公民館・地域福祉センター,対応不可
145,夢野地域福祉センター,652-0041,兵庫区,神戸市兵庫区湊川町7丁目6-5,34.682994,135.158509,小集会場・公民館・地域福祉センター,対応不可
146,特別養護老人ホーム パーマリィ・イン中道,652-0801,兵庫区,神戸市兵庫区中道通6丁目1-33,34.673754,135.162947,福祉施設,24時間利用可
147,本願寺派湊川保育園,652-0041,兵庫区,神戸市兵庫区湊川町9丁目2-16,34.680846,135.158542,学校・園・児童館,対応不可
148,和田岬地域福祉センター,652-0871,兵庫区,神戸市兵庫区浜山通1丁目1-5,34.657801,135.171404,小集会場・公民館・地域福祉センター,対応不可
149,グループホーム たのしい家大倉山,652-0015,兵庫区,神戸市兵庫区下祇園町32-21,34.68937,135.168529,福祉施設,24時間利用可
150,医療法人社団大有会 介護老人保健施設ドリームヒルズ滝山,652-0056,兵庫区,神戸市兵庫区滝山町7-2,34.683892,135.152403,福祉施設,対応不可
151,兵庫県警兵庫警察署,652-0047,兵庫区,神戸市兵庫区下沢通3丁目1-28,34.676454,135.165394,官公庁,24時間利用可
152,兵庫県警兵庫警察署御崎公園交番,652-0855,兵庫区,神戸市兵庫区御崎町1丁目1-2,34.655144,135.169551,官公庁,24時間利用可
153,神戸夢野幼稚園,652-0042,兵庫区,神戸市兵庫区東山町4丁目20番,34.681975,135.161958,学校・園・児童館,対応不可
1,有馬温泉観光総合案内所,651-1401,北区,神戸市北区有馬町790番地3,34.797783,135.247773,商業施設,対応不可
2,有馬本温泉 金の湯,651-1401,北区,神戸市北区有馬町833,34.796732,135.247889,入浴施設,対応不可
3,神戸電鉄(株) 鈴蘭台駅,651-1111,北区,神戸市北区鈴蘭台北町1丁目7番17号,34.723646,135.145965,公共交通機関,対応不可
4,ひと接骨院,651-1132,北区,神戸市北区南五葉1-4-22,34.724794,135.134727,医療関連施設,対応不可
5,デイサービスセンターまほしの里,651-1242,北区,神戸市北区有野町唐櫃291-1,34.795169,135.219809,福祉施設,対応不可
6,コアキタマチショッピングセンター,651-1233,北区,神戸市北区日の峰2-6-1,34.756202,135.143808,商業施設,対応不可
7,(財)こうべ市民福祉振興協会 温泉健康センター(しあわせの村内),651-1102,北区,神戸市北区山田町下谷上字中一里山14番地の1,34.708502,135.115467,入浴施設,対応不可
8,北区役所,651-1114,北区,神戸市北区鈴蘭台西町1丁目25番1号,34.726967,135.144329,官公庁,24時間利用可
9,北神出張所,651-1302,北区,神戸市北区藤原台中町1丁目2番1号,34.821045,135.22189,官公庁,対応不可
10,(株)有馬ビューホテル,651-1401,北区,神戸市北区有馬町池の尻292-2,34.797801,135.250659,宿泊施設,24時間利用可
11,(株)有馬ビューホテル 太閤の湯,651-1401,北区,神戸市北区有馬町池の尻292-2,34.797762,135.251374,宿泊施設,24時間利用可
12,(株)中の坊 有馬グランドホテル,651-1401,北区,神戸市北区有馬町1304-1,34.797937,135.243935,宿泊施設,対応不可
13,北区民センター,651-1114,北区,神戸市北区鈴蘭台西町1丁目22番1号,34.727059,135.143983,集会場・ホール,対応不可
14,AXTOS鈴蘭台店,651-1147,北区,神戸市北区松宮台2丁目27-8,34.738058,135.144002,体育施設・スポーツクラブ,対応不可
15,(財)こうべ市民福祉振興協会 神戸市シルバーカレッジ,651-1102,北区,神戸市北区山田町下谷上字中一里山14番地の1 しあわせの村内,34.702665,135.117441,学校・園・児童館,対応不可
16,神戸拘置所,651-1124,北区,神戸市北区ひよどり北町2-1,34.706111,135.120007,官公庁,対応不可
17,神戸市民防災総合センター,651-1123,北区,神戸市北区ひよどり台北町3-1,34.707911,135.119902,官公庁,対応不可
18,有野北中学校,651-1301,北区,神戸市北区藤原台北町6-4-1,34.829764,135.223335,学校・園・児童館,対応不可
19,有野中学校,651-1302,北区,神戸市北区藤原台中町5-2-1,34.821516,135.214193,学校・園・児童館,対応不可
20,有馬中学校,651-1321,北区,神戸市北区有野台7-18,34.809504,135.226857,学校・園・児童館,対応不可
21,淡河中学校,651-1613,北区,神戸市北区淡河町行原字中沢179-2,34.819533,135.124205,学校・園・児童館,対応不可
22,大池中学校,651-1201,北区,神戸市北区西大池2-24-3,34.772162,135.196042,学校・園・児童館,対応不可
23,大沢中学校,651-1524,北区,神戸市北区大沢町中大沢976,34.855201,135.165369,学校・園・児童館,対応不可
24,大原中学校,651-1222,北区,神戸市北区大原1-19,34.745781,135.143842,学校・園・児童館,対応不可
25,小部中学校,651-1101,北区,神戸市北区山田町小部字向井谷23-1,34.730505,135.154856,学校・園・児童館,対応不可
26,小部東小学校,651-1111,北区,神戸市北区鈴蘭台北町7-11-22,34.727875,135.15719,学校・園・児童館,対応不可
27,唐櫃小学校,651-1332,北区,神戸市北区唐櫃台2-39-1,34.789828,135.214196,学校・園・児童館,対応不可
28,唐櫃中学校,651-1332,北区,神戸市北区唐櫃台4-36-1,34.784777,135.211584,学校・園・児童館,対応不可
29,北神戸中学校,651-1513,北区,神戸市北区鹿の子台北町2-8-1,34.862855,135.222975,学校・園・児童館,対応不可
30,広陵中学校,651-1211,北区,神戸市北区小倉台5-1,34.74956,135.169648,学校・園・児童館,対応不可
31,甲緑小学校,651-1221,北区,神戸市北区緑町7-12-10,34.744869,135.150142,学校・園・児童館,対応不可
32,桜の宮中学校,651-1144,北区,神戸市北区大脇台6-1,34.738078,135.160158,学校・園・児童館,対応不可
33,鹿の子台小学校,651-1513,北区,神戸市北区鹿の子台北町6-34-1,34.861017,135.218191,学校・園・児童館,対応不可
34,鈴蘭台中学校,651-1131,北区,神戸市北区北五葉2-10-32,34.72933,135.132766,学校・園・児童館,対応不可
35,星和台中学校,651-1121,北区,神戸市北区星和台1-6,34.719236,135.128362,学校・園・児童館,対応不可
36,西山小学校,651-1305,北区,神戸市北区西山1-67,34.838479,135.218442,学校・園・児童館,対応不可
37,八多中学校,651-1343,北区,神戸市北区八多町附物876,34.822157,135.195486,学校・園・児童館,対応不可
38,神戸市立兵庫商業高等学校,651-1111,北区,神戸市北区鈴蘭台北町1-24-1,34.727574,135.147661,学校・園・児童館,対応不可
39,鵯台中学校,651-1123,北区,神戸市北区ひよどり台1-15-31,34.693964,135.119201,学校・園・児童館,対応不可
40,山田中学校,651-1243,北区,神戸市北区山田町下谷上宮前15,34.762787,135.157002,学校・園・児童館,対応不可
41,神戸市立北図書館,651-1114,北区,神戸市北区鈴蘭台西町1-22-1,34.727047,135.143866,公園・文教施設,対応不可
42,神戸市立北図書館北神分館,651-1302,北区,神戸市北区藤原台中町1-2-1,34.820927,135.221849,公園・文教施設,対応不可
43,フルーツフラワーパーク,651-1522,北区,神戸市北区大沢町上大沢2150,34.845864,135.191701,商業施設,対応不可
44,兵衛旅館,651-1401,北区,神戸市北区有馬町1904,34.79821,135.248677,宿泊施設,24時間利用可
45,武庫川学院北摂キャンパス丹嶺学苑,651-1512,北区,神戸市北区長尾町上津4553-1,34.886872,135.17313,学校・園・児童館,対応不可
46,神戸北高等学校,651-1332,北区,神戸市北区唐櫃台2-41-1,34.788949,135.216459,学校・園・児童館,対応不可
47,兵庫六甲農業協同組合本店,651-1313,北区,神戸市北区有野中町2-12-13,34.82651,135.226076,商業施設,対応不可
48,兵庫六甲農業協同組合農協市場館農野花,651-1313,北区,神戸市北区有野中町3-1-2,34.82744,135.225791,商業施設,対応不可
49,兵庫六甲農業協同組合有野支店,651-1313,北区,神戸市北区有野中町1-4-20,34.819201,135.222223,商業施設,対応不可
50,兵庫六甲農業協同組合小部支店,651-1112,北区,神戸市北区鈴蘭台東町4-5-26,34.723658,135.147403,商業施設,対応不可
52,神戸甲北高等学校,651-1144,北区,神戸市北区大脇台9-1,34.739282,135.162612,学校・園・児童館,対応不可
53,(株)有馬館 有馬ロイヤルホテル,651-1401,北区,神戸市北区有馬町987,34.79559,135.247401,宿泊施設,対応不可
54,株式会社タイセイ 六甲国際ゴルフ倶楽部,651-1263,北区,神戸市北区山田町西下字押部道15,34.7572,135.102018,体育施設・スポーツクラブ,対応不可
55,県立神戸特別支援学校,651-1144,北区,神戸市北区大脇台10番1号,34.739023,135.164245,学校・園・児童館,対応不可
56,神鉄兵庫ゴルフ株式会社兵庫カンツリー倶楽部,651-1252,北区,神戸市北区山田町原野鹿見山,34.783977,135.162363,体育施設・スポーツクラブ,対応不可
57,(株)関電アメニックス武庫ノ台ゴルフコース,651-1503,北区,神戸市北区道場町生野字北山1176の16番地,34.875878,135.259644,体育施設・スポーツクラブ,対応不可
58,有馬小学校,651-1401,北区,神戸市北区有馬町1274,34.801109,135.248507,学校・園・児童館,対応不可
59,有野小学校,651-1302,北区,神戸市北区藤原台中町3丁目17-1,34.820675,135.217961,学校・園・児童館,対応不可
60,藤原台小学校,651-1303,北区,神戸市北区藤原台南町1丁目13-1,34.812914,135.207917,学校・園・児童館,対応不可
61,有野台小学校,651-1321,北区,神戸市北区有野台2丁目8,34.812263,135.225807,学校・園・児童館,対応不可
62,有野東小学校,651-1321,北区,神戸市北区有野台5丁目2,34.813813,135.229724,学校・園・児童館,対応不可
63,大池小学校,651-1201,北区,神戸市北区西大池2丁目24-1,34.772344,135.198375,学校・園・児童館,対応不可
64,花山小学校,651-1204,北区,神戸市北区花山東町3-1,34.765231,135.185144,学校・園・児童館,対応不可
65,谷上小学校,651-1243,北区,神戸市北区山田町下谷上中上16,34.763341,135.170281,学校・園・児童館,対応不可
66,箕谷小学校,651-1232,北区,神戸市北区松が枝町1丁目11,34.758434,135.149721,学校・園・児童館,対応不可
67,桂木小学校,651-1223,北区,神戸市北区桂木1丁目2-5,34.747614,135.145539,学校・園・児童館,対応不可
68,広陵小学校,651-1212,北区,神戸市北区筑紫が丘2丁目9-1,34.748522,135.165392,学校・園・児童館,対応不可
69,筑紫が丘小学校,651-1212,北区,神戸市北区筑紫が丘3丁目4-1,34.744223,135.162907,学校・園・児童館,対応不可
70,桜の宮小学校,651-1143,北区,神戸市北区若葉台1丁目3番15号,34.740243,135.154195,学校・園・児童館,対応不可
71,山田小学校,651-1253,北区,神戸市北区山田町中字長尾サ1番地,34.765571,135.131763,学校・園・児童館,対応不可
72,小部小学校,651-1111,北区,神戸市北区鈴蘭台北町3丁目8番1号,34.729569,135.148138,学校・園・児童館,対応不可
73,泉台小学校,651-1141,北区,神戸市北区泉台3丁目1番地の4,34.73838,135.137911,学校・園・児童館,対応不可
74,鈴蘭台小学校,651-1113,北区,神戸市北区鈴蘭台南町2丁目14-24,34.725186,135.141234,学校・園・児童館,対応不可
75,北五葉小学校,651-1131,北区,神戸市北区北五葉3丁目7番1号,34.730529,135.136904,学校・園・児童館,対応不可
76,南五葉小学校,651-1132,北区,神戸市北区南五葉3丁目1番1号,34.721806,135.133214,学校・園・児童館,対応不可
77,君影小学校,651-1122,北区,神戸市北区君影町1丁目11-13,34.714363,135.136476,学校・園・児童館,対応不可
78,星和台小学校,651-1121,北区,神戸市北区星和台6-21,34.72396,135.123965,学校・園・児童館,対応不可
79,ひよどり台小学校,651-1123,北区,神戸市北区ひよどり台3丁目3番,34.697865,135.124949,学校・園・児童館,対応不可
80,藍那小学校,651-1104,北区,神戸市北区山田町藍那字蛇谷1-10,34.735354,135.113317,学校・園・児童館,対応不可
81,道場小学校,651-1502,北区,神戸市北区道場町塩田1460号,34.869767,135.232453,学校・園・児童館,対応不可
82,八多小学校,651-1343,北区,神戸市北区八多町附物876,34.822619,135.195529,学校・園・児童館,対応不可
83,大沢小学校,651-1524,北区,神戸市北区大沢町中大沢976,34.855129,135.165376,学校・園・児童館,対応不可
84,長尾小学校,651-1515,北区,神戸市北区上津台3丁目4番1号,34.865777,135.194893,学校・園・児童館,対応不可
85,好徳小学校,651-1623,北区,神戸市北区淡河町野瀬487番地,34.822313,135.149978,学校・園・児童館,対応不可
86,淡河小学校,651-1615,北区,神戸市北区淡河町萩原524番地,34.816059,135.102577,学校・園・児童館,対応不可
87,イオン株式会社 ジャスコつくしが丘店,651-1212,北区,神戸市北区筑紫が丘3-2-10,34.746256,135.164124,商業施設,対応不可
88,グループホーム田園,651-1114,北区,神戸市北区鈴蘭台西町1-16-15,34.726625,135.142587,福祉施設,対応不可
89,社団法人神戸乗馬倶楽部,651-1102,北区,神戸市北区山田町下谷上字中一里山14-1,34.716089,135.115833,体育施設・スポーツクラブ,対応不可
90,イオン株式会社 神戸北ショッピングセンター,651-1515,北区,神戸市北区上津台8-1-1,34.860807,135.194413,商業施設,対応不可
91,シルバーステイあじさい,651-1221,北区,神戸市北区緑町8丁目12番1号,34.751777,135.155403,福祉施設,対応不可
92,三井住友銀行鈴蘭台支店,651-1111,北区,北区鈴蘭台北町1丁目7?17,34.723901,135.146089,商業施設,対応不可
93,三井住友銀行北鈴蘭台出張所,651-1142,北区,神戸市北区甲栄台1丁目1-5,34.739824,135.152062,商業施設,対応不可
94,三井住友銀行藤原台支店,651-1313,北区,神戸市北区有野中町1丁目12-7,34.821644,135.222963,商業施設,対応不可
95,天恵興業(株) 月光園 游月山荘,651-1401,北区,神戸市北区有馬町318番地,34.794965,135.245291,宿泊施設,24時間利用可
96,天恵興業(株) 月光園 鴻朧館,651-1401,北区,神戸市北区有馬町318番地,34.794782,135.246052,宿泊施設,24時間利用可
97,学校法人神戸弘陵学園,651-1101,北区,神戸市北区山田町小部妙賀山10-4,34.735963,135.165732,学校・園・児童館,対応不可
98,社会福祉法人 鈴蘭台荘,651-1112,北区,神戸市北区鈴蘭台東町2-4-6,34.719923,135.147449,福祉施設,対応不可
99,株式会社チュウブ 北神戸ゴルフ場,651-1511,北区,神戸市北区長尾町宅原大味谷1706番地,34.854743,135.200141,体育施設・スポーツクラブ,対応不可
100,キリンビール工場,651-1516,北区,神戸市北区赤松台2丁目1番1号,34.878509,135.17909,会社・事業所,対応不可
101,北六甲カントリー倶楽部 東コース,651-1522,北区,神戸市北区大沢町上大沢1982,34.836086,135.168696,体育施設・スポーツクラブ,対応不可
102,北六甲カントリー倶楽部 西コース,651-1522,北区,神戸市北区大沢町上大沢1982,34.836751,135.166443,体育施設・スポーツクラブ,対応不可
103,青い空の郷,651-1512,北区,神戸市北区長尾町上津4663番地の3,34.888401,135.167311,福祉施設,対応不可
104,有馬高原病院,651-1512,北区,神戸市北区長尾町上津4663番地の3,34.888846,135.166693,医療関連施設,対応不可
105,神戸親和女子大学,651-1111,北区,神戸市北区鈴蘭台北町7丁目13番1号,34.727757,135.154948,学校・園・児童館,対応不可
106,介護老人保健施設うらら,651-1603,北区,神戸市北区淡河町淡河字長松寺574,34.812482,135.10049,福祉施設,24時間利用可
107,株式会社フォーユウ・サプライ(リバティベル六甲),651-1101,北区,神戸市北区山田町小部字向井谷1-1,34.730531,135.152749,福祉施設,対応不可
109,ソーシャルコート神戸北,651-1211,北区,神戸市北区小倉台1丁目16-5,34.754986,135.163734,福祉施設,対応不可
110,兵庫開発株式会社有馬ロイヤルゴルフクラブ,651-1616,北区,神戸市北区淡河町北畑571番地,34.831654,135.12905,体育施設・スポーツクラブ,対応不可
111,神港学園神港高校 大池合宿所,651-1242,北区,神戸市北区山田町上谷上字堺山15-10,34.770934,135.201364,学校・園・児童館,対応不可
112,社会福祉法人翠福祉会 みどり保育園,651-1233,北区,神戸市北区日の峰1丁目20-1,34.759463,135.147254,学校・園・児童館,対応不可
113,(財)こうべ市民福祉振興協会 総合センター,651-1102,北区,神戸市北区山田町下谷上字中一里山14-1しあわせの村内,34.707678,135.115636,宿泊施設,対応不可
114,(財)こうべ市民福祉振興協会 たんぽぽの家,651-1102,北区,神戸市北区山田町下谷上字中一里山14-2しあわせの村内,34.706463,135.113262,公園・文教施設,対応不可
115,(財)こうべ市民福祉振興協会 保養センターひよどり,651-1102,北区,神戸市北区山田町下谷上字中一里山14-3しあわせの村内,34.704403,135.114886,宿泊施設,対応不可
116,(財)こうべ市民福祉振興協会 野外活動あおぞら,651-1102,北区,神戸市北区山田町下谷上字中一里山14-4しあわせの村内,34.708801,135.11195,公園・文教施設,対応不可
117,新鉄デイサービスセンター,651-1113,北区,神戸市北区鈴蘭台南町6丁目1番1号,34.721848,135.145868,福祉施設,対応不可
118,株式会社DNP住空間マテリアル,651-1502,北区,神戸市北区道場町塩田2446-3,34.874102,135.241137,会社・事業所,対応不可
119,(財)こうべ市民福祉振興協会 あおぞらオートキャンプ場管理棟受付,651-1102,北区,神戸市北区山田町下谷上字中一里山14-4しあわせの村内,34.712489,135.111418,公園・文教施設,対応不可
120,カルム箕谷・なごみ介護センター,651-1243,北区,神戸市北区山田町下谷上字かんじゃ7-3,34.761892,135.153956,福祉施設,対応不可
121,神戸社会保険介護老人保健施設,651-1145,北区,神戸市北区惣山町2丁目1-9,34.737302,135.154411,福祉施設,対応不可
122,兵庫県立鈴蘭台高等学校,651-1102,北区,神戸市北区山田町下谷上字中一里山9-107,34.719367,135.153484,学校・園・児童館,対応不可
125,みなと銀行 西鈴蘭台支店,651-1131,北区,神戸市北区北五葉1-1-17,34.725645,135.134748,商業施設,対応不可
126,みなと銀行 藤原台支店,651-1302,北区,神戸市北区藤原台中町1-2-2,34.821245,135.220954,商業施設,対応不可
127,神戸電鉄(株)西鈴蘭台駅,651-1131,北区,神戸市北区北五葉1-1-1,34.725814,135.13434,公共交通機関,対応不可
128,神戸電鉄(株)北鈴蘭台駅,651-1142,北区,神戸市北区甲栄台4-1-3,34.739491,135.152156,公共交通機関,対応不可
129,神戸電鉄(株)岡場駅,651-1302,北区,神戸市北区藤原台中町1-1-3,34.821746,135.222391,公共交通機関,対応不可
130,神戸電鉄(株)有馬温泉駅,651-1401,北区,神戸市北区有馬町字ウツギ谷266-2,34.799389,135.245738,公共交通機関,対応不可
131,神戸市立農村環境改善センター,651-1502,北区,神戸市北区道場町塩田1454-2,34.86935,135.23108,官公庁,対応不可
132,神戸信用金庫 西鈴蘭台支店,651-1132,北区,神戸市北区南五葉2-1-35,34.725376,135.133125,商業施設,対応不可
133,神戸三田プレミアムアウトレット,651-1515,北区,神戸市北区上津台7-3,34.860083,135.192104,商業施設,対応不可
134,神戸市立森林植物園,651-1242,北区,神戸市北区山田町上谷上字長尾1-2,34.740671,135.178156,公園・文教施設,対応不可
135,川崎重工業健康保険組合 泉郷荘,651-1401,北区,神戸市北区有馬町1257,34.798627,135.247622,宿泊施設,対応不可
136,株式会社メープルホテル&リゾート,651-1401,北区,神戸市北区有馬町406-3,34.796925,135.253292,宿泊施設,24時間利用可
137,兵庫農業協同組合 上淡河支店,651-1623,北区,神戸市北区淡河町野瀬715,34.817742,135.143879,商業施設,対応不可
138,兵庫農業協同組合 淡河支店,651-1603,北区,神戸市北区淡河町淡河字久保垣748-1,34.813947,135.098534,商業施設,対応不可
139,兵庫農業協同組合 北神長尾支店,651-1511,北区,神戸市北区長尾町宅原2990,34.872229,135.207572,商業施設,対応不可
140,兵庫農業協同組合 大沢支店,651-1524,北区,神戸市北区大沢町中大沢字尾上1-2,34.85871,135.164627,商業施設,対応不可
141,兵庫農業協同組合 八多支店,651-1343,北区,神戸市北区八多町附物783-2,34.826615,135.1994,商業施設,対応不可
142,兵庫農業協同組合 道場支店,651-1502,北区,神戸市北区道場町塩田18-2,34.86806,135.232408,商業施設,対応不可
143,兵庫農業協同組合 唐櫃出張所,651-1331,北区,神戸市北区有野町唐櫃3150,34.786201,135.206944,商業施設,対応不可
144,兵庫農業協同組合 谷上支店,651-1245,北区,神戸市北区谷上東町7-3,34.763257,135.172888,商業施設,対応不可
145,兵庫農業協同組合 西鈴蘭台出張所,651-1132,北区,神戸市北区南五葉1-2-6,34.725283,135.134831,商業施設,対応不可
146,兵庫農業協同組合 農協市場館 道の駅淡河,651-1603,北区,神戸市北区淡河町淡河字弘法垣643-1,34.813337,135.097059,商業施設,対応不可
147,兵庫農業協同組合 神戸北営農総合センター,651-1344,北区,神戸市北区八多町屏風藤ヶ生1145,34.818989,135.175951,会社・事業所,対応不可
148,兵庫農業協同組合 山田支店,651-1253,北区,神戸市北区山田町中字長尾サ28-2,34.765315,135.130475,商業施設,対応不可
149,社会福祉法人 陽気会,651-1313,北区,神戸市北区有野中町2-5-19,34.825501,135.226417,福祉施設,対応不可
150,北神戸田園スポーツ公園 体育館事務所,651-1311,北区,神戸市北区有野町二郎,34.846314,135.222729,体育施設・スポーツクラブ,対応不可
151,北神戸田園スポーツ公園 野球場事務所,651-1311,北区,神戸市北区有野町二郎,34.845386,135.221361,体育施設・スポーツクラブ,対応不可
152,鹿の子台地域福祉センター,651-1513,北区,神戸市北区鹿の子台北町6丁目34-3,34.861899,135.218195,小集会場・公民館・地域福祉センター,対応不可
153,広陵地域福祉センター,651-1211,北区,神戸市北区小倉台2-15-3,34.751376,135.164021,小集会場・公民館・地域福祉センター,対応不可
154,播州信用金庫 谷上支店,651-1245,北区,神戸市北区谷上東町8-29,34.762942,135.173081,商業施設,対応不可
155,介護付有料老人ホーム ハーモニアス谷上,651-1244,北区,神戸市北区谷上南町15-10,34.763761,135.1806,福祉施設,対応不可
156,神戸市環境局北事業所,651-1243,北区,神戸市北区山田町下谷上字五郎本1-1,34.762234,135.158017,官公庁,対応不可
157,神戸市環境局妙賀山クリーンセンター,651-1101,北区,神戸市北区山田町小部字妙賀山1-1,34.73329,135.161909,官公庁,対応不可
158,御所坊,651-1401,北区,神戸市北区有馬町858番地,34.796669,135.247217,宿泊施設,対応不可
159,御所坊 (有馬玩具博物館),651-1401,北区,神戸市北区有馬町797,34.797083,135.247949,宿泊施設,対応不可
160,御所坊 (御所別墅),651-1401,北区,神戸市北区有馬町958,34.793712,135.245889,宿泊施設,対応不可
161,御所坊 (ホテル花小宿),651-1401,北区,神戸市北区有馬町1007,34.796242,135.247714,宿泊施設,対応不可
162,御幸荘花結び,651-1401,北区,神戸市北区有馬町351番地,34.796028,135.252669,宿泊施設,24時間利用可
163,陸楓閣,651-1401,北区,神戸市北区有馬町1537-2,34.798456,135.245132,宿泊施設,24時間利用可
164,橋乃家別館嵐翠,651-1401,北区,神戸市北区有馬町1684,34.793077,135.244383,宿泊施設,対応不可
165,龍泉閣,651-1401,北区,神戸市北区有馬町ウツギ谷1663,34.800368,135.243922,宿泊施設,対応不可
166,奥の坊,651-1401,北区,神戸市北区有馬町1206,34.797573,135.248662,宿泊施設,24時間利用可
167,円山壮 竹取亭,651-1401,北区,神戸市北区有馬町1364-1,34.795245,135.252421,宿泊施設,対応不可
168,円山壮 康貴,651-1401,北区,神戸市北区有馬町1401-1,34.797362,135.249105,宿泊施設,24時間利用可
169,角の坊旅館,651-1401,北区,神戸市北区有馬町878番地,34.795839,135.247119,宿泊施設,24時間利用可
170,上大坊,651-1401,北区,神戸市北区有馬町1175番,34.796666,135.248837,宿泊施設,24時間利用可
171,中の坊 瑞苑,651-1401,北区,神戸市北区有馬町808番,34.797595,135.247997,宿泊施設,24時間利用可
172,銀水荘別館 兆楽,651-1401,北区,神戸市北区有馬町1654番1号,34.802862,135.247047,宿泊施設,24時間利用可
173,古泉閣,651-1401,北区,神戸市北区有馬町1455番1号,34.799748,135.250798,宿泊施設,24時間利用可
174,兵庫県体育協会 天王ダムスポーツガーデン,651-1112,北区,神戸市北区鈴蘭台東町9丁目3-5,34.721056,135.157963,体育施設・スポーツクラブ,対応不可
175,北在宅福祉センター,651-1114,北区,神戸市北区鈴蘭台西町1丁目26-2,34.726572,135.145436,福祉施設,対応不可
176,財団法人日本老人福祉財団 神戸ゆうゆうの里,651-1133,北区,神戸市北区鳴子3丁目1-2,34.725536,135.124675,福祉施設,対応不可
177,神戸電鉄(株)北神急行電鉄(株) 谷上駅,651-1245,北区,神戸市北区谷上東町1番1号,34.761665,135.171191,公共交通機関,対応不可
178,大池地域福祉センター,651-1333,北区,神戸市北区東大池2丁目3番13号,34.780349,135.199793,小集会場・公民館・地域福祉センター,対応不可
180,有限会社 まんてん薬局,651-1221,北区,神戸市北区緑町7丁目1番19号,34.746313,135.152517,医療関連施設,対応不可
181,君影保育所,651-1100,北区,神戸市北区君影5丁目1番17号,34.718385,135.139555,学校・園・児童館,対応不可
182,ひよどり台保育所,651-1123,北区,神戸市北区ひよどり台2丁目1-4,34.698732,135.12066,学校・園・児童館,対応不可
183,桜の宮保育所,651-1142,北区,神戸市北区甲栄台2丁目4-1,34.740457,135.149643,学校・園・児童館,対応不可
185,からと保育所,651-1332,北区,神戸市北区唐櫃台2丁目38番5号,34.790064,135.214949,学校・園・児童館,対応不可
186,八多児童館,651-1343,北区,神戸市北区八多町附物393-1,34.821585,135.197354,学校・園・児童館,対応不可
188,谷上学童保育コーナー,651-1243,北区,神戸市北区山田町下谷上字中上16,34.763371,135.169731,学校・園・児童館,対応不可
189,神戸市立道場児童館,651-1505,北区,神戸市北区道場町日下部663-3,34.863092,135.228413,学校・園・児童館,対応不可
190,神戸市立北五葉児童館,651-1131,北区,神戸市北区北五葉1-7-24,34.727573,135.134632,学校・園・児童館,対応不可
191,神戸市立小部児童館,651-1111,北区,神戸市北区鈴蘭台北町7丁目11-40,34.728357,135.1576,学校・園・児童館,対応不可
192,神戸市立すずらんだい児童館,651-1114,北区,神戸市北区鈴蘭台西町1丁目22-1,34.72759,135.144145,学校・園・児童館,対応不可
193,神港園しあわせの家,651-1102,北区,神戸市北区山田町下谷上字中一里山14-1,34.704753,135.113093,福祉施設,対応不可
194,神戸市立鈴蘭台西町保育所,651-1114,北区,神戸市北区鈴蘭台西町3丁目6番20号,34.728791,135.140389,学校・園・児童館,対応不可
195,社会福祉法人みのり福祉会 有野台児童館,651-1321,北区,神戸市北区有野台6丁目22の1,34.811761,135.233192,学校・園・児童館,対応不可
196,神戸市立南五葉児童館,651-1132,北区,神戸市北区南五葉3-5-21,34.719645,135.133689,学校・園・児童館,対応不可
197,ひよどり台児童館,651-1123,北区,神戸市北区ひよどり台2丁目1-1,34.698408,135.120815,学校・園・児童館,対応不可
198,神戸市立西山児童館,651-1306,北区,神戸市北区菖蒲が丘1丁目14-3,34.839075,135.217596,学校・園・児童館,対応不可
199,株式会社 欽山,651-1401,北区,神戸市北区有馬町1302-4,34.799777,135.243793,宿泊施設,24時間利用可
200,桜ノ宮児童館,651-1142,北区,神戸市北区甲栄台2丁目4-1,34.740496,135.149393,学校・園・児童館,対応不可
201,かんぽの宿 有馬,651-1401,北区,神戸市北区有馬町1617の1,34.79397,135.248922,宿泊施設,24時間利用可
202,神戸市立有野児童館,651-1313,北区,神戸市北区有野中町2丁目20の19,34.826367,135.224437,学校・園・児童館,対応不可
203,広陵児童館,651-1212,北区,神戸市北区筑紫が丘2丁目22-11,34.747731,135.167376,学校・園・児童館,対応不可
204,阪神高速 藍那営業所,651-1104,北区,神戸市北区山田町藍那地先,34.730662,135.128051,会社・事業所,対応不可
205,神戸市建設局北建設事務所,651-1331,北区,神戸市北区有野町唐櫃3064,34.786682,135.207523,官公庁,対応不可
207,神戸市立有野幼稚園,651-1313,北区,神戸市北区有野中町1丁目7番8号,34.819779,135.222351,学校・園・児童館,対応不可
208,神戸市立すずかぜ幼稚園,651-1111,北区,神戸市北区鈴蘭台北町3丁目26-1,34.730069,135.148469,学校・園・児童館,対応不可
209,神戸市立道場幼稚園,651-1502,北区,神戸市北区道場町塩田1460,34.870494,135.232939,学校・園・児童館,対応不可
210,神戸市立長尾幼稚園,651-1511,北区,神戸市北区長尾町宅原130,34.872781,135.203766,学校・園・児童館,対応不可
211,神戸市淡河好徳幼稚園,651-1615,北区,神戸市北区淡河町萩原1087,34.816804,135.102795,学校・園・児童館,対応不可
212,神戸市からと幼稚園,651-1332,北区,神戸市北区唐櫃台2丁目38-10,34.790415,135.21484,学校・園・児童館,対応不可
213,神戸市山田幼稚園,651-1253,北区,神戸市北区山田町中長尾サ18,34.766048,135.131837,学校・園・児童館,対応不可
214,神戸市立やまびこ幼稚園,651-1204,北区,神戸市北区花山東町3番2,34.765461,135.187173,学校・園・児童館,対応不可
215,神戸市大沢幼稚園,651-1524,北区,神戸市北区大沢町中大沢976番,34.854829,135.165199,学校・園・児童館,対応不可
216,特定非営利活動法人 山田の里 自然学校,651-1264,北区,神戸市北区山田町衝原字道南13-1,34.768542,135.104118,公園・文教施設,対応不可
217,神付ふるさと村,651-1523,北区,神戸市北区大沢町神付1348-2,34.833707,135.186366,公園・文教施設,対応不可
218,桜の宮地域福祉センター,651-1142,北区,神戸市北区甲栄台2丁目2-20,34.742045,135.148991,小集会場・公民館・地域福祉センター,対応不可
219,南五葉地域福祉センター,651-1132,北区,神戸市北区南五葉5丁目1-1,34.722949,135.136633,小集会場・公民館・地域福祉センター,対応不可
220,神戸市立北神区民センター,651-1302,北区,神戸市北区藤原台中町1丁目3-1,34.82236,135.219493,集会場・ホール,対応不可
221,鈴蘭台地域福祉センター,651-1113,北区,神戸市北区鈴蘭台南町2丁目14-24,34.725185,135.140738,小集会場・公民館・地域福祉センター,対応不可
222,神戸市立八多幼稚園,651-1343,北区,神戸市北区八多町附物383-1,34.822263,135.196646,学校・園・児童館,対応不可
223,甲緑地域福祉センター,651-1221,北区,神戸市北区緑町2-7-28,34.750226,135.148064,小集会場・公民館・地域福祉センター,対応不可
224,小部東地域福祉センター,651-1112,北区,神戸市北区鈴蘭台東町6-2-6,34.722538,135.151848,小集会場・公民館・地域福祉センター,対応不可
225,神戸市建設局公園砂防部森林整備事務所,651-1102,北区,神戸市北区山田町下谷上字中一里山4-1,34.72059,135.172973,官公庁,対応不可
226,生活共同組合コープこうべ コープ藤原台,651-1302,北区,神戸市北区藤原台中町1丁目2-2,34.821575,135.221037,商業施設,対応不可
227,生活共同組合コープこうべ コープ鈴蘭台東,651-1111,北区,神戸市北区鈴蘭台北町1丁目12番5号,34.72604,135.146131,商業施設,対応不可
228,生活共同組合コープこうべ コープ北鈴蘭台,651-1142,北区,神戸市北区甲栄台4丁目2番24号,34.739488,135.151174,商業施設,対応不可
229,生活共同組合コープこうべ コープデイズ神戸北町,651-1233,北区,神戸市北区日の峰2丁目7,34.755817,135.143683,商業施設,対応不可
230,小部地域福祉センター,651-1111,北区,神戸市北区鈴蘭台北町4-9-9,34.72789,135.149134,小集会場・公民館・地域福祉センター,対応不可
231,泉台地域福祉センター,651-1141,北区,神戸市北区泉台3丁目13-1,34.741576,135.141043,小集会場・公民館・地域福祉センター,対応不可
232,藍那小河地域福祉センター,651-1104,北区,神戸市北区山田町藍那下ノ町77-8,34.734595,135.113137,小集会場・公民館・地域福祉センター,対応不可
233,株式会社 ヒョウ工務店,651-1333,北区,神戸市北区東大池2丁目24-11,34.780429,135.201296,会社・事業所,対応不可
234,六甲山トンネル料金所事務所,651-1331,北区,神戸市北区有野町唐櫃字六甲山4512-7,34.769734,135.21473,会社・事業所,対応不可
235,神戸市道路公社 大沢料金所,651-1522,北区,神戸市北区大沢町上大沢字細池2147-15,34.852346,135.191964,会社・事業所,対応不可
236,神戸市道路公社 柳谷料金所,651-1312,北区,神戸市北区有野町有野字池ノ谷3767-3,34.80606,135.202534,会社・事業所,対応不可
237,神戸市道路公社 有野料金所,651-1312,北区,神戸市北区有野町有野字池ノ谷3764,34.805175,135.201311,会社・事業所,対応不可
238,ザ グランリゾートプリンセス有馬,651-1401,北区,神戸市北区有馬町1338,34.794937,135.252119,宿泊施設,対応不可
239,有馬御苑,651-1401,北区,神戸市北区有馬町1296,34.798052,135.246869,宿泊施設,対応不可
240,有馬温泉ソサエティ,651-1401,北区,神戸市北区有馬町416,34.796442,135.253628,宿泊施設,対応不可
241,ダイヤモンド有馬温泉ソサエティ,651-1401,北区,神戸市北区有馬町423,34.796823,135.254368,宿泊施設,対応不可
242,有馬保養所 瑞宝園,651-1401,北区,神戸市北区有馬町1751,34.796154,135.25438,宿泊施設,対応不可
243,神戸市立神戸セミナーハウス,651-1503,北区,神戸市北区道場町生野318-2,34.851334,135.243846,宿泊施設,対応不可
244,八多地域福祉センター,651-1343,北区,神戸市北区八多町附物393-1,34.821707,135.197381,小集会場・公民館・地域福祉センター,対応不可
245,北五葉地域福祉センター,651-1131,北区,神戸市北区北五葉3丁目7番1号,34.730405,135.136739,小集会場・公民館・地域福祉センター,対応不可
246,大沢地域福祉センター,651-1524,北区,神戸市北区大沢町中大沢字泓996-1,34.854479,135.166602,小集会場・公民館・地域福祉センター,対応不可
247,有野台地域福祉センター,651-1321,北区,神戸市北区有野台2丁目1番,34.811573,135.228137,小集会場・公民館・地域福祉センター,対応不可
248,有野地域福祉センター,651-1313,北区,神戸市北区有野中町2丁目20-19,34.826282,135.224687,小集会場・公民館・地域福祉センター,対応不可
249,君影地域福祉センター,651-1122,北区,神戸市北区君影町1丁目2-10,34.715372,135.135985,小集会場・公民館・地域福祉センター,対応不可
250,筑紫が丘地域福祉センター,651-1212,北区,神戸市北区筑紫が丘3-2-9,34.746075,135.163412,小集会場・公民館・地域福祉センター,対応不可
251,谷上地域福祉センター,651-1100,北区,神戸市北区谷上西町7-3,34.761334,135.169083,小集会場・公民館・地域福祉センター,対応不可
252,星和台鳴子地域福祉センター,651-1133,北区,神戸市北区鳴子2丁目11-1,34.721713,135.126311,小集会場・公民館・地域福祉センター,対応不可
253,山田地域福祉センター,651-1254,北区,神戸市北区山田町福地字ガケノ上18-3,34.767302,135.131049,小集会場・公民館・地域福祉センター,対応不可
254,唐櫃地域福祉センター,651-1332,北区,神戸市北区唐櫃台3丁目27-1,34.788707,135.214714,小集会場・公民館・地域福祉センター,対応不可
255,淡河地域福祉センター,651-1615,北区,神戸市北区淡河町萩原桶垣内323,34.812667,135.104353,小集会場・公民館・地域福祉センター,対応不可
256,長尾地域福祉センター,651-1512,北区,神戸市北区長尾町上津194-1,34.872311,135.20358,小集会場・公民館・地域福祉センター,対応不可
257,ひよどり台地域福祉センター,651-1123,北区,神戸市北区ひよどり台3-8,34.698731,135.121919,小集会場・公民館・地域福祉センター,対応不可
258,西山地域福祉センター,651-1306,北区,神戸市北区菖蒲が丘1丁目14-3,34.839228,135.21752,小集会場・公民館・地域福祉センター,対応不可
259,有野台第二地域福祉センター,651-1321,北区,神戸市北区有野台6丁目22-1,34.811806,135.233032,小集会場・公民館・地域福祉センター,対応不可
260,箕谷地域福祉センター,651-1221,北区,神戸市北区緑町4丁目6-3,34.752339,135.150993,小集会場・公民館・地域福祉センター,対応不可
261,花山地域福祉センター,651-1204,北区,神戸市北区花山東町3-3,34.764793,135.187529,小集会場・公民館・地域福祉センター,対応不可
262,藤原台地域福祉センター,651-1302,北区,神戸市北区藤原台中町7-14-16,34.813791,135.21528,小集会場・公民館・地域福祉センター,対応不可
263,市立鈴蘭台南町保育所,651-1113,北区,神戸市北区鈴蘭台南町4丁目2番28号,34.723291,135.137592,学校・園・児童館,対応不可
264,道場地域福祉センター,651-1502,北区,神戸市北区道場町塩田字西河原1439-3,34.867296,135.230928,小集会場・公民館・地域福祉センター,対応不可
265,上淡河地域福祉センター,651-1623,北区,神戸市北区淡河町野瀬字新田459-2,34.822128,135.151222,小集会場・公民館・地域福祉センター,対応不可
266,大原・桂木地域福祉センター,651-1222,北区,神戸市北区大原3丁目21番,34.749493,135.14033,小集会場・公民館・地域福祉センター,対応不可
267,桂木児童館,651-1223,北区,神戸市北区桂木1丁目2-4,34.748451,135.145759,学校・園・児童館,対応不可
268,ひよどり台交流プラザ,651-1123,北区,神戸市北区ひよどり台3-4-4,34.698071,135.123655,小集会場・公民館・地域福祉センター,対応不可
269,コープこうべ コープ有野,651-1321,北区,神戸市北区有野台2丁目1-6,34.81298,135.228217,商業施設,対応不可
270,コープこうべ コープからと,651-1332,北区,神戸市北区唐櫃台2丁目23番8号,34.791069,135.212233,商業施設,対応不可
271,コープこうべ コープ西鈴蘭台,651-1132,北区,神戸市北区南五葉1丁目1-3,34.723004,135.134282,商業施設,対応不可
272,兵庫県神戸北警察署,651-1142,北区,神戸市北区甲栄台3丁目6-1,34.740559,135.147969,官公庁,24時間利用可
273,兵庫県有馬警察署,651-1301,北区,神戸市北区藤原台北町6丁目18番1号,34.833367,135.224631,官公庁,24時間利用可
274,(株)アイオー精密 神戸工場,651-1516,北区,神戸市北区赤松台2丁目3-1,34.878952,135.175138,会社・事業所,対応不可
275,神戸市立ひよどり台ホーム,651-1124,北区,神戸市北区ひよどり北町3丁目2番地,34.709246,135.120324,福祉施設,24時間利用可
276,大原山公園テニスコート・駐車場,651-1222,北区,神戸市北区大原2丁目31,34.745161,135.137178,体育施設・スポーツクラブ,対応不可
277,掖谷公園テニスコート・駐車場,651-1514,北区,神戸市北区鹿の子台南町5-2,34.857645,135.213179,体育施設・スポーツクラブ,対応不可
278,株式会社 北神社 花浄院,651-1101,北区,神戸市北区山田町小部6番3,34.736689,135.158914,商業施設,対応不可
279,セブンイレブン 神戸淡河町店,651-1603,北区,神戸市北区淡河町淡河648-2,34.813386,135.096578,商業施設,24時間利用可
280,宗教法人法性寺 道場保育園,651-1501,北区,神戸市北区道場町道場106,34.864324,135.230519,学校・園・児童館,対応不可
281,東急ハーヴェストクラブ有馬六彩,651-1401,北区,神戸市北区有馬町341-1,34.794503,135.249893,宿泊施設,24時間利用可
282,エクシブ有馬離宮,651-1401,北区,神戸市北区有馬町1661-11,34.800279,135.242684,宿泊施設,24時間利用可
1,神戸高速鉄道(株) 高速長田駅,653-0016,長田区,神戸市長田区北町1-2,34.667265,135.15178,公共交通機関,対応不可
2,釜田歯科医院,653-0843,長田区,神戸市長田区御屋敷通2丁目3-1,34.661285,135.144407,医療関連施設,対応不可
3,兵庫県立文化体育館,653-0837,長田区,神戸市長田区蓮池町1-1,34.663514,135.144154,体育施設・スポーツクラブ,対応不可
4,神戸市営地下鉄 新長田駅(西神山手線),653-0841,長田区,神戸市長田区松野通1丁目,34.658012,135.14537,公共交通機関,対応不可
5,神戸市営地下鉄 新長田駅(海岸線),653-0038,長田区,神戸市長田区若松町4丁目,34.656385,135.145348,公共交通機関,対応不可
6,神戸市営地下鉄 長田駅,653-0004,長田区,神戸市長田区四番町7丁目,34.668777,135.15183,公共交通機関,対応不可
7,新長田まちづくり(株) アスタくにづか3番館,653-0041,長田区,神戸市長田区久保町6丁目1-1-401,34.653407,135.147194,商業施設,24時間利用可
8,新長田まちづくり(株) アスタプラザウエスト,653-0041,長田区,神戸市長田区大橋町6丁目1-1,34.654824,135.144743,商業施設,24時間利用可
9,長田区役所,653-0016,長田区,神戸市長田区北町3丁目4番地の3,34.665803,135.150959,官公庁,24時間利用可
10,神戸常盤短期大学,653-0838,長田区,神戸市長田区大谷町2丁目6番2号,34.665579,135.141468,学校・園・児童館,対応不可
12,兵庫県立長田高等学校,653-0821,長田区,神戸市長田区池田谷町2丁目5,34.670459,135.144045,学校・園・児童館,対応不可
13,神戸市立 新長田図書館,653-0835,長田区,神戸市長田区細田町7丁目1-27,34.659888,135.144706,公園・文教施設,対応不可
14,神戸信用金庫 西神戸支店,653-0042,長田区,神戸市長田区二葉町4丁目7-11,34.653568,135.148441,商業施設,対応不可
15,医療法事社団 新長田眼科,653-0036,長田区,神戸市長田区腕塚町4丁目2番11号,34.655462,135.147625,医療関連施設,対応不可
16,駒ケ林中学校,653-0038,長田区,神戸市長田区若松町7-1-23,34.654982,135.143573,学校・園・児童館,対応不可
17,高取台中学校,653-0856,長田区,神戸市長田区高取山町1-1-1,34.671515,135.137442,学校・園・児童館,対応不可
18,長田中学校,653-0025,長田区,神戸市長田区真野町8-1,34.661463,135.153485,学校・園・児童館,対応不可
19,雲雀丘中学校,653-0879,長田区,神戸市長田区雲雀ケ丘1-1-1,34.691545,135.134305,学校・園・児童館,対応不可
20,丸山中学校,653-0806,長田区,神戸市長田区大丸町2-17-1,34.677946,135.148731,学校・園・児童館,対応不可
21,西代中学校,653-0827,長田区,神戸市長田区上池田2-4-1,34.668265,135.139763,学校・園・児童館,対応不可
22,育英高等学校,653-0855,長田区,神戸市長田区長尾町2-1-15,34.668171,135.134909,学校・園・児童館,対応不可
23,神戸市立長田公民館,653-0004,長田区,神戸市長田区四番町4丁目51,34.669653,135.15462,官公庁,対応不可
24,こうべ市歯科センター,653-0042,長田区,神戸市長田区二葉町5丁目1-1,34.652742,135.147709,医療関連施設,対応不可
25,新長田勤労市民センター,653-0038,長田区,神戸市長田区若松町5丁目5-1,34.65599,135.144668,集会場・ホール,対応不可
26,ピフレホール,653-0038,長田区,神戸市長田区若松町4丁目2-15,34.656876,135.145965,集会場・ホール,対応不可
27,介護老人保健施設ヴィラ光陽,653-0872,長田区,神戸市長田区大日丘町2丁目7,34.690028,135.137562,福祉施設,24時間利用可
28,神戸市防災コミュニティーセンター,653-0016,長田区,神戸市長田区北町3丁目4-8,34.665948,135.150546,官公庁,対応不可
29,兵庫県立長田商業高等学校,653-0821,長田区,神戸市長田区池田谷町2丁目5,34.670455,135.144041,学校・園・児童館,対応不可
30,近畿産業信用組合長田支店,653-0842,長田区,神戸市長田区水笠通4丁目4-25,34.659553,135.141913,商業施設,対応不可
31,プレノ長田管理組合,653-0811,長田区,神戸市長田区大塚町1丁目8-11,34.670307,135.149191,商業施設,対応不可
32,神戸市営地下鉄 苅藻駅(海岸線),653-0024,長田区,神戸市長田区浜添通5丁目,34.653617,135.156483,公共交通機関,対応不可
33,神戸市営地下鉄 駒ケ林駅(海岸線),653-0035,長田区,神戸市長田区庄田町4丁目,34.651907,135.149811,公共交通機関,対応不可
34,三ツ星ベルト(株)神戸事業所,653-0024,長田区,神戸市長田区浜添通4丁目1-21,34.654978,135.156522,会社・事業所,24時間利用可
35,神戸村野工業高等学校,653-0003,長田区,神戸市長田区五番町8丁目5,34.667347,135.150047,学校・園・児童館,対応不可
36,ミヨシ油脂(株)神戸工場,653-0032,長田区,神戸市長田区苅藻通7-1-48,34.651685,135.156406,会社・事業所,24時間利用可
37,山陽電気鉄道 西代駅,653-0843,長田区,神戸市長田区御屋敷通2丁目6-1,34.662548,135.144329,公共交通機関,対応不可
38,愛の園あんしんすこやかセンター,653-0811,長田区,神戸市長田区大塚町5丁目1-7,34.673125,135.147226,福祉施設,対応不可
39,室内小学校,653-0803,長田区,神戸市長田区前原町1丁目17-1,34.673351,135.154165,学校・園・児童館,対応不可
40,名倉小学校,653-0801,長田区,神戸市長田区房王寺町4丁目7-15,34.680112,135.148211,学校・園・児童館,対応不可
41,雲雀ヶ丘小学校,653-0879,長田区,神戸市長田区雲雀ヶ丘1丁目1-2,34.690925,135.135469,学校・園・児童館,対応不可
42,丸山小学校,653-0874,長田区,神戸市長田区西丸山町3丁目2-1,34.686551,135.137599,学校・園・児童館,対応不可
43,宮川小学校,653-0812,長田区,神戸市長田区長田町4丁目1-1,34.672013,135.147144,学校・園・児童館,対応不可
44,池田小学校,653-0824,長田区,神戸市長田区池田上町19,34.6681,135.145577,学校・園・児童館,対応不可
45,蓮池小学校,653-0838,長田区,神戸市長田区大谷町1丁目1-10,34.662736,135.143379,学校・園・児童館,対応不可
46,長田小学校,653-0862,長田区,神戸市長田区西山町2丁目4-1,34.672298,135.143529,学校・園・児童館,対応不可
47,五位ノ池小学校,653-0851,長田区,神戸市長田区五位ノ池町2丁目3-1,34.666189,135.136622,学校・園・児童館,対応不可
48,御蔵小学校,653-0013,長田区,神戸市長田区一番町4丁目1,34.666384,135.154987,学校・園・児童館,対応不可
49,真野小学校,653-0032,長田区,神戸市長田区苅藻通3丁目4-32,34.656902,135.15422,学校・園・児童館,対応不可
50,長田南小学校,653-0836,長田区,神戸市長田区神楽町1丁目3-1,34.66197,135.150151,学校・園・児童館,対応不可
51,真陽小学校,653-0042,長田区,神戸市長田区二葉町1丁目5-5,34.655576,135.151862,学校・園・児童館,対応不可
52,駒ケ林小学校,653-0051,長田区,神戸市長田区野田町6丁目1-16,34.650057,135.141541,学校・園・児童館,対応不可
53,昭和シェル石油(株)神戸事業所,653-0055,長田区,神戸市長田区浪松町6丁目1-17,34.646394,135.138469,会社・事業所,対応不可
55,(株)三井住友銀行長田支店,653-0004,長田区,神戸市長田区四番町8丁目6-1,34.66786,135.150704,商業施設,対応不可
56,丸正建設株式会社,653-0801,長田区,神戸市長田区房王寺町7丁目2-7,34.680274,135.150541,会社・事業所,対応不可
57,ゆうとぴ庵西神戸,653-0855,長田区,神戸市長田区長尾町2丁目13-14,34.669238,135.133812,会社・事業所,対応不可
58,建設局中央水環境センター,653-0044,長田区,神戸市長田区南駒栄町1-44,34.647695,135.151464,官公庁,対応不可
59,阪本歯科医院,653-0805,長田区,神戸市長田区片山町5-11-24-105,34.677845,135.146774,医療関連施設,対応不可
60,神戸野田高等学校,653-0052,長田区,神戸市長田区海運町6-1-7,34.649376,135.141229,学校・園・児童館,対応不可
61,神戸信用金庫 長田支店,653-0812,長田区,神戸市長田区長田町2丁目1-6,34.670152,135.148043,商業施設,対応不可
62,長田庄山地域福祉センター,653-0853,長田区,神戸市長田区庄山町2丁目1-6,34.662402,135.136004,小集会場・公民館・地域福祉センター,対応不可
63,コナミスポーツクラブ新長田,653-0038,長田区,神戸市長田区若松町5丁目2-1,34.655566,135.145319,体育施設・スポーツクラブ,対応不可
64,環境局 長田事業所,653-0025,長田区,神戸市長田区真野町9-24,34.660832,135.151938,官公庁,対応不可
65,苅藻島クリーンセンター,653-0033,長田区,神戸市長田区苅藻島町3丁目12-28,34.648428,135.160859,官公庁,対応不可
66,兵庫韓国文化教育院 在日本大韓民国民団,653-0031,長田区,神戸市長田区西尻池町2丁目4-30,34.658504,135.150697,会社・事業所,対応不可
67,ジョイプラザ管理事務所,653-0038,長田区,神戸市長田区若松町5丁目5-1,34.656508,135.144649,商業施設,対応不可
68,高取台サンハイツ,653-0827,長田区,神戸市長田区上池田3丁目17-8,34.670193,135.138442,集合住宅,対応不可
69,おおにし歯科,653-0024,長田区,神戸市長田区浜添通3丁目4-10,34.656614,135.155645,医療関連施設,対応不可
70,ディサービスセンターふれんど神戸,653-0801,長田区,神戸市長田区房王寺町7丁目1-7,34.67998,135.150981,福祉施設,対応不可
72,神戸市立本庄保育所,653-0053,長田区,神戸市長田区本庄町6丁目6-3,34.648995,135.139945,学校・園・児童館,対応不可
73,神戸市立長田保育所,653-0811,長田区,神戸市長田区大塚町1丁目1-31,34.670483,135.150865,学校・園・児童館,対応不可
74,神戸市立浪松保育所,653-0055,長田区,神戸市長田区浪松町2丁目1-7,34.650871,135.13528,学校・園・児童館,対応不可
75,神戸市立しりいけ保育所,653-0022,長田区,神戸市長田区東尻池町6丁目3-37,34.657016,135.157571,学校・園・児童館,対応不可
77,神戸市立房王寺保育所,653-0801,長田区,神戸市長田区房王寺町5丁目1-5-100,34.680125,135.148872,学校・園・児童館,対応不可
78,神戸市立五位の池児童館,653-0855,長田区,神戸市長田区長尾町1丁目4-30,34.666467,135.136337,学校・園・児童館,対応不可
79,神戸市立菅原保育所,653-0015,長田区,神戸市長田区菅原通1丁目72-1,34.666391,135.158208,学校・園・児童館,対応不可
80,神戸市立明泉寺保育所,653-0884,長田区,神戸市長田区明泉寺町1丁目6-8,34.679085,135.144265,学校・園・児童館,対応不可
82,神戸市立長田東保育所,653-0004,長田区,神戸市長田区四番町3丁目4-49,34.670737,135.155881,学校・園・児童館,対応不可
83,丸山地域福祉センター,653-0875,長田区,神戸市長田区丸山町2丁目-3-50,34.683015,135.140175,小集会場・公民館・地域福祉センター,対応不可
84,神戸市立細田児童館,653-0835,長田区,神戸市長田区細田町7丁目1-30,34.659887,135.144704,学校・園・児童館,対応不可
85,神戸市立駒栄保育所,653-0034,長田区,神戸市長田区駒栄町3丁目1-17,34.652501,135.150901,学校・園・児童館,対応不可
86,神戸市立長田児童館,653-0004,長田区,神戸市長田区四番町4丁目54,34.67,135.154042,学校・園・児童館,対応不可
87,神戸市立長楽児童館,653-0052,長田区,神戸市長田区海運町7丁目1-23,34.648652,135.142126,学校・園・児童館,対応不可
88,神戸市立池田児童館,653-0814,長田区,神戸市長田区池田広町41-10,34.67012,135.144687,学校・園・児童館,対応不可
89,神戸市立大日丘児童館,653-0872,長田区,神戸市長田区大日丘町3丁目8-10,34.688943,135.135773,学校・園・児童館,対応不可
90,神戸市立志里池児童館,653-0032,長田区,神戸市長田区苅藻通1丁目4-7,34.659622,135.152253,学校・園・児童館,対応不可
91,街かどケアホームのどか,653-0879,長田区,神戸市長田区雲雀ヶ丘1丁目2-5,34.690929,135.134268,福祉施設,対応不可
93,グリーンコート新生,653-0854,長田区,神戸市長田区平和台町2丁目1-23,34.665961,135.134092,福祉施設,対応不可
94,兵庫県立夢野台高校,653-0801,長田区,神戸市長田区房王寺町2丁目1-1,34.677166,135.153692,学校・園・児童館,対応不可
95,兵庫県長田警察署,653-0016,長田区,神戸市長田区北町3丁目4番9号,34.666446,135.15078,官公庁,24時間利用可
96,神戸市立西野幼稚園,653-0802,長田区,神戸市長田区重池町1丁目10-8,34.675604,135.154781,学校・園・児童館,対応不可
97,高取山中ノ茶屋記帳所,653-0856,長田区,神戸市長田区高取山町8,34.676131,135.135696,商業施設,対応不可
98,宮川地域福祉センター,653-0812,長田区,神戸市長田区長田町2丁目2-1,34.670885,135.148158,小集会場・公民館・地域福祉センター,対応不可
99,神戸市立片山児童館,653-0805,長田区,神戸市長田区片山町3丁目2-11,34.675055,135.149184,学校・園・児童館,対応不可
100,高取山地域福祉センター,653-0856,長田区,神戸市長田区高取山町1丁目2-3,34.670046,135.136694,小集会場・公民館・地域福祉センター,対応不可
101,長田地域福祉センター,653-0862,長田区,神戸市長田区西山町2丁目4-1,34.672299,135.143527,小集会場・公民館・地域福祉センター,対応不可
103,若松地域福祉センター,653-0038,長田区,神戸市長田区若松町8丁目2-13,34.65426,135.142217,小集会場・公民館・地域福祉センター,対応不可
104,真陽地域福祉センター,653-0041,長田区,神戸市長田区久保町3丁目9-6,34.654402,135.149014,小集会場・公民館・地域福祉センター,対応不可
106,西神戸県民税事務所,653-0055,長田区,神戸市長田区浪松町3丁目2-5,34.649531,135.135763,官公庁,対応不可
107,高取台ロイヤルマンション,653-0861,長田区,神戸市長田区林山町1-16 高取台ロイヤルマンション,34.677227,135.142811,集合住宅,対応不可
108,三井製糖株式会社 長田工場,653-0023,長田区,神戸市長田区東尻池新町1-26,34.656636,135.159048,会社・事業所,対応不可
109,細田地域福祉センター,653-0835,長田区,神戸市長田区細田町7丁目1-30,34.659887,135.144708,小集会場・公民館・地域福祉センター,対応不可
110,二葉地域福祉センター,653-0042,長田区,神戸市長田区二葉町6丁目5-1,34.652313,135.147323,小集会場・公民館・地域福祉センター,対応不可
111,神戸市立地域人材支援センター 特定非営利活動法人 ふたば,653-0042,長田区,神戸市長田区二葉町7-1-18,34.651679,135.146208,官公庁,対応不可
112,久保商店(水笠通公園管理会),653-0842,長田区,神戸市長田区水笠通1丁目2-7,34.660689,135.144506,商業施設,対応不可
113,介護老人保健施設神戸長者町白寿苑,653-0866,長田区,神戸市長田区長者町19-1,34.681598,135.132363,福祉施設,対応不可
114,高齢者ケアセンターながたサテライト宮丘,653-0000,長田区,神戸市長田区宮丘1丁目3-11,34.672251,135.140452,福祉施設,24時間利用可
115,特別養護老人ホーム 長田すみれ園,653-0877,長田区,神戸市長田区鹿松町2丁目9-43,34.684323,135.130608,福祉施設,対応不可
116,高取台幼稚園,653-0827,長田区,神戸市長田区上池田3丁目17-6,34.670003,135.138623,学校・園・児童館,対応不可
117,名倉みふね幼稚園,653-0883,長田区,神戸市長田区名倉町2丁目5-5,34.677799,135.144671,学校・園・児童館,対応不可
118,あけぼの幼稚園,653-0805,長田区,神戸市長田区片山町1丁目6-12,34.671582,135.151483,学校・園・児童館,対応不可
119,近田幼稚園,653-0034,長田区,神戸市長田区駒栄町4丁目1-11,34.652262,135.150701,学校・園・児童館,対応不可
120,学校法人天神学園名倉幼稚園,653-0882,長田区,神戸市長田区長田天神町1丁目17-13,34.680568,135.14623,学校・園・児童館,対応不可
121,市立真野児童館,653-0022,長田区,神戸市長田区東尻池町6丁目3-19,34.656753,135.156767,学校・園・児童館,対応不可
122,しろはな幼稚園,653-0822,長田区,神戸市長田区池田寺町25番地,34.668781,135.145528,学校・園・児童館,対応不可
123,長田すみれビレッジ,653-0801,長田区,神戸市長田区房王寺町2丁目3-25,34.677383,135.15243,福祉施設,対応不可
124,グループホーム ハナ,653-0031,長田区,神戸市長田区西尻池町2丁目4番28号,34.658746,135.150632,福祉施設,対応不可
125,生活協同組合コープ神戸 コープ長田,653-0805,長田区,神戸市長田区片山町2丁目18-17,34.673728,135.147724,商業施設,対応不可
126,生活協同組合コープ神戸 コープ丸山,653-0874,長田区,神戸市長田区西丸山町1丁目7-23,34.685794,135.140636,商業施設,対応不可
127,市立ケアハウス松寿園,653-0875,長田区,神戸市長田区丸山町2丁目3-17,34.683936,135.139803,福祉施設,24時間利用可
128,(株)築港カルモ倉庫,653-0000,長田区,神戸市長田区苅藻島1-1-12,34.649959,135.162054,会社・事業所,対応不可
129,コープこうべ コープミニ真野,653-0024,長田区,神戸市長田区浜添通3丁目4-10,34.6566,135.155454,商業施設,対応不可
130,神戸市立 ふたば保育所,653-0042,長田区,神戸市長田区二葉町7丁目1-30,34.652163,135.146291,学校・園・児童館,対応不可
131,(有)大清産廃,653-0033,長田区,神戸市長田区苅藻島1丁目1-43,34.648919,135.159126,会社・事業所,対応不可
132,株式会社 イノウエ,653-0023,長田区,神戸市長田区東尻池町9丁目1-20,34.653689,135.158113,会社・事業所,対応不可
133,志里池地域福祉センター,653-0022,長田区,神戸市長田区東尻池町1丁目14-4,34.660883,135.154258,小集会場・公民館・地域福祉センター,対応不可
134,兵庫県警長田警察署 新長田駅前交番,653-0038,長田区,神戸市長田区若松町5丁目5-2,34.65653,135.143981,官公庁,24時間利用可
135,アスタプラザファースト地下1階 新長田鉄人前献血ルーム,653-0038,長田区,神戸市長田区若松町5丁目2-1,34.655526,135.145207,医療関連施設,対応不可
136,おかばやし内科医院,6530015,長田区,神戸市長田区菅原通4丁目202-3 キクヤ第2ビル2階,34.663764,135.155536,医療関連施設,対応不可
137,オギノ医院,653-0037,長田区,神戸市長田区大橋町4丁目4-9-205,34.655859,135.146304,医療関連施設,対応不可
138,小松クリニック,653-0855,長田区,神戸市長田区長尾町2丁目3-5,34.666835,135.13473,医療関連施設,対応不可
139,丸山病院,6530875,長田区,神戸市長田区丸山町3丁目4-22,34.683194,135.139799,医療関連施設,対応不可
140,神戸市総合療育センター,6530875,長田区,神戸市長田区丸山町2丁目3-50,34.683287,135.140136,福祉施設,対応不可
141,すみこ内科・循環器科,653-0055,長田区,神戸市長田区浪松町2-2-19 藤原ビル1階,34.650486,135.13491,医療関連施設,対応不可
142,故郷の家・神戸,653-0022,長田区,神戸市長田区東池尻町7-4-21,34.655791,135.157041,福祉施設,24時間利用可
143,名倉地域福祉センター,653-0801,長田区,神戸市長田区房王寺町4丁目7-15,34.679844,135.148073,小集会場・公民館・地域福祉センター,対応不可
144,真野地域福祉センター,653-0022,長田区,神戸市長田区東尻池町6丁目3-19,34.656599,135.15679,小集会場・公民館・地域福祉センター,対応不可
145,池田地域福祉センター,653-0831,長田区,神戸市長田区蓮宮通4丁目11,34.666428,135.145266,小集会場・公民館・地域福祉センター,対応不可
1,学校法人 須磨学園 本館、新館、体育館、総合グラウンド,654-0009,須磨区,神戸市須磨区板宿町3丁目15番14号,34.663844,135.127035,学校・園・児童館,対応不可
2,学校法人 須磨学園 須磨総合グラウンド,654-0101,須磨区,神戸市須磨区白川字高尾8-38,34.693202,135.113404,学校・園・児童館,対応不可
3,神戸女子大学,654-0018,須磨区,神戸市須磨区東須磨青山2-1,34.657661,135.10975,学校・園・児童館,対応不可
4,オリックス野球クラブ(株) ほっともっとフィールド神戸,654-0163,須磨区,神戸市須磨区緑台3251-10,34.680643,135.073414,体育施設・スポーツクラブ,対応不可
5,北須磨団地自治会(北須磨団地自治会館),654-0142,須磨区,神戸市須磨区友が丘7丁目275,34.669666,135.097068,小集会場・公民館・地域福祉センター,対応不可
6,神戸総合運動公園管理センター,654-0163,須磨区,神戸市須磨区緑台,34.680849,135.076749,体育施設・スポーツクラブ,対応不可
7,神戸総合運動公園ユニバー記念競技場,654-0163,須磨区,神戸市須磨区緑台,34.682257,135.080468,体育施設・スポーツクラブ,対応不可
8,神戸総合運動公園グリーンアリーナ神戸,654-0163,須磨区,神戸市須磨区緑台,34.678423,135.074925,体育施設・スポーツクラブ,対応不可
9,神戸総合運動公園テニスコート,654-0163,須磨区,神戸市須磨区緑台,34.676754,135.076986,体育施設・スポーツクラブ,対応不可
10,社会福祉法人あんず会 特別養護老人ホーム須磨浦の里,654-0076,須磨区,神戸市須磨区一ノ谷町3丁目3-21,34.640395,135.10145,福祉施設,対応不可
11,神戸市営地下鉄 名谷駅,654-0154,須磨区,神戸市須磨区中落合2丁目3-1,34.679434,135.09407,公共交通機関,対応不可
12,神戸市立国民宿舎須磨荘(シーパル須磨),654-0055,須磨区,神戸市須磨区須磨浦通1丁目1-1,34.643693,135.122617,宿泊施設,24時間利用可
13,神戸市立須磨海浜水族園,654-0049,須磨区,神戸市須磨区若宮町1-3-5,34.643941,135.127845,公園・文教施設,対応不可
15,杉村歯科医院,654-0134,須磨区,神戸市須磨区多井畑東町3-2,34.666838,135.102862,医療関連施設,対応不可
16,特別養護老人ホーム・あいハート須磨,654-0045,須磨区,神戸市須磨区松風町4丁目2-26,34.648234,135.126622,福祉施設,24時間利用可
17,須磨体育館,654-0035,須磨区,神戸市須磨区中島町1丁目2-2,34.650756,135.12914,体育施設・スポーツクラブ,対応不可
18,滝川中高等学校,654-0007,須磨区,神戸市須磨区宝田町2丁目1,34.663396,135.132177,学校・園・児童館,24時間利用可
19,学校法人 熊見学園 神戸星城高等学校(職員室、教官室),654-0113,須磨区,神戸市須磨区緑が丘1丁目12-1,34.681694,135.115868,学校・園・児童館,対応不可
21,神戸総合運動公園グリーンアリーナ神戸 トレーニングセンター (特定非営利法人 神戸アスリートタウンクラブ),654-0163,須磨区,神戸市須磨区緑台,34.678421,135.074922,体育施設・スポーツクラブ,対応不可
22,須磨区民センター,654-0035,須磨区,神戸市須磨区中島町1丁目2番3号,34.650914,135.129495,集会場・ホール,対応不可
24,神戸市営地下鉄 総合運動公園駅,654-0163,須磨区,神戸市須磨区緑台,34.681635,135.075924,公共交通機関,対応不可
25,神戸市営地下鉄 板宿駅,654-0022,須磨区,神戸市須磨区大黒町2丁目,34.659419,135.135028,公共交通機関,対応不可
26,神戸市営地下鉄 妙法寺駅,654-0131,須磨区,神戸市須磨区横尾1丁目,34.675005,135.110258,公共交通機関,対応不可
27,(株)ニュータウン開発センター 須磨パティオ専門店,654-0154,須磨区,神戸市須磨区中落合2丁目2-1,34.678447,135.09507,商業施設,対応不可
28,エリーネス須磨 「介護の家」,654-0047,須磨区,神戸市須磨区磯馴町3丁目1番27号,34.647215,135.129677,福祉施設,24時間利用可
29,エリーネス須磨,654-0142,須磨区,神戸市須磨区友が丘7丁目1番地21,34.671142,135.101211,福祉施設,24時間利用可
30,(財)こうべみのりの公社 神戸市立須磨海づり公園 売店,654-0076,須磨区,神戸市須磨区一ノ谷町5丁目,34.634267,135.104534,公園・文教施設,対応不可
31,神戸市立 須磨図書館,654-0035,須磨区,神戸市須磨区中島町1-2-3,34.650825,135.129459,公園・文教施設,対応不可
32,神戸市立 南須磨公民館,654-0038,須磨区,神戸市須磨区青葉町2丁目2-3,34.648842,135.133444,小集会場・公民館・地域福祉センター,対応不可
33,神戸市立 和光園,654-0006,須磨区,神戸市須磨区養老町1丁目8-30,34.666141,135.132471,福祉施設,24時間利用可
34,須磨区役所,654-0022,須磨区,神戸市須磨区大黒町4丁目1-1,34.658537,135.133717,官公庁,24時間利用可
35,北須磨支所,654-0154,須磨区,神戸市須磨区中落合2丁目2番5号,34.678276,135.093876,官公庁,対応不可
36,神戸大学医学部保健学科,654-0142,須磨区,神戸市須磨区友が丘7丁目10-2,34.672174,135.098882,学校・園・児童館,対応不可
37,板宿小学校,654-0008,須磨区,神戸市須磨区菊池町1-1-1,34.663058,135.133828,学校・園・児童館,対応不可
38,太田中学校,654-0022,須磨区,神戸市須磨区大黒町5-1-1,34.657457,135.133433,学校・園・児童館,対応不可
39,白川台中学校,654-0103,須磨区,神戸市須磨区白川台1-25-2,34.692575,135.096589,学校・園・児童館,対応不可
40,須磨北中学校,654-0102,須磨区,神戸市須磨区東白川台5-1-1,34.69235,135.110273,学校・園・児童館,対応不可
42,青陽高等養護学校,654-0155,須磨区,神戸市須磨区西落合1-1-4,34.679005,135.08887,学校・園・児童館,対応不可
43,高倉中学校,654-0081,須磨区,神戸市須磨区高倉台1-8-1,34.65345,135.107317,学校・園・児童館,対応不可
44,鷹取中学校,654-0038,須磨区,神戸市須磨区青葉町3-1-1,34.648052,135.133315,学校・園・児童館,対応不可
45,飛松中学校,654-0013,須磨区,神戸市須磨区大手町8-4-25,34.658823,135.125868,学校・園・児童館,対応不可
46,友が丘中学校,654-0142,須磨区,神戸市須磨区友が丘7-283-1,34.672734,135.099812,学校・園・児童館,対応不可
47,西落合小学校,654-0155,須磨区,神戸市須磨区西落合7-1-3,34.68181,135.08938,学校・園・児童館,対応不可
48,西落合中学校,654-0155,須磨区,神戸市須磨区西落合4-1-1,34.68501,135.082731,学校・園・児童館,対応不可
49,東落合中学校,654-0152,須磨区,神戸市須磨区東落合2-15,34.681915,135.100032,学校・園・児童館,対応不可
50,横尾中学校,654-0131,須磨区,神戸市須磨区横尾2-1-2,34.672529,135.115755,学校・園・児童館,対応不可
51,竜が台中学校,654-0141,須磨区,神戸市須磨区竜が台4-1,34.675593,135.088495,学校・園・児童館,対応不可
52,奥須磨ゴルフセンター,654-0133,須磨区,神戸市須磨区多井畑池ノ奥上12-1,34.662578,135.104124,体育施設・スポーツクラブ,対応不可
55,山陽電気鉄道板宿駅,654-0021,須磨区,神戸市須磨区平田町3丁目3-10,34.660337,135.133893,公共交通機関,対応不可
56,和高医院,654-0071,須磨区,神戸市須磨区須磨寺町1丁目13-1,34.646415,135.116183,医療関連施設,対応不可
57,(株)ニュータウン開発センター リファーレ横尾,654-0131,須磨区,神戸市須磨区横尾1丁目5,34.674446,135.110192,商業施設,対応不可
58,JX日鉱日石エネルギー株式会社 神戸油槽所,654-0043,須磨区,神戸市須磨区外浜町1丁目1番1号,34.644723,135.137894,会社・事業所,24時間利用可
59,神戸信用金庫須磨支店,654-0055,須磨区,神戸市須磨区須磨浦通4丁目7-6,34.6436,135.114034,商業施設,対応不可
60,山陽電気鉄道須磨駅,654-0055,須磨区,神戸市須磨区須磨浦通5丁目7-2,34.6435,135.112435,公共交通機関,対応不可
61,山陽電気鉄道東須磨駅,654-0014,須磨区,神戸市須磨区若木町1丁目1-1,34.65528,135.127555,公共交通機関,対応不可
64,啓明学院中学校・高等学校,654-0131,須磨区,神戸市須磨区横尾9-5-1,34.667004,135.104436,学校・園・児童館,対応不可
65,神戸市立だいち小学校,654-0026,須磨区,神戸市須磨区大池町5丁目1-52,34.653829,135.134932,学校・園・児童館,対応不可
66,神戸市立若宮小学校,654-0049,須磨区,神戸市須磨区若宮町2丁目1-21,34.646293,135.131438,学校・園・児童館,対応不可
67,神戸市立西須磨小学校,654-0052,須磨区,神戸市須磨区行幸町3丁目4-18,34.646515,135.121259,学校・園・児童館,対応不可
68,神戸市立北須磨小学校,654-0067,須磨区,神戸市須磨区離宮西町2丁目1-1,34.652723,135.115483,学校・園・児童館,対応不可
69,神戸市立高倉台小学校,654-0081,須磨区,神戸市須磨区高倉台4丁目1-1,34.656294,135.104278,学校・園・児童館,対応不可
70,神戸市立多井畑小学校,654-0142,須磨区,神戸市須磨区友が丘3丁目106番地,34.668878,135.093974,学校・園・児童館,対応不可
71,神戸市立東須磨小学校,654-0032,須磨区,神戸市須磨区堀池町1丁目2-1,34.654633,135.128224,学校・園・児童館,対応不可
72,神戸市立若草小学校,654-0112,須磨区,神戸市須磨区若草町1丁目13番地,34.687423,135.115334,学校・園・児童館,対応不可
73,神戸市立妙法寺小学校,654-0121,須磨区,神戸市須磨区妙法寺桜ノ界地106-1,34.67566,135.116844,学校・園・児童館,対応不可
74,神戸市立横尾小学校,654-0131,須磨区,神戸市須磨区横尾5丁目3,34.670808,135.112012,学校・園・児童館,対応不可
75,神戸市立白川小学校,654-0103,須磨区,神戸市須磨区白川台7丁目3番地の2号,34.696219,135.101239,学校・園・児童館,対応不可
76,神戸市立神の谷小学校,654-0162,須磨区,神戸市須磨区神の谷5丁目1番1号,34.688295,135.085622,学校・園・児童館,対応不可
77,神戸市立松尾小学校,654-0151,須磨区,神戸市須磨区北落合2-13-1,34.686013,135.091739,学校・園・児童館,対応不可
78,神戸市立東落合小学校,654-0152,須磨区,神戸市須磨区東落合2丁目18番1号,34.684761,135.101572,学校・園・児童館,対応不可
79,神戸市立花谷小学校,654-0152,須磨区,神戸市須磨区東落合1丁目4番1号,34.679561,135.101971,学校・園・児童館,対応不可
80,神戸市立南落合小学校,654-0153,須磨区,神戸市須磨区南落合3丁目11番1号,34.676154,135.10076,学校・園・児童館,対応不可
81,神戸市立竜が台小学校,654-0141,須磨区,神戸市須磨区竜が台6丁目15番1号,34.674604,135.091403,学校・園・児童館,対応不可
82,神戸市立菅の台小学校,654-0143,須磨区,神戸市須磨区菅の台4丁目3番2号,34.672152,135.08334,学校・園・児童館,対応不可
83,エス・パティオスポーツクラブ,654-0154,須磨区,神戸市須磨区中落合2丁目2,34.678589,135.09319,体育施設・スポーツクラブ,対応不可
84,神戸YMCAちとせ幼稚園,654-0081,須磨区,神戸市須磨区高倉台4丁目12,34.656365,135.102435,学校・園・児童館,対応不可
85,神戸信用金庫板宿支店,654-0012,須磨区,神戸市須磨区飛松町1丁目1-6,34.661498,135.134836,商業施設,対応不可
86,播州信用金庫神戸西支店,654-0024,須磨区,神戸市須磨区大池町4丁目1-37,34.656463,135.135686,商業施設,対応不可
87,中嶋石油株式会社セルフ須磨S.S,654-0052,須磨区,神戸市須磨区行幸町1丁目1-6,34.644688,135.125367,商業施設,24時間利用可
88,株式会社 三井住友銀行 須磨支店,654-0051,須磨区,神戸市須磨区月見山本町2-4-2,34.649149,135.122278,商業施設,対応不可
89,株式会社 三井住友銀行 北須磨支店,654-0154,須磨区,神戸市須磨区中落合2-2-5,34.678212,135.093921,商業施設,対応不可
90,株式会社 三井住友銀行 板宿支店,654-0022,須磨区,神戸市須磨区大黒町2-1-9,34.659572,135.135468,商業施設,対応不可
91,社会福祉法人 翠福社会 名谷みどり保育園,654-0154,須磨区,神戸市須磨区中落合2丁目3-2,34.679851,135.095779,学校・園・児童館,対応不可
92,株式会社 平成お湯物語(チムジルバンスパ神戸),654-0111,須磨区,神戸市須磨区車奥中ノ尾772-6,34.689396,135.10963,入浴施設,対応不可
93,月見山連合自治会館,654-0064,須磨区,神戸市須磨区北町1丁目天井川公園内,34.651221,135.126339,小集会場・公民館・地域福祉センター,対応不可
94,神戸信用金庫 白川台支店,654-0103,須磨区,神戸市須磨区白川台3-62-1,34.691275,135.100742,商業施設,対応不可
95,神戸信用金庫 月見山支店,654-0064,須磨区,神戸市須磨区北町1-2-1,34.650905,135.125807,商業施設,対応不可
96,株式会社 みなと銀行 板宿支店,654-0023,須磨区,神戸市須磨区戎町2-2-6,34.659392,135.135502,商業施設,対応不可
97,株式会社 みなと銀行 横尾支店,654-0131,須磨区,神戸市須磨区横尾1-5,34.674344,135.110138,商業施設,対応不可
98,株式会社 みなと銀行 須磨ニュータウン,654-0154,須磨区,神戸市須磨区中落合2-2-5,34.678299,135.093766,商業施設,対応不可
100,グレーシィ須磨アルテピアIII番街団地,654-0123,須磨区,神戸市須磨区清水台1番地-9,34.683999,135.108143,集合住宅,24時間利用可
101,海浜公園,654-0049,須磨区,神戸市須磨区若宮町1丁目,34.64424,135.131034,公園・文教施設,対応不可
102,神戸市立 須磨離宮公園,654-0018,須磨区,神戸市須磨区東須磨1丁目1,34.653533,135.116323,公園・文教施設,対応不可
103,キャンディタフト月見山,654-0044,須磨区,神戸市須磨区稲葉町3丁目2-23,34.649556,135.127026,福祉施設,24時間利用可
104,グランドパレス上須磨,654-0112,須磨区,神戸市須磨区若草町1-2-5,34.686876,135.110681,集合住宅,24時間利用可
105,兵庫六甲農業協同組合,654-0151,須磨区,神戸市須磨区北落合1丁目4-36,34.686294,135.094597,商業施設,対応不可
106,奥須磨公園,654-0133,須磨区,神戸市須磨区多井畑字池の奥山18,34.661751,135.100022,公園・文教施設,対応不可
107,多井畑厄除八幡宮,654-0133,須磨区,神戸市須磨区多井畑字宮脇壱番地,34.662234,135.095582,その他,対応不可
108,綱敷天満宮,654-0053,須磨区,神戸市須磨区天神町2丁目1-11,34.644573,135.119238,その他,対応不可
109,菅の台地域福祉センター,654-0143,須磨区,神戸市須磨区菅の台4丁目5番,34.672797,135.085452,小集会場・公民館・地域福祉センター,対応不可
110,白川台地域福祉センター,654-0103,須磨区,神戸市須磨区白川台7丁目3-8,34.695605,135.101832,小集会場・公民館・地域福祉センター,対応不可
111,横尾地域福祉センター,654-0131,須磨区,神戸市須磨区横尾2丁目1-1,34.671845,135.113041,小集会場・公民館・地域福祉センター,対応不可
112,花谷地域福祉センター,654-0154,須磨区,神戸市須磨区中落合1-1-25,34.677946,135.097979,小集会場・公民館・地域福祉センター,対応不可
113,株式会社 博甫園,654-0121,須磨区,神戸市須磨区妙法寺字池の谷975,34.676394,135.119767,会社・事業所,24時間利用可
114,福祥寺,654-0071,須磨区,神戸市須磨区須磨寺町4丁目6-8,34.649352,135.111975,その他,対応不可
115,神戸市環境局須磨事業所,654-0042,須磨区,神戸市須磨区小寺町2丁目5-16,34.646044,135.136225,官公庁,対応不可
116,神戸市環境局落合クリーンセンター,654-0154,須磨区,神戸市須磨区中落合3丁目1-1,34.682921,135.093797,官公庁,対応不可
117,稲守耳鼻咽喉科医院,654-0151,須磨区,神戸市須磨区北落合2丁目1-10,34.685067,135.094803,医療関連施設,対応不可
118,神戸市開発管理事業団 高倉会館,654-0081,須磨区,神戸市須磨区高倉台4丁目2-4,34.656919,135.103892,大集会場・ホール,対応不可
119,神戸市立須磨翔風高等学校,654-0155,須磨区,神戸市須磨区西落合1丁目1番5号,34.67811,135.089246,学校・園・児童館,対応不可
120,須磨海水浴場(東監視詰所、西監視詰所),654-0055,須磨区,神戸市須磨区須磨浦通1丁目,34.643551,135.122596,公園・文教施設,対応不可
121,ガイヤアリーナ板宿,654-0012,須磨区,神戸市須磨区飛松町3-6-12,34.66091,135.133264,商業施設,対応不可
122,西日本旅客鉄道株式会社 須磨海浜公園駅,654-0045,須磨区,神戸市須磨区松風町5丁目2-43,34.647152,135.126671,公共交通機関,対応不可
123,新原歯科矯正歯科クリニック,654-0154,須磨区,神戸市須磨区中落合2丁目3-1名谷駅2階,34.679426,135.094351,医療関連施設,対応不可
124,神戸市立丸山中学校西野分校,654-0022,須磨区,神戸市須磨区大黒町5丁目1-1,34.65759,135.13366,学校・園・児童館,対応不可
125,社会福祉法人ヨハネ会,654-0015,須磨区,神戸市須磨区奥山畑町2番地,34.654504,135.122397,福祉施設,対応不可
126,グレーシィ須磨アルテピアII番街,654-0123,須磨区,神戸市須磨区清水台1-18,34.681484,135.108707,集合住宅,対応不可
127,神戸市立菅の台保育所,654-0143,須磨区,神戸市須磨区菅の台4丁目6番,34.671716,135.084548,学校・園・児童館,対応不可
128,神戸市立高倉台保育所,654-0081,須磨区,神戸市須磨区高倉台4丁目1番3号,34.65689,135.105221,学校・園・児童館,対応不可
129,神戸市立たかとり保育所,654-0037,須磨区,神戸市須磨区行平町2丁目2-17,34.649425,135.133484,学校・園・児童館,対応不可
130,神戸新聞板宿専売所,654-0027,須磨区,神戸市須磨区千歳町3丁目1-1,34.655185,135.138735,会社・事業所,対応不可
131,神戸市立須磨保育所,654-0022,須磨区,神戸市須磨区大黒町4丁目1-2,34.658297,135.133374,学校・園・児童館,対応不可
132,神戸市立竜が台保育所,654-0141,須磨区,神戸市須磨区竜が台1丁目11,34.676369,135.093822,学校・園・児童館,対応不可
133,神戸市立妙法寺児童館,654-0121,須磨区,神戸市須磨区妙法寺字毘沙門山1,34.67454,135.115064,学校・園・児童館,対応不可
134,神戸市立大黒児童館,654-0022,須磨区,神戸市須磨区大黒町2丁目2-12,34.659859,135.135015,学校・園・児童館,対応不可
135,神戸市立板宿児童館,654-0009,須磨区,神戸市須磨区板宿町1丁目4-9,34.662415,135.130589,学校・園・児童館,対応不可
136,神戸市立高倉台児童館,654-0081,須磨区,神戸市須磨区高倉台1丁目2-1,34.655473,135.108984,学校・園・児童館,対応不可
137,神戸市立たかとり児童館,654-0037,須磨区,神戸市須磨区行平町2丁目2-17,34.649548,135.133376,学校・園・児童館,対応不可
138,神戸市立横尾児童館,654-0131,須磨区,神戸市須磨区横尾1丁目11-2,34.673825,135.11086,学校・園・児童館,対応不可
139,神戸市立白川台児童館,654-0103,須磨区,神戸市須磨区白川台7丁目3-8,34.695626,135.101765,学校・園・児童館,対応不可
140,神港園サニーライフ白川,654-0103,須磨区,神戸市須磨区白川台1丁目35-3,34.689641,135.095342,福祉施設,対応不可
141,神戸市立落合児童館,654-0154,須磨区,神戸市須磨区中落合1-1-25,34.677887,135.097768,学校・園・児童館,対応不可
142,神戸市立若草児童館,654-0112,須磨区,神戸市須磨区若草町3丁目14-9,34.690151,135.112164,学校・園・児童館,対応不可
143,神戸市立東須磨児童館,654-0014,須磨区,神戸市須磨区若木町3丁目5-9,34.656103,135.124494,学校・園・児童館,対応不可
144,阪神高速トール神戸(株)若宮営業所,654-0039,須磨区,神戸市須磨区鷹取町4丁目31-1,34.646579,135.132598,会社・事業所,対応不可
145,神戸市建設局西部建設事務所,654-0121,須磨区,神戸市須磨区妙法寺字ヌメリ石1-1,34.673893,135.107767,官公庁,対応不可
146,西日本旅客鉄道株式会社 須磨駅,654-0055,須磨区,神戸市須磨区須磨浦通4丁目2-1,34.642317,135.113009,公共交通機関,対応不可
147,西日本旅客鉄道株式会社 鷹取駅,654-0026,須磨区,神戸市須磨区大池町5丁目1-10,34.651391,135.135165,公共交通機関,対応不可
150,北須磨児童館,654-0142,須磨区,神戸市須磨区友が丘7丁目275-1,34.669444,135.096875,学校・園・児童館,対応不可
151,菅の台児童館,654-0143,須磨区,神戸市須磨区菅の台4丁目5,34.672922,135.085349,学校・園・児童館,対応不可
152,神戸市立名谷こすもす幼稚園,654-0155,須磨区,神戸市須磨区西落合7丁目1-2,34.681568,135.090046,学校・園・児童館,対応不可
153,宙カミーノ,654-0162,須磨区,神戸市須磨区神の谷5丁目2-2,34.689273,135.08494,福祉施設,対応不可
154,神戸市立名谷あおぞら幼稚園,654-0143,須磨区,神戸市須磨区菅の台4丁目3-1,34.671128,135.083785,学校・園・児童館,対応不可
155,神戸市立名谷きぼうの丘幼稚園,654-0152,須磨区,神戸市須磨区東落合2丁目18-1,34.685616,135.100898,学校・園・児童館,対応不可
156,北須磨文化センター,654-0154,須磨区,神戸市須磨区中落合3丁目1-2,34.683632,135.095502,集会場・ホール,対応不可
157,北須磨地域福祉センター,654-0065,須磨区,神戸市須磨区離宮前町2丁目7-24,34.651552,135.118696,小集会場・公民館・地域福祉センター,対応不可
158,竜が台地域福祉センター,654-0141,須磨区,神戸市須磨区竜が台5丁目20,34.674949,135.089248,小集会場・公民館・地域福祉センター,対応不可
159,東落合地域福祉センター,654-0152,須磨区,神戸市須磨区東落合3丁目33-12,34.686471,135.102826,小集会場・公民館・地域福祉センター,対応不可
160,若草地域福祉センター,654-0112,須磨区,神戸市須磨区若草町3丁目14-9,34.690074,135.11201,小集会場・公民館・地域福祉センター,対応不可
161,神の谷地域福祉センター,654-0162,須磨区,神戸市須磨区神の谷5丁目2-1,34.689425,135.085054,小集会場・公民館・地域福祉センター,対応不可
162,友が丘地域福祉センター,654-0142,須磨区,神戸市須磨区友が丘5丁目2600-2,34.667429,135.087607,小集会場・公民館・地域福祉センター,対応不可
163,友が丘防災防犯センター,654-0142,須磨区,神戸市須磨区友が丘7丁目,34.669301,135.09799,小集会場・公民館・地域福祉センター,対応不可
164,松尾地域福祉センター,654-0151,須磨区,神戸市須磨区北落合3丁目2-1,34.688463,135.090844,小集会場・公民館・地域福祉センター,対応不可
165,西落合地域福祉センター,654-0155,須磨区,神戸市須磨区西落合5丁目13-3,34.681789,135.086375,小集会場・公民館・地域福祉センター,対応不可
166,コスモス薬局,654-0162,須磨区,神戸市須磨区神の谷2丁目9-5,34.684396,135.084295,医療関連施設,対応不可
167,神戸市立神の谷児童館,654-0162,須磨区,神戸市須磨区神の谷5丁目2-1,34.689348,135.085247,学校・園・児童館,対応不可
168,白川台会館,654-0103,須磨区,神戸市須磨区白川台3丁63-1,34.690088,135.100399,小集会場・公民館・地域福祉センター,対応不可
169,大黒地域福祉センター,654-0022,須磨区,神戸市須磨区大黒町2丁目2-12,34.659946,135.135013,小集会場・公民館・地域福祉センター,対応不可
170,妙法寺地域福祉センター,654-0121,須磨区,神戸市須磨区妙法寺字桜ノ界地1-106,34.675706,135.117251,小集会場・公民館・地域福祉センター,対応不可
171,介護老人保健施設 オラージュ須磨,654-0112,須磨区,神戸市須磨区若草町3丁目622-11,34.692242,135.115738,福祉施設,対応不可
172,高倉台地域福祉センター,654-0081,須磨区,神戸市須磨区高倉台4丁目1-4,34.657061,135.105382,小集会場・公民館・地域福祉センター,対応不可
173,板宿地域福祉センター,654-0001,須磨区,神戸市須磨区禅昌寺町2丁目1-5,34.668401,135.128726,小集会場・公民館・地域福祉センター,対応不可
174,南落合地域福祉センター,654-0153,須磨区,神戸市須磨区南落合3丁目11-2,34.677185,135.102339,小集会場・公民館・地域福祉センター,対応不可
175,南須磨地域福祉センター,654-0045,須磨区,神戸市須磨区松風町5丁目2-1,34.646979,135.126687,小集会場・公民館・地域福祉センター,対応不可
176,生活協同組合コープこうべ コープ横尾,654-0131,須磨区,神戸市須磨区横尾1丁目5,34.674392,135.109822,商業施設,対応不可
177,生活協同組合コープこうべ コープ須磨,654-0051,須磨区,神戸市須磨区月見山本町1丁目9-28,34.648251,135.122407,商業施設,対応不可
178,生活協同組合コープこうべ コープ名谷,654-0143,須磨区,神戸市須磨区菅の台3丁目14,34.67308,135.086365,商業施設,対応不可
179,生活協同組合コープこうべ コープ白川台,654-0103,須磨区,神戸市須磨区白川台3丁目63-2,34.69043,135.100454,商業施設,対応不可
180,東須磨地域福祉センター,654-0014,須磨区,神戸市須磨区若木町3丁目5-9,34.656135,135.124591,小集会場・公民館・地域福祉センター,対応不可
181,アキヨシメディカルクリニック,654-0011,須磨区,神戸市須磨区前池町3丁目3-1,34.661427,135.132206,医療関連施設,対応不可
182,宮野医療器株式会社,654-0161,須磨区,神戸市須磨区弥栄台2-12-1,34.682731,135.071308,会社・事業所,対応不可
183,妙法寺幼稚園,654-0121,須磨区,神戸市須磨区妙法寺字前田77番地,34.675324,135.118293,学校・園・児童館,対応不可
184,ルネ須磨管理組合,654-0121,須磨区,神戸市須磨区妙法寺蓮池366-10,34.678174,135.109498,集合住宅,対応不可
186,兵庫大学付属須磨幼稚園,654-0052,須磨区,神戸市須磨区行幸町2丁目6-19,34.646207,135.12173,学校・園・児童館,対応不可
187,西須磨幼稚園,654-0066,須磨区,神戸市須磨区桜木町2丁目2-1,34.647903,135.116675,学校・園・児童館,対応不可
188,学校法人 神撫山学園 禅昌寺幼稚園,654-0001,須磨区,神戸市須磨区禅昌寺町2丁目5-1,34.669337,135.127336,学校・園・児童館,対応不可
189,大手幼稚園,654-0013,須磨区,神戸市須磨区大手町7丁目1-1,34.659916,135.128519,学校・園・児童館,対応不可
190,須磨みどり幼稚園,654-0035,須磨区,神戸市須磨区中島町2丁目5-15,34.652383,135.129353,学校・園・児童館,対応不可
191,平田幼稚園,654-0021,須磨区,神戸市須磨区平田町3丁目2-4,34.659724,135.133441,学校・園・児童館,対応不可
192,千鳥幼稚園,654-0072,須磨区,神戸市須磨区千守町1-3-21,34.645646,135.114331,学校・園・児童館,対応不可
193,白川台幼稚園,654-0103,須磨区,神戸市須磨区白川台5-53-1,34.69231,135.098769,学校・園・児童館,対応不可
194,神戸女子大学付属高倉台幼稚園,654-0081,須磨区,神戸市須磨区高倉台4丁目2番,34.657197,135.104546,学校・園・児童館,対応不可
195,須磨の浦地域福祉センター,654-0072,須磨区,神戸市須磨区千守町1-1-20,34.644209,135.114563,小集会場・公民館・地域福祉センター,対応不可
196,多井畑地域福祉センター,654-0133,須磨区,須磨区多井畑字筋替道21-3,34.660765,135.093573,小集会場・公民館・地域福祉センター,対応不可
197,慶雲寺会館,654-0111,須磨区,神戸市須磨区車字松ヶ原532,34.684022,135.113233,大集会場・ホール,対応不可
198,白川台住宅管理組合,654-0103,須磨区,神戸市須磨区白川台2丁目45-2,34.690595,135.098593,小集会場・公民館・地域福祉センター,対応不可
199,神戸市水道局西部センター,654-0026,須磨区,神戸市須磨区大池町5丁目6-30,34.654827,135.135046,官公庁,対応不可
200,コープこうべ コープミニ須磨寺,654-0071,須磨区,神戸市須磨区須磨寺町4丁目3番1号,34.647888,135.113518,商業施設,対応不可
201,コープこうべ 共同購入センター須磨,654-0161,須磨区,神戸市須磨区弥栄台3丁目11番,34.687943,135.07496,会社・事業所,対応不可
202,コープこうべ コープミニ南落合,654-0153,須磨区,神戸市須磨区南落合3丁目9-2,34.676604,135.102986,商業施設,対応不可
203,コープこうべ コープミニ北須磨,654-0142,須磨区,神戸市須磨区友が丘7丁目275-2,34.669109,135.09723,商業施設,対応不可
204,名谷テニスガーデン,654-0142,須磨区,神戸市須磨区友が丘9丁目,34.670916,135.088491,体育施設・スポーツクラブ,対応不可
205,兵庫県立須磨友が丘高等学校,654-0142,須磨区,神戸市須磨区友が丘1丁目1-5,34.667789,135.101955,学校・園・児童館,対応不可
206,ローソン神戸総合運動公園店,654-0163,須磨区,神戸市須磨区緑台3251-8,34.682032,135.075743,商業施設,24時間利用可
207,街角の年金相談センター北須磨,654-0154,須磨区,神戸市須磨区中落合2-2-5 名谷センタービル7階,34.678299,135.093669,会社・事業所,対応不可
208,県立須磨東高等学校,654-0152,須磨区,神戸市須磨区東落合1-1-1,34.681363,135.106206,学校・園・児童館,対応不可
209,兵庫県警須磨警察署,654-0026,須磨区,神戸市須磨区大池町5丁目1-30,34.653348,135.131233,官公庁,24時間利用可
210,兵庫県警須磨警察署須磨駅前交番,654-0055,須磨区,神戸市須磨区須磨浦通4丁目2-2,34.642662,135.113601,官公庁,24時間利用可
211,社会福祉法人 誠心会 若木保育園,654-0014,須磨区,神戸市須磨区若木町1-2-29,34.655572,135.127633,学校・園・児童館,対応不可
212,社会福祉法人 おおた 太田共同保育園,654-0022,須磨区,神戸市須磨区大黒町5丁目2-13,34.657968,135.132086,学校・園・児童館,対応不可
213,千歳保育園,654-0027,須磨区,神戸市須磨区千歳町4丁目3-36,34.654799,135.137671,学校・園・児童館,対応不可
214,兵庫大学付属須磨ノ浦高等学校,654-0052,須磨区,神戸市須磨区行幸町2丁目7-3,34.646042,135.12284,学校・園・児童館,対応不可
215,やまびこ保育園,654-0151,須磨区,神戸市須磨区北落合2丁目11-15,34.687935,135.093494,学校・園・児童館,対応不可
216,社会福祉法人出合福祉会 いたやど保育園,654-0024,須磨区,神戸市須磨区大田町1丁目3-24,34.659115,135.137522,学校・園・児童館,対応不可
217,神戸総合医療専門学校,654-0142,須磨区,神戸市須磨区友が丘7丁目1-21,34.671976,135.099903,学校・園・児童館,対応不可
218,特別養護老人ホーム・離宮しあわせ荘,6540067,須磨区,神戸市須磨区離宮西町2丁目2-3,34.652041,135.116038,福祉施設,24時間利用可
219,兵庫県立北須磨高等学校,654-0142,須磨区,神戸市須磨区友が丘9丁目23番,34.671436,135.092482,学校・園・児童館,対応不可
220,学校法人須磨浦学園 須磨浦小学校,654-0072,須磨区,神戸市須磨区千守町2丁目1-13,34.64581,135.112263,学校・園・児童館,対応不可
221,パーマリィ・イン須磨,6540072,須磨区,神戸市須磨区千守町1丁目5-23,34.647546,135.113537,福祉施設,24時間利用可
222,社会福祉法人 若竹保育園,654-0153,須磨区,神戸市須磨区南落合3丁目9-1,34.676694,135.102591,学校・園・児童館,対応不可
223,社会福祉法人 あじさい会 あじさい保育園,654-0103,須磨区,神戸市須磨区白川台4丁目20-20,34.690928,135.102727,学校・園・児童館,対応不可
224,北須磨幼稚園・北須磨保育園,654-0142,須磨区,神戸市須磨区友が丘3丁目107番地,34.668413,135.094463,学校・園・児童館,対応不可
225,社会福祉法人 豊友会 村雨保育園,654-0052,須磨区,神戸市須磨区行幸町1丁目2-26,34.644735,135.124195,学校・園・児童館,対応不可
226,神戸国際中学校・高等学校,654-0081,須磨区,神戸市須磨区高倉台7丁目21-1,34.657709,135.09745,学校・園・児童館,対応不可
227,くすの木保育園,654-0131,須磨区,神戸市須磨区横尾1-10,34.673807,135.109931,学校・園・児童館,対応不可
228,北須磨第2保育園,654-0121,須磨区,神戸市須磨区妙法寺字荒打300番1,34.674659,135.10802,学校・園・児童館,対応不可
229,妙法寺すみれホーム,654-0121,須磨区,神戸市須磨区妙法寺字萬上畑742-2,34.679828,135.113777,福祉施設,24時間利用可
230,須磨一ノ谷プラザ,654-0076,須磨区,神戸市須磨区一ノ谷町5-2-1,34.641185,135.103954,小集会場・公民館・地域福祉センター,対応不可
231,花ちとせ,654-0027,須磨区,神戸市須磨区千歳町4丁目3-30,34.655177,135.137254,福祉施設,対応不可
232,いきいきの郷,654-0142,須磨区,神戸市須磨区友が丘7-1-25,34.670292,135.10102,福祉施設,対応不可
233,あいハート離宮前,654-0065,須磨区,神戸市須磨区離宮前町2丁目5-38,34.651594,135.119321,福祉施設,対応不可
234,グリーンリーフ高倉,654-0074,須磨区,神戸市須磨区高倉町1丁目6-24,34.646761,135.108461,福祉施設,対応不可
235,ヘルパーGOGO,654-0047,須磨区,神戸市須磨区磯馴町6丁目2-5-107,34.645195,135.126084,福祉施設,対応不可
1,神戸市建設局西水環境センター,655-0892,垂水区,神戸市垂水区平磯1丁目1-65,34.62812,135.065194,官公庁,対応不可
2,アジュール舞子,655-0036,垂水区,神戸市垂水区海岸通11,34.628751,135.038774,公園・文教施設,対応不可
3,コナミスポーツクラブ ジェームス山店,655-0873,垂水区,神戸市垂水区青山台7-7-1イオンジェームス山店4F,34.646352,135.076439,体育施設・スポーツクラブ,対応不可
4,シーサイドホテル舞子ビラ神戸,655-0047,垂水区,神戸市垂水区東舞子町18-11,34.631411,135.038879,宿泊施設,24時間利用可
5,兵庫県立舞子高等学校,655-0004,垂水区,神戸市垂水区学が丘3丁目2番,34.655613,135.055043,学校・園・児童館,対応不可
6,神戸市立垂水体育館,655-0033,垂水区,神戸市垂水区旭ヶ丘2丁目1番22,34.632984,135.051457,体育施設・スポーツクラブ,対応不可
7,フォレスト垂水,655-0033,垂水区,神戸市垂水区旭ヶ丘1丁目9番60号,34.633424,135.052687,福祉施設,24時間利用可
8,垂水区役所(レバンテ垂水2番館),655-0893,垂水区,神戸市垂水区日向1丁目5-1,34.629826,135.056867,官公庁,24時間利用可
9,歌敷山中学校,655-0037,垂水区,神戸市垂水区歌敷山2-4-1,34.636181,135.041679,学校・園・児童館,対応不可
10,塩屋中学校,655-0872,垂水区,神戸市垂水区塩屋町字大谷,34.64332,135.077936,学校・園・児童館,対応不可
11,神陵台中学校,655-0041,垂水区,神戸市垂水区神陵台3-1-2,34.660607,135.033889,学校・園・児童館,対応不可
12,青陽西養護学校,655-0049,垂水区,神戸市垂水区狩口台3-1-3,34.649651,135.031846,学校・園・児童館,対応不可
13,星陵台中学校,655-0038,垂水区,神戸市垂水区星陵台4-3-3,34.646259,135.048333,学校・園・児童館,対応不可
14,多聞東中学校,655-0004,垂水区,神戸市垂水区学が丘3-1-1,34.654281,135.054171,学校・園・児童館,対応不可
15,垂水中学校,655-0017,垂水区,神戸市垂水区上高丸1-4-1,34.640529,135.051715,学校・園・児童館,対応不可
16,垂水東中学校,655-0873,垂水区,神戸市垂水区青山台3-4-1,34.6409,135.072662,学校・園・児童館,対応不可
17,垂水養護学校,655-0033,垂水区,神戸市垂水区旭が丘2-1-15,34.632411,135.051604,学校・園・児童館,対応不可
18,福田中学校,655-0852,垂水区,神戸市垂水区名谷町猿倉254,34.651156,135.061096,学校・園・児童館,対応不可
19,本多聞中学校,655-0006,垂水区,神戸市垂水区本多聞2-16-1,34.656633,135.045875,学校・園・児童館,対応不可
20,舞子中学校,655-0049,垂水区,神戸市垂水区狩口台3-1-1,34.649378,135.029974,学校・園・児童館,対応不可
21,桃山台中学校,655-0854,垂水区,神戸市垂水区桃山台4-8,34.658421,135.080261,学校・園・児童館,対応不可
22,神戸市水産体験学習館,655-0036,垂水区,神戸市垂水区海岸通12-4,34.624951,135.048205,公園・文教施設,対応不可
23,神戸市立平磯海づり公園,655-0892,垂水区,神戸市垂水区平磯1-1-66,34.627605,135.0702,公園・文教施設,対応不可
24,神戸市立東垂水公民館,655-0886,垂水区,神戸市垂水区東垂水1-1-1,34.636737,135.068338,小集会場・公民館・地域福祉センター,対応不可
25,神戸市立垂水図書館,655-0893,垂水区,神戸市垂水区日向1丁目5番1号,34.629937,135.056913,公園・文教施設,対応不可
26,神戸信用金庫 垂水支店,655-0893,垂水区,神戸市垂水区日向2丁目2番1号,34.630908,135.056878,商業施設,対応不可
27,神戸国際大学附属高等学校,655-0004,垂水区,神戸市垂水区学が丘5丁目1-1,34.657383,135.062233,学校・園・児童館,対応不可
28,垂水温泉「太平のゆ」,655-0036,垂水区,神戸市垂水区海岸通2166-2,34.626543,135.045355,入浴施設,対応不可
29,オービ・ホーム,655-0852,垂水区,神戸市垂水区名谷町猿倉273-7,34.649814,135.062736,福祉施設,24時間利用可
30,兵庫県立神戸聴覚支援学校,655-0013,垂水区,神戸市垂水区福田1-3-1,34.640492,135.0631,学校・園・児童館,対応不可
31,兵庫六甲農業協同組合 垂水支店,655-0012,垂水区,神戸市垂水区向陽3-1-27,34.646324,135.065288,商業施設,対応不可
32,垂水勤労市民センター,655-0893,垂水区,神戸市垂水区日向1丁目5番1号,34.629936,135.056915,集会場・ホール,対応不可
33,山陽電気鉄道株式会社 垂水駅,655-0027,垂水区,神戸市垂水区神田町1-37,34.629555,135.053838,公共交通機関,対応不可
34,ディアージュ神戸,655-0004,垂水区,神戸市垂水区学ヶ丘5丁目1-4,34.656284,135.063587,福祉施設,24時間利用可
35,鈴木クリニック,655-0006,垂水区,神戸市垂水区本多聞2丁目12-20,34.658323,135.04382,医療関連施設,対応不可
37,兵庫県立視覚特別支援学校,655-0884,垂水区,神戸市垂水区城が山4-2-1,34.633012,135.069568,学校・園・児童館,対応不可
38,神戸市立塩屋北小学校,655-0863,垂水区,神戸市垂水区塩屋北町4丁目10-1,34.646885,135.090617,学校・園・児童館,対応不可
39,神戸市立下畑台小学校,655-0854,垂水区,神戸市垂水区桃山台3丁目20番地,34.655576,135.082927,学校・園・児童館,対応不可
40,神戸市立つつじが丘小学校,655-0853,垂水区,神戸市垂水区つつじヶ丘3丁目1385番地の79,34.658007,135.078873,学校・園・児童館,対応不可
41,神戸市立塩屋小学校,655-0872,垂水区,神戸市垂水区塩屋町3丁目18番1号,34.637847,135.082209,学校・園・児童館,対応不可
42,神戸市立乙木小学校,655-0874,垂水区,神戸市垂水区美山台2丁目1-1,34.639815,135.071167,学校・園・児童館,対応不可
43,神戸市立東垂水小学校,655-0883,垂水区,神戸市垂水区王居殿2-5-25,34.634475,135.071516,学校・園・児童館,対応不可
44,神戸市立名谷小学校,655-0852,垂水区,神戸市垂水区名谷町1896,34.663175,135.071045,学校・園・児童館,対応不可
45,神戸市立福田小学校,655-0882,垂水区,神戸市垂水区乙木3-3-1,34.641096,135.065983,学校・園・児童館,対応不可
46,神戸市立高丸小学校,655-0014,垂水区,神戸市垂水区大町2丁目6番9号,34.637832,135.061694,学校・園・児童館,対応不可
47,神戸市立千鳥が丘小学校,655-0011,垂水区,神戸市垂水区千鳥が丘3丁目10番37号,34.643181,135.058606,学校・園・児童館,対応不可
48,神戸市立千代ヶ丘小学校,655-0017,垂水区,神戸市垂水区上高丸1丁目4番2号,34.641387,135.052137,学校・園・児童館,対応不可
49,神戸市立垂水小学校,655-0893,垂水区,神戸市垂水区日向2丁目4番6号,34.631251,135.056248,学校・園・児童館,対応不可
50,神戸市立霞ヶ丘小学校,655-0039,垂水区,神戸市垂水区霞ヶ丘4丁目6番16号,34.633056,135.043217,学校・園・児童館,対応不可
51,神戸市立東舞子小学校,655-0046,垂水区,神戸市垂水区舞子台4丁目10番1号,34.639118,135.036717,学校・園・児童館,対応不可
52,神戸市立舞子小学校,655-0048,垂水区,神戸市垂水区西舞子4丁目7-43,34.64348,135.030084,学校・園・児童館,対応不可
53,神戸市立西舞子小学校,655-0049,垂水区,神戸市垂水区狩口台3丁目1-2,34.649556,135.03116,学校・園・児童館,対応不可
54,神戸市立西脇小学校,655-0042,垂水区,神戸市垂水区西脇1丁目8-6,34.655462,135.03919,学校・園・児童館,対応不可
55,神戸市立多聞南小学校,655-0006,垂水区,神戸市垂水区本多聞5丁目2-1,34.652543,135.046648,学校・園・児童館,対応不可
56,神戸市立多聞東小学校,655-0004,垂水区,神戸市垂水区学が丘4丁目1-1,34.658398,135.055293,学校・園・児童館,対応不可
57,神戸市立小束山小学校,655-0002,垂水区,神戸市垂水区小束山7丁目868番地の362,34.667118,135.060833,学校・園・児童館,対応不可
58,神戸市立本多聞小学校,655-0006,垂水区,神戸市垂水区本多聞4丁目4-1,34.658099,135.048207,学校・園・児童館,対応不可
59,神戸市立多聞台小学校,655-0007,垂水区,神戸市垂水区多聞台3丁目9-29,34.661714,135.040615,学校・園・児童館,対応不可
60,神戸市立神陵台小学校,655-0041,垂水区,神戸市垂水区神陵台3丁目1番,34.660226,135.034341,学校・園・児童館,対応不可
61,兵庫県立星陵高等学校,655-0038,垂水区,神戸市垂水区星陵台4丁目3-2,34.645146,135.048933,学校・園・児童館,対応不可
62,西日本旅客鉄道(株)垂水駅,655-0027,垂水区,神戸市垂水区神田町1-20,34.629264,135.053702,公共交通機関,対応不可
63,西日本旅客鉄道(株)舞子駅,655-0047,垂水区,神戸市垂水区東舞子町3-1,34.633514,135.03383,公共交通機関,対応不可
64,播州信用金庫 垂水支店,655-0886,垂水区,神戸市垂水区東垂水町字菅ノ口633-1,34.642224,135.066585,商業施設,対応不可
65,夢の森保育園,655-0016,垂水区,神戸市垂水区高丸6丁目3-1,34.638509,135.055945,学校・園・児童館,対応不可
66,兵庫県立神戸商業高等学校,655-0038,垂水区,神戸市垂水区星陵台4丁目3-1,34.643931,135.04729,学校・園・児童館,対応不可
67,KTVフィットネスクラブ フレスコ,655-0893,垂水区,神戸市垂水区日向1丁目4番1号 レバンテ垂水1番館3階,34.630231,135.055669,体育施設・スポーツクラブ,対応不可
68,三井住友銀行 垂水北出張所,655-0029,垂水区,神戸市垂水区天ノ下町7-15,34.630448,135.052855,商業施設,対応不可
69,明舞センター,655-0049,垂水区,神戸市垂水区狩口台1丁目16-2,34.652666,135.026948,商業施設,対応不可
70,舞子公園管理事務所,655-0047,垂水区,神戸市垂水区東舞子町2051,34.630933,135.034333,公園・文教施設,対応不可
71,みなと銀行垂水支店,655-0027,垂水区,神戸市垂水区神田町2-39,34.629829,135.054996,商業施設,対応不可
72,みなと銀行舞子支店,655-0046,垂水区,神戸市垂水区舞子台6丁目20-15,34.639055,135.031125,商業施設,対応不可
73,レバンテ垂水1番館管理事務所,655-0893,垂水区,神戸市垂水区日向1丁目4-1,34.630231,135.055673,商業施設,対応不可
74,垂水健康公園,655-0852,垂水区,神戸市垂水区名谷町字丸尾,34.659017,135.064187,公園・文教施設,対応不可
75,舞子台ホーム,655-0046,垂水区,神戸市垂水区舞子台7丁目2-1,34.639886,135.041971,福祉施設,24時間利用可
76,神戸信用金庫 塩屋支店,655-0872,垂水区,神戸市垂水区塩屋町3-15-19,34.636022,135.082904,商業施設,対応不可
77,JA兵庫六甲 垂水駅前出張所,655-0029,垂水区,神戸市垂水区天ノ下町1-1-158,34.630131,135.052212,商業施設,対応不可
79,神戸市環境局垂水事業所,655-0006,垂水区,神戸市垂水区本多聞7丁目1-1,34.650983,135.044588,官公庁,対応不可
80,神戸市環境局自動車管理事務所(垂水車庫),655-0006,垂水区,神戸市垂水区本多聞6丁目8-10,34.651031,135.045193,官公庁,対応不可
81,佐野記念アットホーム,655-0854,垂水区,神戸市垂水区桃山台5丁目1117-1,34.657358,135.08569,福祉施設,対応不可
82,歌敷山保育園,655-0037,垂水区,神戸市垂水区歌敷山2丁目5-9,34.635444,135.040625,学校・園・児童館,対応不可
83,コスモ舞子坂,655-0043,垂水区,神戸市垂水区南多聞台4丁目1番25,34.650544,135.034155,集合住宅,対応不可
84,すすむ会クリニック,655-0854,垂水区,神戸市垂水区桃山台5町目1116-16,34.657649,135.086424,医療関連施設,対応不可
85,神戸市立本多聞保育所,655-0006,垂水区,神戸市垂水区本多聞4丁目1-2,34.65754,135.05082,学校・園・児童館,対応不可
86,神戸市立向陽保育所,655-0012,垂水区,神戸市垂水区向陽1丁目3-25,34.643656,135.063292,学校・園・児童館,対応不可
87,神戸市立奥ノ池保育所,655-0049,垂水区,神戸市垂水区狩口台3丁目1-5,34.648859,135.028905,学校・園・児童館,対応不可
88,神戸市立舞子児童館,655-0048,垂水区,神戸市垂水区西舞子7丁目30?1,34.645926,135.027866,学校・園・児童館,対応不可
89,神戸市立塩屋児童館,655-0872,垂水区,神戸市垂水区塩屋町4丁目3-9,34.634493,135.0817,学校・園・児童館,対応不可
90,西脇地域福祉センター,655-0006,垂水区,神戸市垂水区本多聞1丁目5-4,34.652529,135.038968,小集会場・公民館・地域福祉センター,対応不可
92,西脇こどもひろば,655-0006,垂水区,神戸市垂水区本多聞1丁目5-1,34.652645,135.038712,学校・園・児童館,対応不可
93,神戸市立川原保育所,655-0894,垂水区,神戸市垂水区川原2丁目1-13,34.630501,135.058206,学校・園・児童館,対応不可
94,神戸市立本多聞児童館,655-0006,垂水区,神戸市垂水区本多聞4丁目1-2,34.657467,135.050923,学校・園・児童館,対応不可
95,神戸市立小束山学童保育センター,655-0002,垂水区,神戸市垂水区小束山7丁目868-362,34.667497,135.061309,学校・園・児童館,対応不可
96,名谷学童保育コーナー,655-0852,垂水区,神戸市垂水区名谷町字大谷1896,34.662645,135.071736,学校・園・児童館,対応不可
98,サン舞子神港園,655-0035,垂水区,神戸市垂水区五色山7丁目12,34.630467,135.039798,福祉施設,24時間利用可
99,神戸市立千鳥が丘児童館,655-0011,垂水区,神戸市垂水区千鳥が丘3丁目20番14号,34.645539,135.057926,学校・園・児童館,対応不可
100,星陵台児童館,655-0038,垂水区,神戸市垂水区星陵台1丁目1番3号,34.63871,135.046168,学校・園・児童館,対応不可
101,神戸市立小束山児童館,655-0002,垂水区,神戸市垂水区小束山5丁目868-614,34.665776,135.062164,学校・園・児童館,対応不可
102,神戸市建設局垂水建設事務所,655-0013,垂水区,神戸市垂水区福田5丁目6-20,34.646844,135.067027,官公庁,対応不可
103,上高丸地域福祉センター,655-0011,垂水区,神戸市垂水区千鳥が丘3丁目20-15,34.645574,135.057778,小集会場・公民館・地域福祉センター,対応不可
104,神戸市立たるみ幼稚園,655-0016,垂水区,神戸市垂水区高丸6丁目3番1号,34.638508,135.055945,学校・園・児童館,対応不可
106,神戸市立青山台こばと幼稚園,655-0873,垂水区,神戸市垂水区青山台4丁目8-30,34.64244,135.072004,学校・園・児童館,対応不可
107,神戸市立多聞ひまわり幼稚園,655-0004,垂水区,神戸市垂水区学が丘4丁目6番1号,34.659292,135.056066,学校・園・児童館,対応不可
108,神戸市立奥の池幼稚園,655-0049,垂水区,神戸市垂水区狩口台3丁目1-5,34.648859,135.029374,学校・園・児童館,対応不可
109,神戸市立小束山幼稚園,655-0002,垂水区,神戸市垂水区小束山7丁目868番地735,34.666515,135.059818,学校・園・児童館,対応不可
110,千代が丘地域福祉センター,655-0033,垂水区,神戸市垂水区旭が丘3丁目12-3,34.637902,135.049839,小集会場・公民館・地域福祉センター,対応不可
111,ことぶき保育園,655-0013,垂水区,神戸市垂水区福田4丁目6番18号,34.645559,135.067708,学校・園・児童館,対応不可
112,生活協同組合コープこうべ コープ垂水,655-0893,垂水区,神戸市垂水区日向1丁目4-1レバンテ垂水1番館,34.630231,135.055667,商業施設,対応不可
113,生活協同組合コープこうべ コープ福田,655-0881,垂水区,神戸市垂水区東垂水町字菅の口634-1,34.642344,135.066433,商業施設,対応不可
114,生活協同組合コープこうべ コープ新多聞,655-0006,垂水区,神戸市垂水区本多聞4丁目1-250,34.655488,135.050388,商業施設,対応不可
115,生活協同組合コープこうべ コープ神陵台,655-0041,垂水区,神戸市垂水区神陵台3丁目3番,34.661671,135.035241,商業施設,対応不可
116,神戸市立霞ヶ丘児童館,655-0035,垂水区,神戸市垂水区五色山5丁目2-15,34.63136,135.043715,学校・園・児童館,対応不可
117,神戸市立桃山台児童館,655-0854,垂水区,神戸市垂水区桃山台3丁目25番地,34.656386,135.081269,学校・園・児童館,対応不可
118,東垂水児童館,655-0886,垂水区,神戸市垂水区東垂水1-1-1,34.636991,135.068531,学校・園・児童館,対応不可
119,愛垂児童館,655-0025,垂水区,神戸市垂水区瑞ヶ丘6-17,34.63406,135.056699,学校・園・児童館,対応不可
120,平磯児童館,655-0892,垂水区,神戸市垂水区平磯1丁目2-5,34.627975,135.058991,学校・園・児童館,対応不可
121,垂水年金会館,655-0892,垂水区,神戸市垂水区平磯1丁目2-5,34.628198,135.0591,集会場・ホール,対応不可
122,垂水地域福祉センター,655-0892,垂水区,神戸市垂水区平磯1丁目2-5,34.628153,135.058885,小集会場・公民館・地域福祉センター,対応不可
123,ザ・レジデンス神戸舞子,655-0036,垂水区,神戸市垂水区海岸通11番97,34.626989,135.043262,福祉施設,24時間利用可
124,舞子地域福祉センター,655-0048,垂水区,神戸市垂水区西舞子7-30-1,34.645895,135.027724,小集会場・公民館・地域福祉センター,対応不可
125,塩屋北地域福祉センター,655-0863,垂水区,神戸市垂水区塩屋北町1丁目11番3号,34.647442,135.084025,小集会場・公民館・地域福祉センター,対応不可
126,高丸地域福祉センター,655-0895,垂水区,神戸市垂水区坂上5丁目1-2,34.633067,135.060947,小集会場・公民館・地域福祉センター,対応不可
127,神戸市立東高丸保育所,655-0886,垂水区,神戸市垂水区東垂水1丁目1番3号,34.637191,135.06776,学校・園・児童館,対応不可
128,西高丸地域福祉センター,655-0016,垂水区,神戸市垂水区高丸6丁目3-1,34.63843,135.055941,小集会場・公民館・地域福祉センター,対応不可
129,神陵台児童館,655-0043,垂水区,神戸市垂水区南多聞台1丁目9番C-101,34.657048,135.033183,学校・園・児童館,対応不可
130,小束山地域福祉センター,655-0004,垂水区,神戸市垂水区学が丘7丁目1-29,34.66205,135.059128,小集会場・公民館・地域福祉センター,対応不可
131,多聞南地域福祉センター,655-0006,垂水区,神戸市垂水区本多聞6丁目8-12,34.651083,135.04538,小集会場・公民館・地域福祉センター,対応不可
132,狩口台地域福祉センター,655-0049,垂水区,神戸市垂水区狩口台2丁目31-1,34.651739,135.028157,小集会場・公民館・地域福祉センター,対応不可
133,多聞東地域福祉センター,655-0004,垂水区,神戸市垂水区学が丘4丁目3-7,34.659268,135.053561,小集会場・公民館・地域福祉センター,対応不可
134,星陵台地域福祉センター,655-0038,垂水区,神戸市垂水区星陵台7丁目5-3,34.642932,135.045703,小集会場・公民館・地域福祉センター,対応不可
135,塩屋地域福祉センター,655-0872,垂水区,神戸市垂水区塩屋町4丁目3-9,34.634512,135.081912,小集会場・公民館・地域福祉センター,対応不可
136,桃山台地域福祉センター,655-0854,垂水区,神戸市垂水区桃山台3丁目25番,34.656316,135.081233,小集会場・公民館・地域福祉センター,対応不可
137,東垂水地域福祉センター,655-0000,垂水区,神戸市垂水区王居殿2丁目5,34.635166,135.070985,小集会場・公民館・地域福祉センター,対応不可
138,多聞台地域福祉センター,655-0007,垂水区,神戸市垂水区多聞台4丁目14-9,34.661122,135.043176,小集会場・公民館・地域福祉センター,対応不可
139,霞ヶ丘地域福祉センター,655-0035,垂水区,神戸市垂水区五色山4丁目15-8,34.631008,135.044142,小集会場・公民館・地域福祉センター,対応不可
141,神陵台地域福祉センター,655-0043,垂水区,神戸市垂水区南多聞台1-8-8,34.657107,135.032629,小集会場・公民館・地域福祉センター,対応不可
142,星陵台保育所,655-0038,垂水区,神戸市垂水区星陵台8丁目13-1,34.645037,135.044689,学校・園・児童館,対応不可
143,名谷地域福祉センター,655-0852,垂水区,神戸市垂水区名谷町中坊487-3,34.652342,135.069082,小集会場・公民館・地域福祉センター,対応不可
144,本多聞地域福祉センター,655-0006,垂水区,神戸市垂水区本多聞4-1-2,34.657466,135.051001,小集会場・公民館・地域福祉センター,対応不可
145,乙木地域福祉センター,655-0874,垂水区,神戸市垂水区美山台1丁目9-40,34.63847,135.069623,小集会場・公民館・地域福祉センター,対応不可
146,福田地域福祉センター,655-0882,垂水区,神戸市垂水区乙木3丁目3-2,34.641485,135.067121,小集会場・公民館・地域福祉センター,対応不可
147,つつじが丘地域福祉センター,655-0853,垂水区,神戸市垂水区つつじが丘4-6-7,34.658962,135.074758,小集会場・公民館・地域福祉センター,対応不可
148,る・それいゆ垂水東口店,655-0893,垂水区,神戸市垂水区日向1丁目4番1号,34.630229,135.055496,商業施設,対応不可
149,乙木児童館,655-0874,垂水区,神戸市垂水区美山台2丁目1番2号,34.639752,135.070275,学校・園・児童館,対応不可
150,ジョイ垂水,655-0028,垂水区,神戸市垂水区宮本町1-28,34.627875,135.053702,福祉施設,24時間利用可
151,生活共同組合コープ神戸 コープ桃山台店,655-0854,垂水区,神戸市垂水区桃山台3丁目23-3,34.657137,135.081078,商業施設,対応不可
153,神戸市立自立援助ホームこどもの家,655-0006,垂水区,神戸市垂水区本多聞7丁目2-3,34.651427,135.044011,福祉施設,24時間利用可
154,グループホーム ハッピージョイ,655-0854,垂水区,神戸市垂水区桃山台7丁目5-10,34.661981,135.079421,福祉施設,24時間利用可
155,特別養護老人ホーム 本多聞ケアホーム,655-0006,垂水区,神戸市垂水区本多聞7丁目2-2,34.651694,135.043105,福祉施設,24時間利用可
156,社会福祉法人みかり会 花の森保育園,655-0852,垂水区,神戸市垂水区名谷町1941番1,34.664816,135.070322,学校・園・児童館,対応不可
157,社会福祉法人みかり会 上高丸保育園,655-0016,垂水区,神戸市垂水区高丸8丁目15-12,34.642908,135.057628,学校・園・児童館,対応不可
158,社会福祉法人みかり会 心の森保育園,655-0031,垂水区,神戸市垂水区清水が丘3丁目1-16,34.650535,135.035226,学校・園・児童館,対応不可
159,社会福祉法人みかり会 多夢の森保育園,655-0043,垂水区,神戸市垂水区南多聞台4丁目4-50,34.652004,135.034688,学校・園・児童館,対応不可
160,兵庫県警垂水警察署,655-0006,垂水区,神戸市垂水区本多聞3丁目12-1,34.660962,135.053404,官公庁,24時間利用可
161,兵庫県警垂水警察 垂水駅前交番,655-0028,垂水区,神戸市垂水区宮本町1,34.628114,135.053716,官公庁,24時間利用可
162,神鋼ケアライフ(株) ドマーニ神戸,655-0006,垂水区,神戸市垂水区本多聞3-1-37,34.659483,135.052681,福祉施設,24時間利用可
163,イオン垂水店,655-0029,垂水区,神戸市垂水区天ノ下町1-1,34.630121,135.052386,商業施設,対応不可
164,イオンジェームス山店,655-0873,垂水区,神戸市垂水区青山台7丁目7-1,34.646236,135.07607,商業施設,
165,特別養護老人ホーム 塩屋さくら苑,655-0872,垂水区,神戸市垂水区塩屋町4丁目25-11,34.636715,135.080417,福祉施設,24時間利用可
2,神戸市営地下鉄 西神中央駅,651-2273,西区,神戸市西区糀台5丁目,34.719472,135.017614,公共交通機関,対応不可
3,神戸市立西体育館,651-2276,西区,神戸市西区春日台5丁目436番地,34.702879,134.989172,体育施設・スポーツクラブ,対応不可
4,神戸市外国語大学,651-2102,西区,神戸市西区学園東町9丁目1,34.680416,135.060047,学校・園・児童館,対応不可
5,西神イトマンスイミングスクール西神校,651-2273,西区,神戸市西区糀台5丁目2-1,34.718782,135.019508,体育施設・スポーツクラブ,対応不可
6,イトマンスイミングスクール西神戸校,651-2111,西区,神戸市西区池上3丁目3-3,34.672081,135.02399,体育施設・スポーツクラブ,対応不可
7,神戸YMCA ウェルネスセンター学園都市,651-2102,西区,神戸市西区学園東町2丁目1-3,34.683949,135.059116,体育施設・スポーツクラブ,対応不可
8,生活協同組合コープこうべ コープデイズ西神南,651-2242,西区,神戸市西区井吹台東町1丁目1番3号,34.700032,135.030703,商業施設,対応不可
9,西区役所,651-2144,西区,神戸市西区玉津町小山字川端180番地の3,34.683358,134.981828,官公庁,24時間利用可
10,山西集荷場,651-2331,西区,神戸市西区神出町広谷623-43,34.758551,134.982142,会社・事業所,対応不可
11,西区民センター,651-2273,西区,神戸市西区糀台5丁目6番地の1,34.717609,135.018923,集会場・ホール,対応不可
12,ゆうこう内科クリニック,651-2121,西区,神戸市西区水谷2丁目20-3,34.67902,134.996356,医療関連施設,対応不可
13,神戸市営地下鉄 西神南駅,651-2242,西区,神戸市西区井吹台東町1丁目,34.699367,135.030289,公共交通機関,対応不可
14,神戸市営地下鉄 伊川谷駅,651-2109,西区,神戸市西区前開南町1丁目,34.687814,135.041495,公共交通機関,対応不可
15,神戸市営地下鉄 学園都市駅,651-2103,西区,神戸市西区学園西町1丁目,34.681474,135.057102,公共交通機関,対応不可
16,(株)神戸ニュータウン開発センター プレンティ1番館,651-2273,西区,神戸市西区糀台5丁目2-3,34.719451,135.020168,商業施設,対応不可
17,西区役所西神中央出張所,651-2273,西区,神戸市西区糀台5丁目6-1,34.717615,135.018923,官公庁,対応不可
18,神戸市立 西図書館,651-2273,西区,神戸市西区糀台5丁目6-1,34.717616,135.018926,公園・文教施設,対応不可
19,兵庫県立大学,651-2103,西区,神戸市西区学園西町8丁目2番1号,34.677479,135.051396,学校・園・児童館,対応不可
20,神戸市立伊川谷小学校,651-2117,西区,神戸市西区北別府3-3-1,34.671926,135.012649,学校・園・児童館,対応不可
21,神戸市立伊川谷中学校,651-2105,西区,神戸市西区伊川谷町上脇字鬼神山1005-2,34.677412,135.019602,学校・園・児童館,対応不可
22,神戸市立井吹台中学校,651-2243,西区,神戸市西区井吹台西町2-3,34.696486,135.031144,学校・園・児童館,対応不可
23,神戸市立井吹西小学校,651-2243,西区,神戸市西区井吹台西町4丁目3番地,34.693009,135.023384,学校・園・児童館,対応不可
24,神戸市立井吹東小学校,651-2242,西区,神戸市西区井吹台東町5-32,34.703738,135.038612,学校・園・児童館,対応不可
25,神戸市立岩岡中学校,651-2404,西区,神戸市西区岩岡町古郷249-1,34.716002,134.94384,学校・園・児童館,対応不可
26,神戸市立王塚台中学校,651-2135,西区,神戸市西区王塚台4-58,34.674705,134.974094,学校・園・児童館,対応不可
27,神戸市立押部谷中学校,651-2212,西区,神戸市西区押部谷町押部字吉谷722,34.757373,135.044638,学校・園・児童館,対応不可
28,神戸市立春日台小学校,651-2276,西区,神戸市西区春日台4-1,34.708595,134.995997,学校・園・児童館,対応不可
29,神戸市立神出小学校,651-2313,西区,神戸市西区神出町田井444,34.747112,134.988039,学校・園・児童館,対応不可
30,神戸市立神出中学校,651-2311,西区,神戸市西区神出町東1167,34.754685,134.995482,学校・園・児童館,対応不可
31,神戸市立工業高等専門学校,651-2102,西区,神戸市西区学園東町8-3,34.677688,135.068343,学校・園・児童館,対応不可
32,神戸市立糀台小学校,651-2273,西区,神戸市西区糀台3-32-1,34.719451,135.023836,学校・園・児童館,対応不可
34,神戸市立桜が丘中学校,651-2225,西区,神戸市西区桜が丘東町2-11-1,34.749094,135.060865,学校・園・児童館,対応不可
35,神戸市立西神中学校,651-2274,西区,神戸市西区竹の台5-21,34.713647,135.009969,学校・園・児童館,対応不可
36,神戸市立太山寺中学校,651-2102,西区,神戸市西区学園東町2-2,34.68491,135.061106,学校・園・児童館,対応不可
37,神戸市立竹の台小学校,651-2274,西区,神戸市西区竹の台2-10-2,34.712349,135.013337,学校・園・児童館,対応不可
38,神戸市立玉津中学校,651-2128,西区,神戸市西区玉津町今津万願寺364,34.679243,134.993296,学校・園・児童館,対応不可
39,神戸市立長坂中学校,651-2104,西区,神戸市西区伊川谷町長坂841-1,34.670429,135.037802,学校・園・児童館,対応不可
40,神戸市立櫨谷中学校,651-2273,西区,神戸市西区糀台1-2,34.717181,135.028947,学校・園・児童館,対応不可
41,神戸市立平野中学校,651-2276,西区,神戸市西区春日台2-20,34.709618,134.998487,学校・園・児童館,対応不可
42,神戸市看護大学,651-2103,西区,神戸市西区学園西町3丁目4,34.686487,135.052936,学校・園・児童館,対応不可
43,兵庫六甲農業協同組合 西神文化センター,651-2124,西区,神戸市西区伊川谷町潤和1058番,34.665166,134.998072,集会場・ホール,対応不可
44,兵庫六甲農業協同組合 岩岡支店,651-2401,西区,神戸市西区岩岡町岩岡994番1号,34.720138,134.945632,商業施設,対応不可
45,兵庫六甲農業協同組合 玉津支店,651-2128,西区,神戸市西区玉津町今津109番,34.673124,134.985833,商業施設,対応不可
46,兵庫六甲農業協同組合 神出支店,651-2313,西区,神戸市西区神出町田井459-1,34.747774,134.988051,商業施設,対応不可
47,兵庫六甲農業協同組合 伊川谷支店,651-2111,西区,神戸市西区池上4-4-1,34.67461,135.02779,商業施設,対応不可
48,兵庫六甲農業協同組合 農協市場館六甲のめぐみ,651-2204,西区,神戸市西区押部谷町高和字性海寺山1557-1,34.732197,135.033918,商業施設,対応不可
49,西神戸ゴルフ場,651-2223,西区,神戸市西区押部谷町木見975‐1,34.717751,135.080641,体育施設・スポーツクラブ,対応不可
50,特別養護老人ホーム 岩岡の郷,651-2401,西区,神戸市西区岩岡町岩岡656番地の2,34.717083,134.946685,福祉施設,対応不可
51,社会福祉法人樅の木福祉会ゼノの村,651-2312,西区,神戸市西区神出町南619番地,34.740088,134.997356,福祉施設,24時間利用可
52,江崎グリコ(株)グリコピア神戸,651-2271,西区,神戸市西区高塚台7丁目1番,34.73719,135.021104,会社・事業所,対応不可
53,神戸学院大学,651-2113,西区,神戸市西区伊川谷町有瀬518,34.664819,135.028347,学校・園・児童館,対応不可
54,(株)神戸ニュータウン開発センター セリオ,651-2242,西区,神戸市西区井吹台東町1丁目1番,34.700032,135.030699,商業施設,対応不可
55,(株)神戸ニュータウン開発センター キャンパススクエア,651-2103,西区,神戸市西区学園西町1丁目4番,34.683052,135.057757,商業施設,対応不可
56,YMCA保育園,651-2103,西区,神戸市西区学園西町5丁目4,34.683534,135.05562,学校・園・児童館,対応不可
57,社会福祉法人樅の木福祉会あさぎりの里,651-2312,西区,神戸市西区神出町南619,34.738897,134.998157,福祉施設,24時間利用可
58,西神戸YMCA幼稚園,651-2243,西区,神戸市西区井吹台西町4丁目5番,34.692588,135.021478,学校・園・児童館,対応不可
59,神戸市立東町小学校,651-2102,西区,神戸市西区学園東町5丁目5番地,34.684632,135.064523,学校・園・児童館,対応不可
60,神戸市立小寺小学校,651-2103,西区,神戸市西区学園西町5丁目5番地,34.683512,135.054154,学校・園・児童館,対応不可
61,神戸市立長坂小学校,651-2104,西区,神戸市西区伊川谷町長坂字重塚910番地の1,34.669117,135.037213,学校・園・児童館,対応不可
62,神戸市立有瀬小学校,651-2113,西区,神戸市西区伊川谷町有瀬字金井場1137-1,34.664237,135.01896,学校・園・児童館,対応不可
63,神戸市立太山寺小学校,651-2108,西区,神戸市西区伊川谷町前開860,34.696079,135.05568,学校・園・児童館,対応不可
64,神戸市立櫨谷小学校,651-2234,西区,神戸市西区櫨谷町池谷字山の谷203番地の2,34.710111,135.025471,学校・園・児童館,対応不可
65,神戸市立狩場台小学校,651-2272,西区,神戸市西区狩場台3丁目6番地の1,34.722363,135.03312,学校・園・児童館,対応不可
66,神戸市立樫野台小学校,651-2275,西区,神戸市西区樫野台3丁目3番地の1,34.706273,135.002961,学校・園・児童館,対応不可
67,神戸市立木津小学校,651-2225,西区,神戸市西区桜ヶ丘東町5丁目149番地の31,34.742883,135.065023,学校・園・児童館,対応不可
68,神戸市立桜が丘小学校,651-2226,西区,神戸市西区桜ヶ丘中町3丁目3番地の2,34.744909,135.058904,学校・園・児童館,対応不可
69,神戸市立押部谷小学校,651-2213,西区,神戸市西区押部谷町福住字四十代552-3,34.75508,135.037652,学校・園・児童館,対応不可
70,神戸市立月が丘小学校,651-2217,西区,神戸市西区月が丘7丁目2番地,34.759046,135.049712,学校・園・児童館,対応不可
71,神戸市立北山小学校,651-2215,西区,神戸市西区北山台3丁目26番1号,34.762283,135.031962,学校・園・児童館,対応不可
72,神戸市立高和小学校,651-2204,西区,神戸市西区押部谷町高和字溝田565,34.740761,135.013103,学校・園・児童館,対応不可
73,神戸市立高津橋小学校,651-2122,西区,神戸市西区玉津町高津橋字池ノ内640番の1,34.669661,134.995295,学校・園・児童館,対応不可
74,神戸市立玉津第一小学校,651-2144,西区,神戸市西区小山1丁目4番1号,34.684571,134.988203,学校・園・児童館,対応不可
75,神戸市立枝吉小学校,651-2133,西区,神戸市西区枝吉2丁目95番地,34.664709,134.978107,学校・園・児童館,対応不可
76,神戸市立出合小学校,651-2136,西区,神戸市西区中野1丁目22-1,34.676664,134.972916,学校・園・児童館,対応不可
77,神戸市立美賀多台小学校,651-2277,西区,神戸市西区美賀多台6丁目1番地,34.719857,135.005541,学校・園・児童館,対応不可
78,神戸市立平野小学校,651-2265,西区,神戸市西区平野町宮前301番地,34.705724,134.982204,学校・園・児童館,対応不可
79,神戸市立岩岡小学校,651-2404,西区,神戸市西区岩岡町古郷267,34.71817,134.943849,学校・園・児童館,対応不可
80,神戸信用金庫 西神ニュータウン支店,651-2273,西区,神戸市西区糀台5丁目6-1,34.718983,135.018439,商業施設,対応不可
81,播州信用金庫 西神南支店,651-2243,西区,神戸市西区井吹台西町1丁目1-3,34.698225,135.029416,商業施設,対応不可
82,播州信用金庫 大久保支店,651-2411,西区,神戸市西区上新地1丁目2-3,34.712135,134.941991,商業施設,対応不可
83,木下内科クリニック,651-2113,西区,神戸市西区伊川谷町有瀬308-1,34.668027,135.034051,医療関連施設,対応不可
84,中嶋石油株式会社セルフ岩岡S.S.,651-2404,西区,神戸市西区岩岡町古郷2602-1,34.711669,134.91424,商業施設,24時間利用可
85,三井住友銀行 神戸学園都市出張所,651-2103,西区,神戸市西区学園西町1丁目13番,34.681478,135.057876,商業施設,対応不可
86,三井住友銀行 西神中央支店,651-2273,西区,神戸市西区糀台5丁目10-2,34.719841,135.016715,商業施設,対応不可
87,神戸製綱所 技術開発本部,651-2271,西区,神戸市西区高塚台1丁目5-5,34.733104,135.028295,会社・事業所,対応不可
88,学校法人 甲南学園 合宿所,651-2302,西区,神戸市西区神出町古神字浦山48,34.767581,135.006805,学校・園・児童館,対応不可
89,コニカミノルタ(株)神戸サイト,651-2271,西区,神戸市西区高塚台1丁目5-3,34.73347,135.026318,会社・事業所,対応不可
90,コニカミノルタ(株)西神サイト,651-2271,西区,神戸市西区高塚台4丁目4-1,34.724981,135.021719,会社・事業所,対応不可
91,老人保健施設 ハーベスピア,651-2113,西区,神戸市西区伊川谷町有瀬1432-1,34.662766,135.012817,福祉施設,対応不可
93,兵庫ヤクルト販売株式会社,651-2122,西区,神戸市西区玉津町高津橋137番地の1,34.66799,134.992468,会社・事業所,対応不可
94,(株)クリムゾンフットボールクラブ(ヴィッセル神戸クラブハウス),651-2231,西区,神戸市西区櫨谷町寺谷1242‐111,34.707243,135.053077,体育施設・スポーツクラブ,対応不可
95,住電半導体材料株式会社,651-2271,西区,神戸市西区高塚台1丁目9-2,34.731103,135.032715,会社・事業所,対応不可
96,みなと銀行 伊川谷支店,651-2111,西区,神戸市西区池上2丁目22-6,34.671549,135.025074,商業施設,対応不可
97,みなと銀行 西神中央支店,651-2273,西区,神戸市西区糀台5丁目10-2,34.719741,135.016569,商業施設,対応不可
98,みなと銀行 岩岡支店,651-2412,西区,神戸市西区竜が岡1丁目3-4,34.709443,134.938937,商業施設,対応不可
100,神戸信用金庫 玉津支店,651-2135,西区,神戸市西区王塚台7-85,34.673402,134.981408,商業施設,対応不可
101,神戸信用金庫 学園都市支店,651-2103,西区,神戸市西区学園西町1-13,34.681479,135.057106,商業施設,対応不可
102,兵庫六甲農業共同組合 神戸西営農総合センター,651-2266,西区,神戸市西区平野町印路660-1,34.713729,134.971483,会社・事業所,対応不可
103,兵庫六甲農業共同組合 池上支店,651-2111,西区,神戸市西区池上3丁目3-2,34.672162,135.024323,商業施設,対応不可
104,兵庫六甲農業共同組合 押部支店,651-2202,西区,神戸市西区押部谷町西盛323-2,34.753677,135.03319,商業施設,対応不可
105,兵庫六甲農業共同組合 櫨谷支店,651-2235,西区,神戸市西区櫨谷町長谷68-1,34.707189,135.020009,商業施設,対応不可
106,兵庫六甲農業共同組合 平野支店,651-2251,西区,神戸市西区平野町下村325,34.704238,134.982411,商業施設,対応不可
107,兵庫県立神戸高等技術専門学院,651-2102,西区,神戸市西区学園東町5丁目2,34.68291,135.066269,学校・園・児童館,対応不可
108,(社)兵庫みどり公社 兵庫楽農生活センター,651-2304,西区,神戸市西区神出町小束野30-17,34.758873,134.99332,会社・事業所,対応不可
109,さわらび学園 第1寮,651-2312,西区,神戸市西区神出町南619番地,34.740032,134.996765,福祉施設,24時間利用可
110,さわらび学園 第2寮,651-2312,西区,神戸市西区神出町南619番地,34.739729,134.997401,福祉施設,24時間利用可
111,さわらび学園児童デイサービスセンター あのね,651-2312,西区,神戸市西区神出町南619番地,34.73966,134.997409,福祉施設,対応不可
112,滝川第二中・高等学校,651-2276,西区,神戸市西区春日台6丁目23番,34.705602,134.988507,学校・園・児童館,対応不可
113,特別養護老人ホーム 永栄園,651-2104,西区,神戸市西区伊川谷町長坂800,34.672116,135.033666,福祉施設,対応不可
114,特別養護老人ホーム 万寿の家,651-2134,西区,神戸市西区曙町1070,34.672125,134.975589,福祉施設,24時間利用可
115,特別養護老人ホーム サンビラこうべ,651-2321,西区,神戸市西区神出町宝勢774番地39,34.728982,134.972579,福祉施設,24時間利用可
116,イズミヤ株式会社 西神戸店,651-2412,西区,神戸市西区竜が岡1丁目21番地1,34.71075,134.940086,商業施設,対応不可
117,イズミヤ株式会社 神戸玉津店,651-2132,西区,神戸市西区森友3丁目7-3,34.663469,134.983031,商業施設,対応不可
118,兵庫県立伊川谷高等学校,651-2104,西区,神戸市西区伊川谷町長坂910-5,34.670243,135.035878,学校・園・児童館,対応不可
119,流通科学大学 講義棟I,651-2103,西区,神戸市西区学園西町3丁目1番,34.686955,135.05759,学校・園・児童館,対応不可
120,流通科学大学 本部棟,651-2103,西区,神戸市西区学園西町3丁目1番,34.686068,135.057998,学校・園・児童館,24時間利用可
121,流通科学大学 アスレチック棟,651-2103,西区,神戸市西区学園西町3丁目1番,34.687735,135.057742,学校・園・児童館,対応不可
122,流通科学大学 第2クラブハウス,651-2103,西区,神戸市西区学園西町3丁目1番,34.687923,135.055488,学校・園・児童館,対応不可
123,特別養護老人ホーム 透鹿園,651-2263,西区,神戸市西区平野町常本309-5,34.720982,134.984019,福祉施設,24時間利用可
124,兵庫県立伊川谷北高等学校,651-2103,西区,神戸市西区学園西町6丁目1番,34.680883,135.048004,学校・園・児童館,対応不可
125,神戸芸術工科大学,651-2103,西区,神戸市西区学園西町8丁目1-1,34.677631,135.057796,学校・園・児童館,対応不可
126,兵庫県立神戸高塚高等学校,651-2277,西区,神戸市西区美賀多台9丁目1番,34.724229,135.00941,学校・園・児童館,対応不可
127,国立障害者リハビリテーションセンター自立支援局神戸視力障害センター,651-2134,西区,神戸市西区曙町1070,34.669466,134.979211,福祉施設,対応不可
128,富士電機株式会社神戸工場,651-2271,西区,神戸市西区高塚台4丁目1番地の1,34.727574,135.02866,会社・事業所,対応不可
129,総合リハビリテーションセンター 県立障害者スポーツ交流館,651-2134,西区,神戸市西区曙町1070,34.672106,134.976422,体育施設・スポーツクラブ,対応不可
130,総合リハビリテーションセンター 自立生活訓練センター,651-2134,西区,神戸市西区曙町1070,34.670757,134.978688,福祉施設,対応不可
131,シーシーアイ株式会社,651-2271,西区,神戸市西区高塚台6丁目2-2,34.731624,135.017676,会社・事業所,対応不可
132,リハビリテーション中央病院,651-2134,西区,神戸市西区曙町1070,34.670808,134.97671,医療関連施設,対応不可
133,総合リハビリテーションセンター のぞみの家,651-2134,西区,神戸市西区曙町1070,34.671565,134.976067,福祉施設,24時間利用可
134,総合リハビリテーションセンター あけぼのの家,651-2134,西区,神戸市西区曙町1070,34.670555,134.977542,福祉施設,対応不可
135,神戸市環境局西事業所,651-2253,西区,神戸市西区平野町向井字祇園尾100,34.701387,134.983938,官公庁,対応不可
136,神戸市環境局西クリーンセンター,651-2106,西区,神戸市西区伊川谷町井吹74,34.682487,135.020573,官公庁,対応不可
137,神戸市環境局布施畑環境センター,651-2101,西区,神戸市西区伊川谷町布施畑1172-2,34.715619,135.082845,官公庁,対応不可
138,神戸市環境局布施畑環境センター(破砕施設),651-2101,西区,神戸市西区伊川谷町布施畑1172-2,34.713527,135.082324,官公庁,対応不可
139,学園西町地域福祉センター,651-2103,西区,神戸市西区学園西町5丁目2-3,34.682931,135.055473,小集会場・公民館・地域福祉センター,対応不可
140,西神看護専門学校,651-2301,西区,神戸市西区神出町勝成78番地53号,34.77311,134.993336,学校・園・児童館,対応不可
141,神出自然教育園,651-2313,西区,神戸市西区神出町田井字岡,34.743321,134.982858,公園・文教施設,対応不可
142,介護老人保健施設たちばな苑,651-2301,西区,神戸市西区神出町勝成78番地53号,34.77341,134.992315,福祉施設,24時間利用可
144,株式会社 あかつき,651-2113,西区,神戸市西区伊川谷町有瀬27,34.669251,135.035786,会社・事業所,24時間利用可
145,介護老人保健福祉施設 風と緑,651-2113,西区,神戸市西区伊川谷町有瀬317番地2号,34.668898,135.032458,福祉施設,24時間利用可
146,特別養護老人ホーム 花園ホーム,651-2255,西区,神戸市西区平野町慶明字花岡77,34.691161,134.989773,福祉施設,24時間利用可
147,神戸市埋蔵文化財センター,651-2273,西区,神戸市西区糀台6丁目 西神中央公園内,34.715027,135.018049,官公庁,対応不可
148,神戸市立玉津南公民館,651-2126,西区,神戸市西区玉津町上池314番地,34.660141,134.990919,小集会場・公民館・地域福祉センター,対応不可
149,兵庫県立のじぎく特別支援学校,651-2215,西区,神戸市西区北山台2丁目566番地134号,34.765959,135.032683,学校・園・児童館,対応不可
150,神戸市資源リサイクルセンター,651-2228,西区,神戸市西区見津が丘1丁目9,34.740741,135.087742,会社・事業所,対応不可
151,神戸ワイナリー農業公園,651-2204,西区,神戸市西区押部谷町高和1557番地1号,34.732177,135.040688,公園・文教施設,対応不可
153,兵庫県立神出学園,651-2304,西区,神戸市西区神出町小束野30,34.759415,134.993416,学校・園・児童館,対応不可
154,オーク・スクエア西神中央団地管理組合,651-2275,西区,神戸市西区樫野台5丁目3番地,34.709366,135.001383,集合住宅,24時間利用可
155,特別養護老人ホーム 萬寿園,651-2304,西区,神戸市西区神出町小束野58番地の92,34.772379,134.987971,福祉施設,24時間利用可
156,ラ・フォルテ西神中央 管理棟,651-2274,西区,神戸市西区竹の台6丁目6番地,34.718307,135.014937,集合住宅,24時間利用可
157,ラ・フォルテ西神中央 1番館,651-2274,西区,神戸市西区竹の台6丁目6番地,34.71792,135.015024,集合住宅,24時間利用可
158,ラ・フォルテ西神中央 2番館,651-2274,西区,神戸市西区竹の台6丁目6番地,34.717067,135.014925,集合住宅,24時間利用可
159,ラ・フォルテ西神中央 3番館,651-2274,西区,神戸市西区竹の台6丁目6番地,34.716777,135.014372,集合住宅,24時間利用可
160,ラ・フォルテ西神中央 4番館,651-2274,西区,神戸市西区竹の台6丁目6番地,34.717305,135.013978,集合住宅,24時間利用可
161,ラ・フォルテ西神中央 5番館,651-2274,西区,神戸市西区竹の台6丁目6番地,34.717873,135.013913,集合住宅,24時間利用可
162,ラ・フォルテ西神中央 6番館,651-2274,西区,神戸市西区竹の台6丁目6番地,34.717806,135.014599,集合住宅,24時間利用可
163,社会福祉法人 あゆみの会 あゆみの里,651-2321,西区,神戸市西区神出町宝勢858-1,34.727915,134.972948,福祉施設,24時間利用可
164,神出地域福祉センター,651-2313,西区,神戸市西区神出町田井字長原34-2,34.746238,134.990052,小集会場・公民館・地域福祉センター,対応不可
165,玉津地域福祉センター,651-2137,西区,神戸市西区玉津町出合字古瀬204-4,34.674789,134.982045,小集会場・公民館・地域福祉センター,対応不可
166,月が丘地域福祉センター,651-2217,西区,神戸市西区月が丘5丁目1-12,34.759892,135.04988,小集会場・公民館・地域福祉センター,対応不可
167,神戸市立井吹台児童館,651-2242,西区,神戸市西区井吹台東町4丁目20-7,34.703511,135.041739,学校・園・児童館,対応不可
168,桜が丘地域福祉センター,651-2225,西区,神戸市西区桜ヶ丘東町1丁目3-1,34.751296,135.058758,小集会場・公民館・地域福祉センター,対応不可
169,神戸市立玉津保育所,651-2125,西区,神戸市西区玉津町新方211-3,34.660851,134.990919,学校・園・児童館,対応不可
170,学園東地域福祉センター,651-2102,西区,神戸市西区学園東町5町目4,34.684109,135.065445,小集会場・公民館・地域福祉センター,対応不可
171,神戸市立王塚台保育所,651-2135,西区,神戸市西区王塚台5丁目115,34.673517,134.975786,学校・園・児童館,対応不可
172,神戸市立押部谷保育所,651-2216,西区,神戸市西区美穂が丘1丁目1,34.757627,135.042823,学校・園・児童館,対応不可
173,神戸市立押部谷児童館,651-2216,西区,神戸市西区美穂が丘1丁目1,34.757637,135.042417,学校・園・児童館,対応不可
174,(株)カインズホーム神戸西神南店,651-2243,西区,神戸市西区井吹台西町1丁目1番地,34.69911,135.029157,商業施設,対応不可
175,神戸市立神出児童館,651-2313,西区,神戸市西区神出町田井34-2,34.746317,134.990054,学校・園・児童館,対応不可
176,神戸市立井吹西児童館,651-2243,西区,神戸市西区井吹台西町4丁目4番地,34.692132,135.022209,学校・園・児童館,対応不可
177,神戸市立狩場台児童館,651-2272,西区,神戸市西区狩場台3丁目6-2,34.723056,135.031604,学校・園・児童館,対応不可
178,神戸市立玉津児童館,651-2126,西区,神戸市西区玉津町上池315-1,34.659875,134.99051,学校・園・児童館,対応不可
179,神戸市立櫨谷児童館,651-2234,西区,神戸市西区櫨谷町池谷字苗代ノ内440-1,34.710519,135.025682,学校・園・児童館,対応不可
180,神戸市立岩岡児童館,651-2411,西区,神戸市西区上新地2-3-6,34.713885,134.93762,学校・園・児童館,対応不可
181,神戸市立岩岡学童保育コーナー,651-2404,西区,神戸市西区岩岡町古郷267,34.717915,134.943145,学校・園・児童館,対応不可
182,神戸市立有瀬学童保育コーナー,651-2113,西区,神戸市西区伊川谷町有瀬696-12,34.663196,135.011146,学校・園・児童館,対応不可
183,神戸市立有瀬児童館,651-2113,西区,神戸市西区伊川谷町有瀬1137-8,34.665552,135.018926,学校・園・児童館,対応不可
184,神戸市立長坂学童保育コーナー,651-2104,西区,神戸市西区伊川谷町長坂字重塚910-1,34.66883,135.037117,学校・園・児童館,対応不可
185,神戸市立平野児童館,651-2265,西区,神戸市西区平野町宮前233,34.708262,134.983382,学校・園・児童館,対応不可
186,社会福祉法人平野福祉会平野保育園,651-2254,西区,神戸市西区平野町芝崎298?1,34.696204,134.98336,学校・園・児童館,対応不可
187,コニカミノルタオプト(株),651-2271,西区,神戸市西区高塚台7-3-1,34.73808,135.022865,会社・事業所,対応不可
188,社会福祉法人神港園シルビアホーム,651-2311,西区,神戸市西区神出町東1188-345,34.758051,135.018714,福祉施設,対応不可
189,社会福祉法人神港園 養護老人ホーム神港園,651-2311,西区,神戸市西区神出町東1188-345,34.757168,135.019785,福祉施設,対応不可
190,ユニタイト株式会社,651-2271,西区,神戸市西区高塚台3-1-12,34.728722,135.022322,会社・事業所,対応不可
191,神戸市立秋葉台児童館,651-2224,西区,神戸市西区秋葉台3丁目2-29,34.744787,135.067329,学校・園・児童館,対応不可
192,株式会社カネカフード,651-2271,西区,神戸市西区高塚台2-11-1,34.733682,135.024312,会社・事業所,対応不可
193,川崎重工業株式会社 精密機械カンパニー総合事務所1号館,651-2239,西区,神戸市西区櫨谷町松本234番地,34.688759,135.000731,会社・事業所,対応不可
194,川崎重工業株式会社 精密機械カンパニー総合事務所2号館,651-2239,西区,神戸市西区櫨谷町松本234番地,34.689011,135.000771,会社・事業所,対応不可
195,川崎重工業株式会社 精密機械カンパニー開発第2工場,651-2239,西区,神戸市西区櫨谷町松本234番地,34.68955,135.000586,会社・事業所,対応不可
196,川崎重工業株式会社 精密機械カンパニーサービス工場,651-2239,西区,神戸市西区櫨谷町松本234番地,34.690351,135.002206,会社・事業所,対応不可
197,川崎重工業株式会社 精密機械カンパニー装置工場,651-2239,西区,神戸市西区櫨谷町松本234番地,34.689872,135.001998,会社・事業所,対応不可
198,川崎重工業株式会社 精密機械カンパニー機器第1工場,651-2239,西区,神戸市西区櫨谷町松本234番地,34.689051,135.001947,会社・事業所,対応不可
199,川崎重工業株式会社 精密機械カンパニー機器第2工場,651-2239,西区,神戸市西区櫨谷町松本234番地,34.68802,135.001913,会社・事業所,対応不可
200,川崎重工業株式会社 精密機械カンパニー機器第3工場,651-2239,西区,神戸市西区櫨谷町松本234番地,34.686864,135.001737,会社・事業所,対応不可
201,川崎重工業株式会社 精密機械カンパニー機器第4工場,651-2239,西区,神戸市西区櫨谷町松本234番地,34.686327,135.001619,会社・事業所,対応不可
202,川崎重工業株式会社 精密機械カンパニーコアパーツ工場1階,651-2239,西区,神戸市西区櫨谷町松本234番地,34.687309,135.000524,会社・事業所,対応不可
203,川崎重工業株式会社 精密機械カンパニーコアパーツ工場2階,651-2239,西区,神戸市西区櫨谷町松本234番地,34.687495,135.000531,会社・事業所,対応不可
204,神戸市立伊川谷児童館,651-2117,西区,神戸市西区北別府3-6-9,34.672763,135.013608,学校・園・児童館,対応不可
205,神戸市立太山寺児童館,651-2103,西区,神戸市西区学園西町5丁目2番地の3,34.683104,135.055495,学校・園・児童館,対応不可
206,神戸市立玉津北児童館,651-2148,西区,神戸市西区長畑町162番地4号,34.688046,134.983431,学校・園・児童館,対応不可
207,神戸市立美賀多台児童館,651-2277,西区,神戸市西区美賀多台3丁目13番,34.717609,135.005231,学校・園・児童館,対応不可
208,神戸市立竹の台児童館,651-2274,西区,神戸市西区竹の台2丁目20-1,34.71144,135.011938,学校・園・児童館,対応不可
209,神戸市立枝吉児童館,651-2133,西区,神戸市西区枝吉4丁目26,34.66734,134.974558,学校・園・児童館,対応不可
210,神戸市立春日台児童館,651-2276,西区,神戸市西区春日台4丁目6-2,34.707337,134.995467,学校・園・児童館,対応不可
211,西神オリエンタルホテル,651-2273,西区,神戸市西区糀台5丁目6番3号,34.720286,135.018367,宿泊施設,24時間利用可
212,社会福祉法人愛児会 あゆみ幼児園,651-2273,西区,神戸市西区糀台3丁目32番地7,34.718813,135.024369,学校・園・児童館,対応不可
213,出合地域福祉センター,651-2135,西区,神戸市西区王塚台5丁目73,34.674922,134.976709,小集会場・公民館・地域福祉センター,対応不可
214,たけのプラザ集会所,651-2274,西区,神戸市西区竹の台2丁目20-4,34.711305,135.01152,小集会場・公民館・地域福祉センター,対応不可
215,岩岡第一地域福祉センター,651-2401,西区,神戸市西区岩岡町岩岡922番地の1,34.720567,134.947838,小集会場・公民館・地域福祉センター,対応不可
216,岩岡第二地域福祉センター,651-2412,西区,神戸市西区竜が岡2丁目15-12,34.710852,134.934422,小集会場・公民館・地域福祉センター,対応不可
217,伊川谷地域福祉センター,651-2115,西区,神戸市西区伊川谷町別府1337-1,34.676364,135.020031,小集会場・公民館・地域福祉センター,対応不可
218,長坂地域福祉センター,651-2113,西区,神戸市西区伊川谷町有瀬603-2,34.664026,135.023963,小集会場・公民館・地域福祉センター,対応不可
219,井吹東地域福祉センター,651-2242,西区,神戸市西区井吹台東町4丁目21-2,34.703383,135.041465,小集会場・公民館・地域福祉センター,対応不可
220,押部谷地域福祉センター,651-2202,西区,神戸市西区押部谷町西盛313,34.753751,135.033512,小集会場・公民館・地域福祉センター,対応不可
221,狩場台地域福祉センター,651-2272,西区,神戸市西区狩場台3丁目6番地の2,34.722933,135.031712,小集会場・公民館・地域福祉センター,対応不可
222,高津橋地域福祉センター,651-2122,西区,神戸市西区玉津町高津橋188,34.669983,134.992634,小集会場・公民館・地域福祉センター,対応不可
223,春日台地域福祉センター,651-2276,西区,神戸市西区春日台4丁目5番地,34.707315,134.995843,小集会場・公民館・地域福祉センター,対応不可
224,神戸市立いかわ幼稚園,651-2115,西区,神戸市西区伊川谷町別府1342,34.675695,135.019968,学校・園・児童館,対応不可
225,神戸市立太山寺幼稚園,651-2108,西区,神戸市西区伊川谷町前開860,34.696393,135.054929,学校・園・児童館,対応不可
226,太山寺地域福祉センター,651-2109,西区,神戸市西区前開南町2丁目1番20号,34.685894,135.047329,小集会場・公民館・地域福祉センター,対応不可
227,樫野台地域福祉センター,651-2275,西区,神戸市西区樫野台5丁目4-2,34.708495,135.002403,小集会場・公民館・地域福祉センター,対応不可
228,神戸市立北山福祉センター,651-2215,西区,神戸市西区北山台3丁目26-1,34.762479,135.031766,小集会場・公民館・地域福祉センター,対応不可
229,井吹西地域福祉センター,651-2243,西区,神戸市西区井吹台西町4丁目4番地,34.692201,135.022455,小集会場・公民館・地域福祉センター,対応不可
230,神戸市立おしんべ幼稚園,651-2202,西区,神戸市西区押部谷町西盛174,34.754533,135.036214,学校・園・児童館,対応不可
231,櫨谷地域福祉センター,651-2235,西区,神戸市西区櫨谷町長谷75,34.70576,135.019924,小集会場・公民館・地域福祉センター,対応不可
232,神戸市立櫨谷幼稚園,651-2234,西区,神戸市西区櫨谷町池谷字山の谷203-2,34.70973,135.024944,学校・園・児童館,対応不可
233,神戸市立岩岡幼稚園,651-2404,西区,神戸市西区岩岡町古郷2294,34.717478,134.943348,学校・園・児童館,対応不可
234,竹の台地域福祉センター,651-2274,西区,神戸市西区竹の台2-20-1,34.711545,135.011736,小集会場・公民館・地域福祉センター,対応不可
235,有瀬地域福祉センター,651-2113,西区,神戸市西区伊川谷町有瀬1137-30,34.665101,135.019514,小集会場・公民館・地域福祉センター,対応不可
236,押部谷東地域福祉センター,651-2224,西区,神戸市西区秋葉台2丁目1-272,34.745191,135.066792,小集会場・公民館・地域福祉センター,対応不可
237,枝吉地域福祉センター,651-2133,西区,神戸市西区枝吉4丁目48-4,34.668041,134.975561,小集会場・公民館・地域福祉センター,対応不可
238,神戸市立神出幼稚園,651-2313,西区,神戸市西区神出町田井425番地の2,34.74732,134.987069,学校・園・児童館,対応不可
239,神戸市立たまつ幼稚園,651-2137,西区,神戸市西区玉津町出合字古瀬183番地の5,34.674361,134.983094,学校・園・児童館,対応不可
240,神戸市立玉津第二幼稚園,651-2125,西区,神戸市西区玉津町新方字南方452-3,34.66129,134.989661,学校・園・児童館,対応不可
241,糀台地域福祉センター,651-2273,西区,神戸市西区糀台3-32-6,34.718862,135.023786,小集会場・公民館・地域福祉センター,対応不可
242,神戸市立平野幼稚園,651-2265,西区,神戸市西区平野町宮前字広畑275番地の1,34.705349,134.980579,学校・園・児童館,対応不可
243,神戸市立木津幼稚園,651-2222,西区,神戸市西区押部谷町木津71-5,34.748213,135.071977,学校・園・児童館,対応不可
244,高和地域福祉センター,651-2204,西区,神戸市西区押部谷町高和774,34.740977,135.013744,小集会場・公民館・地域福祉センター,対応不可
245,美賀多台地域福祉センター,651-2277,西区,神戸市西区美賀多台3-13-4,34.717365,135.005618,小集会場・公民館・地域福祉センター,対応不可
246,神戸市建設局西建設事務所,651-2128,西区,神戸市西区玉津町今津字宮の西333-1,34.681529,134.993518,官公庁,対応不可
247,平野地域福祉センター,651-2265,西区,神戸市西区平野町宮前148,34.709028,134.983696,小集会場・公民館・地域福祉センター,対応不可
248,日本都市ホテル開発株式会社太山寺なでしこの湯,651-2108,西区,神戸市西区伊川谷町前開270-1,34.695594,135.063605,宿泊施設,対応不可
249,ロイヤルホームセンター伊川谷,651-2109,西区,神戸市西区伊川谷町前開南1丁目1-15,34.686165,135.039918,商業施設,対応不可
251,中田エンヂニアリング株式会社,651-2312,西区,神戸市西区神出町南619番地,34.740336,134.998694,会社・事業所,対応不可
252,生活協同組合コープこうべ コープ桜が丘,651-2226,西区,神戸市西区桜が丘中町3丁目2-3,34.746344,135.058667,商業施設,対応不可
253,生活協同組合コープこうべ コープ西神,651-2276,西区,神戸市西区春日台3丁目3,34.706434,134.996978,商業施設,対応不可
254,生活協同組合コープこうべ コープデイズ神戸西,651-2111,西区,神戸市西区池上3丁目3-1,34.671532,135.024399,商業施設,対応不可
256,神戸金剛コルメット製作所,651-2132,西区,神戸市西区森友1丁目70番地,34.660407,134.97797,会社・事業所,対応不可
257,パルティ(神戸交通振興株式会社),651-2277,西区,神戸市西区美賀多台9丁目2-2,34.72618,135.010509,会社・事業所,対応不可
258,マイコート樫野台 集会所,651-2275,西区,神戸市西区樫野台6丁目1-119,34.711306,135.006121,集合住宅,24時間利用可
259,タルミグリーンテニスクラブ,651-2113,西区,神戸市西区伊川谷町有瀬318,34.668661,135.033112,体育施設・スポーツクラブ,対応不可
260,神戸市建設局西水環境センター西神施設課(玉津処理場),651-2132,西区,神戸市西区森友1丁目26,34.662478,134.980264,官公庁,対応不可
261,千寿製薬株式会社 コーベクリエイティブセンター,651-2241,西区,神戸市西区室谷1-5-4,34.703726,135.05541,会社・事業所,対応不可
262,西神南テニスガーデン ITCいぶきの森インドアテニススクール,651-2242,西区,神戸市西区井吹台東町7丁目11,34.703056,135.045688,体育施設・スポーツクラブ,対応不可
263,西神ニュータウンテニスガーデン,651-2271,西区,神戸市西区高塚台4丁目12,34.722561,135.022448,体育施設・スポーツクラブ,対応不可
264,学校法人 入江学園 桑ノ木幼稚園,651-2274,西区,神戸市西区竹の台2丁目10-1,34.712817,135.013635,学校・園・児童館,対応不可
265,兵庫県警神戸市西警察 古郷交番,651-2412,西区,神戸市西区竜が岡2丁目15-8,34.710826,134.933689,官公庁,24時間利用可
266,兵庫県警神戸市西警察署,651-2273,西区,神戸市西区糀台5丁目12-2,34.71644,135.017135,官公庁,24時間利用可
267,ヒラキ岩岡店,651-2405,西区,神戸市西区岩岡町野中字福吉556,34.718977,134.928725,商業施設,対応不可
268,新電機工業株式会社,651-2143,西区,神戸市西区丸塚1丁目25-7,34.682593,134.985488,会社・事業所,対応不可
269,株式会社 そごう・西武 そごう西神店,651-2273,西区,神戸市西区糀台5丁目9-4,34.71871,135.017769,商業施設,対応不可
270,(株)F.O.インターナショナル 神戸デリバリーセンター,651-2228,西区,神戸市西区見津が丘3丁目9番1号,34.739795,135.080804,会社・事業所,
271,サンドビック株式会社プロセスシステムカンパニー,651-2228,西区,神戸市西区美津が丘1丁目18,34.741112,135.085048,会社・事業所,
272,ダイキ西神戸店,651-2124,西区,神戸市西区伊川谷町潤和700,34.667966,135.003667,商業施設,
273,医療法人三友会 なでしこレディースホスピタル,651-2242,西区,神戸市西区井吹台東町2丁目13番地,34.697447,135.032764,医療関連施設,24時間利用可
274,NSIパールブリッジスイミング,651-2113,西区,神戸市西区伊川谷町有瀬690-1,34.663123,135.019639,体育施設・スポーツクラブ,対応不可
1,(株)築港ポートアイランド化学品センター,650-0045,水上,神戸市中央区港島8丁目7,34.670277,135.232668,会社・事業所,対応不可
2,(株)ホテルオークラ神戸,650-0042,水上,神戸市中央区波止場町2-1,34.683948,135.187966,宿泊施設,24時間利用可
3,(財)神戸国際観光コンベンション協会 神戸国際会議場,650-0046,水上,神戸市中央区港島中町6-9-1,34.666377,135.21286,集会場・ホール,対応不可
4,財団法人神戸国際観光コンベンション協会 神戸国際展示場,650-0046,水上,神戸市中央区港島中町6-11-1,34.663792,135.21179,集会場・ホール,対応不可
5,財団法人神戸国際観光コンベンション協会 神戸ポートアイランドホール,650-0046,水上,神戸市中央区港島中町6-12-2,34.664204,135.210093,集会場・ホール,対応不可
6,神戸ポートピアホテル,650-0046,水上,神戸市中央区港島中町6-10-1,34.66526,135.213666,宿泊施設,24時間利用可
7,大阪ガス株式会社 兵庫導管部,650-0046,水上,神戸市中央区港島中町4-5-3,34.670767,135.208621,会社・事業所,対応不可
9,神戸空港旅客ターミナルビル,650-0048,水上,神戸市中央区神戸空港1,34.636874,135.228752,公共交通機関,対応不可
10,神戸市立ポートアイランドスポーツセンター,650-0046,水上,神戸市中央区港島中町6-12-1,34.662855,135.210716,体育施設・スポーツクラブ,対応不可
11,(株)兵食 八突冷蔵庫,651-0082,水上,神戸市中央区小野浜町9-96,34.692871,135.211057,会社・事業所,対応不可
12,(株)兵食 五突冷蔵庫,651-0082,水上,神戸市中央区小野浜町13-1,34.686427,135.208851,会社・事業所,対応不可
13,神戸海洋博物館・カワサキワールド,650-0042,水上,神戸市中央区波止場町2-2,34.683039,135.188516,公園・文教施設,対応不可
14,神戸信用金庫 ポートアイランド支店,650-0046,水上,神戸市中央区港島中町3-2-6,34.670027,135.210417,商業施設,対応不可
15,神戸ポートタワー,650-0042,水上,神戸市中央区波止場町5-5,34.682702,135.186803,公園・文教施設,対応不可
17,港島中学校,650-0046,水上,神戸市中央区港島中町3-2-2,34.669665,135.214237,学校・園・児童館,対応不可
18,早駒運輸(株),650-0042,水上,神戸市中央区波止場町2-7,34.684555,135.189971,会社・事業所,対応不可
19,神戸商工会議所,650-0046,水上,神戸市中央区港島中町6-1,34.667003,135.212131,会社・事業所,対応不可
20,ホテルパールシティ神戸,650-0046,水上,神戸市中央区港島中町7-5-1,34.66752,135.216078,宿泊施設,24時間利用可
21,バンドー神戸青少年科学館,650-0046,水上,神戸市中央区港島中町7-7-6,34.666089,135.218562,公園・文教施設,対応不可
22,神戸学院大学,650-0045,水上,神戸市中央区港島1-1-3,34.671627,135.205251,学校・園・児童館,対応不可
23,久保田セメント株式会社 本社,650-0047,水上,神戸市中央区港島南町3丁目3-4,34.657377,135.210243,会社・事業所,対応不可
24,ニチイ学館神戸ポートアイランドセンター,650-0047,水上,神戸市中央区港島南町7-1-5,34.654693,135.224672,大集会場・ホール,対応不可
25,エバーグリーンポートアイランド,650-0046,水上,神戸市中央区港島中町3-2-6,34.668828,135.21116,集合住宅,24時間利用可
26,港島小学校,650-0046,水上,神戸市中央区港島中町3-2-3,34.669079,135.212456,学校・園・児童館,対応不可
27,神戸女子短期大学,650-0046,水上,神戸市中央区港島中町4-7-2,34.667471,135.20766,学校・園・児童館,対応不可
28,バンドー化学(株),650-0047,水上,神戸市中央区港島南町4-6-6,34.655383,135.215138,会社・事業所,対応不可
29,財団法人 先端医療振興財団,650-0047,水上,神戸市中央区港島南町6-7-6神戸ハイブリットビジネスセンター,34.6577,135.218538,医療関連施設,対応不可
30,IKEA神戸,650-0046,水上,神戸市中央区港島中町8-7-1,34.664369,135.217785,商業施設,対応不可
31,(株)カナエ神戸工場,650-0047,水上,神戸市中央区港島南町5-2-7,34.654181,135.218369,会社・事業所,対応不可
32,神戸新交通 みなとじま駅,650-0046,水上,神戸市中央区港島中町4,34.669246,135.209879,公共交通機関,対応不可
33,神戸新交通 神戸空港駅,650-0048,水上,神戸市中央区神戸空港1,34.637229,135.228934,公共交通機関,対応不可
34,兵庫医療大学,650-0045,水上,神戸市中央区港島1-3-6,34.666008,135.20451,学校・園・児童館,対応不可
35,介護老人福祉施設 ぽー愛,650-0046,水上,神戸市中央区港島中町5-2,34.663943,135.209061,福祉施設,対応不可
36,日東物流株式会社,650-0045,水上,神戸市中央区港島4-6,34.680566,135.216335,会社・事業所,対応不可
37,神戸第2地方合同庁舎,650-0042,水上,神戸市中央区波止場町1-1,34.685802,135.192563,官公庁,対応不可
38,神戸市環境局港島クリーンセンター,650-0046,水上,神戸市中央区港島中町8-3,34.661193,135.210583,官公庁,対応不可
39,神戸ポートピアスティ,650-0046,水上,神戸市中央区港島中町5-2-3,34.663408,135.209448,福祉施設,対応不可
40,神戸MIラボ株式会社,650-0047,水上,神戸市中央区港島南町6-7-3,34.658034,135.21776,会社・事業所,24時間利用可
41,株式会社神戸港国際流通センター,650-0045,水上,神戸市中央区港島8-2-1,34.668796,135.230624,会社・事業所,対応不可
42,協同組合 神戸船用品センター,650-0046,水上,神戸市中央区港島中町2-2-1,34.672752,135.214824,会社・事業所,対応不可
43,日本ベーリンガーインゲルハイム株式会社,650-0047,水上,神戸市中央区港島南町6-7-5,34.656766,135.218418,会社・事業所,対応不可
44,日本メジフィジックス株式会社 神戸ラボ,650-0047,水上,神戸市中央区港島南町5-5-1,34.657225,135.216443,会社・事業所,対応不可
45,株式会社OMこうべ,650-0048,水上,神戸市中央区神戸空港10,34.63975,135.228846,公共交通機関,24時間利用可能
46,株式会社 ブライダルハート,650-0046,水上,神戸市中央区港島中町6-6-3,34.665241,135.216346,商業施設,対応不可
47,TOA 株式会社,650-0046,水上,神戸市中央区港島中町7-2-1,34.669203,135.216371,会社・事業所,対応不可
48,交友印刷株式会社,650-0047,水上,神戸市中央区港島南町5丁目4-5,34.657043,135.214808,会社・事業所,対応不可
49,トラスコ中山株式会社 プラネット神戸,650-0046,水上,神戸市中央区港島中町1-3-5,34.674774,135.212035,会社・事業所,対応不可
50,独立行政法人理化学研究所 神戸研究所,650-0047,水上,神戸市中央区港島南町2-2-3,34.658027,135.21499,医療関連施設,対応不可
51,商船港運株式会社 神戸コンテナターミナル部,650-0045,水上,神戸市中央区港島9-3,34.657564,135.236422,会社・事業所,対応不可
52,ポートアイランド住宅管理組合,650-0046,水上,神戸市中央区港島中町3-1,34.671774,135.210113,集合住宅,対応不可
53,神戸市立みなと保育所,650-0042,水上,神戸市中央区波止場町6-2,34.684836,135.185152,学校・園・児童館,対応不可
54,株式会社 HAA神戸,651-0082,水上,神戸市中央区小野浜町21-1,34.690864,135.213159,会社・事業所,対応不可
55,株式会社 アシックス,650-0046,水上,神戸市中央区港島中町7-1-1,34.668594,135.215676,会社・事業所,対応不可
56,商船港運株式会社 神戸事業部(神戸フレートセンター),650-0045,水上,神戸市中央区港島9丁目12,34.654112,135.237056,会社・事業所,対応不可
57,商船港運株式会社 神戸事業部(マリンハウス),650-0045,水上,神戸市中央区港島9丁目3,34.658557,135.233284,会社・事業所,対応不可
58,インターテック(株)神戸営業所,650-0045,水上,神戸市中央区港島4-5-5,34.680776,135.220229,会社・事業所,対応不可
59,社団法人 神戸港振興協会 神戸ポートターミナル事務所,650-0041,水上,神戸市中央区新港町4-5,34.680473,135.202911,公共交通機関,対応不可
60,神戸夙川学院大学,650-0045,水上,神戸市中央区港島1-3-11,34.665477,135.205325,学校・園・児童館,対応不可
61,港島ふれあいセンター(地域福祉センター・児童館),650-0046,水上,神戸市中央区港島中町2-3,34.670463,135.214966,小集会場・公民館・地域福祉センター,対応不可
62,国土交通省 近畿地方整備局 神戸港湾事務所,651-0082,水上,神戸市中央区小野浜町7-30,34.69062,135.206593,官公庁,対応不可
63,神戸市立港島幼稚園,650-0046,水上,神戸市中央区港島中町3-2-10,34.669027,135.214172,学校・園・児童館,対応不可
64,神戸市建設局中央水環境センター ポートアイランド処理場,650-0046,水上,神戸市中央区港島中町8丁目4,34.661677,135.211302,官公庁,対応不可
65,アスビオファーマ株式会社,650-0047,水上,神戸市中央区港島南町6-4-3,34.65607,135.21886,会社・事業所,対応不可
66,(株)OMこうべ ポートアイランドビル,650-0046,水上,神戸市中央区港島中町4丁目1-1,34.672753,135.207526,官公庁,対応不可
67,(株)OMこうべ 神戸国際交流会館,650-0046,水上,神戸市中央区港島中町6丁目,34.666133,135.212791,大集会場・ホール,対応不可
68,(株)OMこうべ 北埠頭ビル(デッキプラザ),650-0046,水上,神戸市中央区港島中町2丁目1-3,34.673064,135.214144,官公庁,対応不可
69,(株)OMこうべ 神戸キメックセンタービル,650-0047,水上,神戸市中央区港島南町1丁目,34.658767,135.217018,官公庁,対応不可
70,株式会社ワールドブライダル神戸 ラヴィマーナ神戸,650-0048,水上,神戸市中央区神戸空港8-2,34.635352,135.212074,商業施設,対応不可
71,株式会社ジーエークロッシング,650-0047,水上,神戸市中央区港島南町1丁目3-5,34.661325,135.219257,会社・事業所,対応不可
72,ニッケル.エンド.ライオンス,650-0045,水上,神戸市中央区港島7丁目9番L-12,34.672325,135.2266,会社・事業所,対応不可
73,神戸メリケンパークオリエンタルホテル,650-0042,水上,神戸市中央区波止場町5番6号,34.680056,135.188768,宿泊施設,24時間利用可
74,株式会社オフテクス,650-0047,水上,神戸市中央区港島南町5丁目2-4,34.65568,135.217668,会社・事業所,対応不可
75,神戸ポートアイランド市民広場地下駐車場,650-0046,水上,神戸市中央区港島中町6-9-2,34.666313,135.212599,会社・事業所,対応不可
76,神戸税関,650-0041,水上,神戸市中央区新港町4丁目12-1,34.684816,135.197654,官公庁,対応不可
77,神戸税関ポートアイランド出張所,650-0046,水上,神戸市中央区港島中町2-1,34.67378,135.213776,官公庁,対応不可
78,兵庫県警神戸水上警察署,650-0045,水上,神戸市中央区港島3丁目1,34.677002,135.205573,官公庁,24時間利用可
79,兵庫県警神戸水上警察署 ポートアイランド交番,650-0046,水上,神戸市中央区港島中町4丁目1-1,34.672539,135.207806,官公庁,24時間利用可
80,株式会社 ワールド,650-0046,水上,神戸市中央区港島中町6丁目8-1,34.66689,135.213603,会社・事業所,24時間利用可
81,ポートピアプラザC棟,650-0046,水上,神戸市中央区港島中町6丁目14,34.666124,135.209777,集合住宅,対応不可
82,デザイン・クリエイティブセンター神戸(KIITO),651-0082,水上,神戸市中央区小野浜町1-4,34.684945,135.1992,商業施設,対応不可
83,(株)どうぶつ王国,6500047,水上,神戸市中央区港島南町7-1-9,34.654214,135.222747,公園・文教施設,対応不可
84,ポートライナー中公園駅,650-0046,水上,神戸市中央区港島中町4丁目,34.67309,135.207428,公共交通機関,対応不可
85,ポートライナー市民広場駅,650-0046,水上,神戸市中央区港島中町6丁目,34.664767,135.212698,公共交通機関,対応不可
86,ポートライナー医療センター駅,650-0047,水上,神戸市中央区港島南町1丁目1-1,34.658549,135.216451,公共交通機関,対応不可
